,YYYY,State,COUNTY,FIPS_State,FIPS_County,FIPS_Combined,SubstanceName,DrugReports,TotalDrugReportsCounty,TotalDrugReportsState,lat,lon,Rat
19,2010,WV,BARBOUR,54,1,54001,Oxycodone,1,16,8668,39.13333,-80.03333,0.0018458698661744347
27,2010,WV,BERKELEY,54,3,54003,Hydrocodone,6,722,8668,39.45,-78.03333,0.08329487771112136
31,2010,WV,BOONE,54,5,54005,Fentanyl,1,90,8668,38.01667,-81.7,0.010383017997231195
33,2010,WV,BRAXTON,54,7,54007,Hydrocodone,35,167,8668,38.71667,-80.7,0.01926626672819566
47,2010,WV,CABELL,54,11,54011,Oxycodone,116,517,8668,38.43333,-82.25,0.05964467005076142
48,2010,WV,CALHOUN,54,13,54013,Oxycodone,1,8,8668,38.83333,-81.11667,0.0009229349330872173
93,2010,WV,DODDRIDGE,54,17,54017,Oxycodone,2,16,8668,39.26667,-80.7,0.0018458698661744347
125,2010,WV,BERKELEY,54,3,54003,Heroin,146,722,8668,39.45,-78.03333,0.08329487771112136
223,2010,WV,BERKELEY,54,3,54003,Oxycodone,9,722,8668,39.45,-78.03333,0.08329487771112136
246,2010,WV,CALHOUN,54,13,54013,Hydrocodone,1,8,8668,38.83333,-81.11667,0.0009229349330872173
247,2010,WV,CALHOUN,54,13,54013,Morphine,1,8,8668,38.83333,-81.11667,0.0009229349330872173
328,2010,WV,BERKELEY,54,3,54003,Buprenorphine,7,722,8668,39.45,-78.03333,0.08329487771112136
329,2010,WV,BERKELEY,54,3,54003,Dextropropoxyphene,1,722,8668,39.45,-78.03333,0.08329487771112136
334,2010,WV,BOONE,54,5,54005,Oxymorphone,2,90,8668,38.01667,-81.7,0.010383017997231195
340,2010,WV,BRAXTON,54,7,54007,Buprenorphine,1,167,8668,38.71667,-80.7,0.01926626672819566
343,2010,WV,BROOKE,54,9,54009,Hydrocodone,3,9,8668,40.28333,-80.56667,0.0010383017997231195
355,2010,WV,CABELL,54,11,54011,Hydrocodone,16,517,8668,38.43333,-82.25,0.05964467005076142
374,2010,WV,CLAY,54,15,54015,Hydrocodone,9,50,8668,38.48333,-81.06667,0.005768343331795108
424,2010,WV,BERKELEY,54,3,54003,Oxymorphone,1,722,8668,39.45,-78.03333,0.08329487771112136
437,2010,WV,BRAXTON,54,7,54007,Oxycodone,17,167,8668,38.71667,-80.7,0.01926626672819566
450,2010,WV,CABELL,54,11,54011,Heroin,23,517,8668,38.43333,-82.25,0.05964467005076142
498,2010,WV,DODDRIDGE,54,17,54017,Hydrocodone,6,16,8668,39.26667,-80.7,0.0018458698661744347
523,2010,WV,BARBOUR,54,1,54001,Buprenorphine,1,16,8668,39.13333,-80.03333,0.0018458698661744347
529,2010,WV,BERKELEY,54,3,54003,Methorphan,1,722,8668,39.45,-78.03333,0.08329487771112136
532,2010,WV,BOONE,54,5,54005,Oxycodone,22,90,8668,38.01667,-81.7,0.010383017997231195
539,2010,WV,BRAXTON,54,7,54007,Morphine,7,167,8668,38.71667,-80.7,0.01926626672819566
550,2010,WV,CABELL,54,11,54011,Buprenorphine,3,517,8668,38.43333,-82.25,0.05964467005076142
551,2010,WV,CABELL,54,11,54011,Morphine,8,517,8668,38.43333,-82.25,0.05964467005076142
635,2010,WV,BOONE,54,5,54005,Morphine,1,90,8668,38.01667,-81.7,0.010383017997231195
729,2010,WV,BERKELEY,54,3,54003,Morphine,2,722,8668,39.45,-78.03333,0.08329487771112136
733,2010,WV,BOONE,54,5,54005,Hydrocodone,14,90,8668,38.01667,-81.7,0.010383017997231195
738,2010,WV,BRAXTON,54,7,54007,Hydromorphone,1,167,8668,38.71667,-80.7,0.01926626672819566
830,2010,WV,GRANT,54,23,54023,Heroin,2,95,8668,39.11667,-79.2,0.010959852330410707
837,2010,WV,GREENBRIER,54,25,54025,Morphine,3,254,8668,37.95,-80.41667,0.02930318412551915
851,2010,WV,HARDY,54,31,54031,Oxycodone,4,76,8668,39.01667,-78.81667,0.008767881864328565
852,2010,WV,HARRISON,54,33,54033,Hydromorphone,2,196,8668,39.28333,-80.38333,0.022611905860636824
867,2010,WV,JACKSON,54,35,54035,Hydrocodone,2,116,8668,38.83333,-81.68333,0.01338255652976465
875,2010,WV,JEFFERSON,54,37,54037,Buprenorphine,4,133,8668,39.3,-77.85,0.01534379326257499
898,2010,WV,LOGAN,54,45,54045,Buprenorphine,11,307,8668,37.83333,-81.93333,0.03541762805722196
926,2010,WV,GRANT,54,23,54023,Hydrocodone,10,95,8668,39.11667,-79.2,0.010959852330410707
929,2010,WV,GREENBRIER,54,25,54025,Hydromorphone,2,254,8668,37.95,-80.41667,0.02930318412551915
938,2010,WV,HANCOCK,54,29,54029,Heroin,79,152,8668,40.50056,-80.56667,0.01753576372865713
944,2010,WV,HARDY,54,31,54031,Buprenorphine,1,76,8668,39.01667,-78.81667,0.008767881864328565
947,2010,WV,HARRISON,54,33,54033,Methadone,1,196,8668,39.28333,-80.38333,0.022611905860636824
969,2010,WV,JEFFERSON,54,37,54037,Oxycodone,6,133,8668,39.3,-77.85,0.01534379326257499
971,2010,WV,KANAWHA,54,39,54039,Heroin,72,1440,8668,38.33333,-81.56667,0.16612828795569912
972,2010,WV,KANAWHA,54,39,54039,Methadone,1,1440,8668,38.33333,-81.56667,0.16612828795569912
999,2010,WV,LOGAN,54,45,54045,Oxycodone,93,307,8668,37.83333,-81.93333,0.03541762805722196
1000,2010,WV,LOGAN,54,45,54045,Oxymorphone,1,307,8668,37.83333,-81.93333,0.03541762805722196
1003,2010,WV,FAYETTE,54,19,54019,Oxycodone,15,135,8668,38.05,-81.1,0.015574526995846792
1018,2010,WV,GRANT,54,23,54023,Hydromorphone,3,95,8668,39.11667,-79.2,0.010959852330410707
1032,2010,WV,HANCOCK,54,29,54029,Hydrocodone,4,152,8668,40.50056,-80.56667,0.01753576372865713
1038,2010,WV,HARDY,54,31,54031,Dextropropoxyphene,2,76,8668,39.01667,-78.81667,0.008767881864328565
1051,2010,WV,JACKSON,54,35,54035,Buprenorphine,2,116,8668,38.83333,-81.68333,0.01338255652976465
1056,2010,WV,KANAWHA,54,39,54039,Hydrocodone,94,1440,8668,38.33333,-81.56667,0.16612828795569912
1090,2010,WV,MARION,54,49,54049,Heroin,100,348,8668,39.51667,-80.25,0.04014766958929396
1091,2010,WV,MARSHALL,54,51,54051,Hydrocodone,7,126,8668,39.86667,-80.65,0.014536225196123673
1095,2010,WV,MASON,54,53,54053,Oxycodone,11,94,8668,38.8,-82.00028,0.010844485463774804
1098,2010,WV,MCDOWELL,54,47,54047,Hydrocodone,8,99,8668,37.36667,-81.65,0.011421319796954314
1123,2010,WV,GRANT,54,23,54023,Oxycodone,8,95,8668,39.11667,-79.2,0.010959852330410707
1125,2010,WV,GREENBRIER,54,25,54025,Hydrocodone,3,254,8668,37.95,-80.41667,0.02930318412551915
1139,2010,WV,HARRISON,54,33,54033,Morphine,2,196,8668,39.28333,-80.38333,0.022611905860636824
1149,2010,WV,JACKSON,54,35,54035,Dextropropoxyphene,1,116,8668,38.83333,-81.68333,0.01338255652976465
1152,2010,WV,KANAWHA,54,39,54039,Buprenorphine,12,1440,8668,38.33333,-81.56667,0.16612828795569912
1153,2010,WV,KANAWHA,54,39,54039,Codeine,2,1440,8668,38.33333,-81.56667,0.16612828795569912
1154,2010,WV,KANAWHA,54,39,54039,Dextropropoxyphene,3,1440,8668,38.33333,-81.56667,0.16612828795569912
1186,2010,WV,MARION,54,49,54049,Buprenorphine,2,348,8668,39.51667,-80.25,0.04014766958929396
1187,2010,WV,MARION,54,49,54049,Hydrocodone,13,348,8668,39.51667,-80.25,0.04014766958929396
1188,2010,WV,MARION,54,49,54049,Morphine,15,348,8668,39.51667,-80.25,0.04014766958929396
1192,2010,WV,MCDOWELL,54,47,54047,Methadone,1,99,8668,37.36667,-81.65,0.011421319796954314
1215,2010,WV,FAYETTE,54,19,54019,Methadone,2,135,8668,38.05,-81.1,0.015574526995846792
1238,2010,WV,GRANT,54,23,54023,Morphine,2,95,8668,39.11667,-79.2,0.010959852330410707
1253,2010,WV,HANCOCK,54,29,54029,Oxycodone,4,152,8668,40.50056,-80.56667,0.01753576372865713
1256,2010,WV,HARDY,54,31,54031,Hydromorphone,1,76,8668,39.01667,-78.81667,0.008767881864328565
1258,2010,WV,HARRISON,54,33,54033,Codeine,2,196,8668,39.28333,-80.38333,0.022611905860636824
1259,2010,WV,HARRISON,54,33,54033,Heroin,35,196,8668,39.28333,-80.38333,0.022611905860636824
1318,2010,WV,FAYETTE,54,19,54019,Hydrocodone,8,135,8668,38.05,-81.1,0.015574526995846792
1342,2010,WV,GRANT,54,23,54023,Buprenorphine,1,95,8668,39.11667,-79.2,0.010959852330410707
1363,2010,WV,HARDY,54,31,54031,Hydrocodone,5,76,8668,39.01667,-78.81667,0.008767881864328565
1366,2010,WV,HARRISON,54,33,54033,Oxycodone,3,196,8668,39.28333,-80.38333,0.022611905860636824
1379,2010,WV,JACKSON,54,35,54035,Oxycodone,7,116,8668,38.83333,-81.68333,0.01338255652976465
1382,2010,WV,JEFFERSON,54,37,54037,Heroin,12,133,8668,39.3,-77.85,0.01534379326257499
1433,2010,WV,GREENBRIER,54,25,54025,Buprenorphine,2,254,8668,37.95,-80.41667,0.02930318412551915
1441,2010,WV,HANCOCK,54,29,54029,Buprenorphine,2,152,8668,40.50056,-80.56667,0.01753576372865713
1442,2010,WV,HANCOCK,54,29,54029,Dextropropoxyphene,2,152,8668,40.50056,-80.56667,0.01753576372865713
1443,2010,WV,HANCOCK,54,29,54029,Morphine,1,152,8668,40.50056,-80.56667,0.01753576372865713
1446,2010,WV,HARDY,54,31,54031,Heroin,3,76,8668,39.01667,-78.81667,0.008767881864328565
1472,2010,WV,KANAWHA,54,39,54039,Oxycodone,154,1440,8668,38.33333,-81.56667,0.16612828795569912
1473,2010,WV,KANAWHA,54,39,54039,Oxymorphone,2,1440,8668,38.33333,-81.56667,0.16612828795569912
1528,2010,WV,GREENBRIER,54,25,54025,Oxycodone,8,254,8668,37.95,-80.41667,0.02930318412551915
1541,2010,WV,HARRISON,54,33,54033,Hydrocodone,8,196,8668,39.28333,-80.38333,0.022611905860636824
1592,2010,WV,LOGAN,54,45,54045,Morphine,1,307,8668,37.83333,-81.93333,0.03541762805722196
1612,2010,WV,LOGAN,54,45,54045,Methadone,1,307,8668,37.83333,-81.93333,0.03541762805722196
1634,2010,WV,MARSHALL,54,51,54051,Fentanyl,1,126,8668,39.86667,-80.65,0.014536225196123673
1635,2010,WV,MARSHALL,54,51,54051,Heroin,7,126,8668,39.86667,-80.65,0.014536225196123673
1652,2010,WV,MINERAL,54,57,54057,Oxycodone,1,104,8668,39.4,-78.95,0.011998154130133826
1664,2010,WV,MORGAN,54,65,54065,Buprenorphine,2,40,8668,39.56667,-78.25028,0.0046146746654360865
1675,2010,WV,NICHOLAS,54,67,54067,Heroin,1,199,8668,38.3,-80.83333,0.022958006460544533
1678,2010,WV,OHIO,54,69,54069,Dihydrocodeine,1,249,8668,40.1,-80.61667,0.02872634979233964
1679,2010,WV,OHIO,54,69,54069,Oxycodone,28,249,8668,40.1,-80.61667,0.02872634979233964
1722,2010,WV,MASON,54,53,54053,Buprenorphine,1,94,8668,38.8,-82.00028,0.010844485463774804
1723,2010,WV,MASON,54,53,54053,Hydrocodone,5,94,8668,38.8,-82.00028,0.010844485463774804
1726,2010,WV,MCDOWELL,54,47,54047,Hydromorphone,2,99,8668,37.36667,-81.65,0.011421319796954314
1733,2010,WV,MERCER,54,55,54055,Dextropropoxyphene,1,587,8668,37.4,-81.11667,0.06772035071527457
1734,2010,WV,MERCER,54,55,54055,Hydromorphone,43,587,8668,37.4,-81.11667,0.06772035071527457
1738,2010,WV,MINERAL,54,57,54057,Heroin,29,104,8668,39.4,-78.95,0.011998154130133826
1747,2010,WV,MORGAN,54,65,54065,Hydrocodone,2,40,8668,39.56667,-78.25028,0.0046146746654360865
1755,2010,WV,NICHOLAS,54,67,54067,Oxycodone,53,199,8668,38.3,-80.83333,0.022958006460544533
1756,2010,WV,NICHOLAS,54,67,54067,Oxymorphone,1,199,8668,38.3,-80.83333,0.022958006460544533
1761,2010,WV,OHIO,54,69,54069,Acetylcodeine,5,249,8668,40.1,-80.61667,0.02872634979233964
1762,2010,WV,OHIO,54,69,54069,Heroin,27,249,8668,40.1,-80.61667,0.02872634979233964
1763,2010,WV,OHIO,54,69,54069,Methadone,6,249,8668,40.1,-80.61667,0.02872634979233964
1774,2010,WV,POCAHONTAS,54,75,54075,Dextropropoxyphene,1,41,8668,38.31667,-80.03333,0.004730041532071989
1784,2010,WV,RALEIGH,54,81,54081,Dextropropoxyphene,2,494,8668,37.75,-81.25,0.05699123211813567
1785,2010,WV,RALEIGH,54,81,54081,Morphine,1,494,8668,37.75,-81.25,0.05699123211813567
1789,2010,WV,RITCHIE,54,85,54085,Hydrocodone,1,54,8668,39.16667,-81.08333,0.006229810798338717
1790,2010,WV,ROANE,54,87,54087,Hydrocodone,2,21,8668,38.73333,-81.35,0.0024227041993539456
1824,2010,WV,MARSHALL,54,51,54051,Morphine,1,126,8668,39.86667,-80.65,0.014536225196123673
1837,2010,WV,MERCER,54,55,54055,Morphine,6,587,8668,37.4,-81.11667,0.06772035071527457
1839,2010,WV,MINERAL,54,57,54057,Hydrocodone,1,104,8668,39.4,-78.95,0.011998154130133826
1840,2010,WV,MONONGALIA,54,61,54061,Heroin,219,337,8668,39.65,-80.03333,0.03887863405629903
1843,2010,WV,MONROE,54,63,54063,Buprenorphine,1,62,8668,37.56667,-80.55,0.007152745731425935
1854,2010,WV,NICHOLAS,54,67,54067,Pentazocine,1,199,8668,38.3,-80.83333,0.022958006460544533
1885,2010,WV,PRESTON,54,77,54077,Buprenorphine,1,26,8668,39.46667,-79.66667,0.0029995385325334565
1895,2010,WV,RALEIGH,54,81,54081,Hydromorphone,12,494,8668,37.75,-81.25,0.05699123211813567
1911,2010,WV,MCDOWELL,54,47,54047,Oxycodone,14,99,8668,37.36667,-81.65,0.011421319796954314
1921,2010,WV,MINGO,54,59,54059,Oxycodone,77,180,8668,37.7,-82.15,0.02076603599446239
1922,2010,WV,MONONGALIA,54,61,54061,Oxycodone,9,337,8668,39.65,-80.03333,0.03887863405629903
1939,2010,WV,OHIO,54,69,54069,Dextropropoxyphene,2,249,8668,40.1,-80.61667,0.02872634979233964
1940,2010,WV,OHIO,54,69,54069,Morphine,13,249,8668,40.1,-80.61667,0.02872634979233964
1954,2010,WV,POCAHONTAS,54,75,54075,Oxycodone,7,41,8668,38.31667,-80.03333,0.004730041532071989
1961,2010,WV,PRESTON,54,77,54077,Hydrocodone,6,26,8668,39.46667,-79.66667,0.0029995385325334565
1966,2010,WV,RALEIGH,54,81,54081,Heroin,14,494,8668,37.75,-81.25,0.05699123211813567
2006,2010,WV,MARION,54,49,54049,Thebaine,1,348,8668,39.51667,-80.25,0.04014766958929396
2011,2010,WV,MCDOWELL,54,47,54047,Buprenorphine,2,99,8668,37.36667,-81.65,0.011421319796954314
2023,2010,WV,MERCER,54,55,54055,Buprenorphine,5,587,8668,37.4,-81.11667,0.06772035071527457
2029,2010,WV,MINERAL,54,57,54057,Methorphan,1,104,8668,39.4,-78.95,0.011998154130133826
2030,2010,WV,MINGO,54,59,54059,Pentazocine,1,180,8668,37.7,-82.15,0.02076603599446239
2044,2010,WV,NICHOLAS,54,67,54067,Morphine,8,199,8668,38.3,-80.83333,0.022958006460544533
2050,2010,WV,OHIO,54,69,54069,Buprenorphine,1,249,8668,40.1,-80.61667,0.02872634979233964
2063,2010,WV,POCAHONTAS,54,75,54075,Hydrocodone,3,41,8668,38.31667,-80.03333,0.004730041532071989
2077,2010,WV,PUTNAM,54,79,54079,Hydrocodone,15,188,8668,38.51667,-81.88333,0.02168897092754961
2078,2010,WV,PUTNAM,54,79,54079,Oxycodone,17,188,8668,38.51667,-81.88333,0.02168897092754961
2079,2010,WV,PUTNAM,54,79,54079,Oxymorphone,1,188,8668,38.51667,-81.88333,0.02168897092754961
2081,2010,WV,RALEIGH,54,81,54081,Hydrocodone,23,494,8668,37.75,-81.25,0.05699123211813567
2087,2010,WV,RITCHIE,54,85,54085,Oxycodone,1,54,8668,39.16667,-81.08333,0.006229810798338717
2105,2010,WV,MERCER,54,55,54055,Oxycodone,201,587,8668,37.4,-81.11667,0.06772035071527457
2106,2010,WV,MERCER,54,55,54055,Oxymorphone,4,587,8668,37.4,-81.11667,0.06772035071527457
2110,2010,WV,MONROE,54,63,54063,Oxycodone,22,62,8668,37.56667,-80.55,0.007152745731425935
2119,2010,WV,MORGAN,54,65,54065,Heroin,3,40,8668,39.56667,-78.25028,0.0046146746654360865
2131,2010,WV,OHIO,54,69,54069,Hydrocodone,5,249,8668,40.1,-80.61667,0.02872634979233964
2144,2010,WV,POCAHONTAS,54,75,54075,Fentanyl,1,41,8668,38.31667,-80.03333,0.004730041532071989
2155,2010,WV,RANDOLPH,54,83,54083,Heroin,1,36,8668,38.76667,-79.83333,0.004153207198892478
2203,2010,WV,MERCER,54,55,54055,Methadone,4,587,8668,37.4,-81.11667,0.06772035071527457
2208,2010,WV,MINGO,54,59,54059,Hydrocodone,41,180,8668,37.7,-82.15,0.02076603599446239
2220,2010,WV,NICHOLAS,54,67,54067,Hydrocodone,19,199,8668,38.3,-80.83333,0.022958006460544533
2225,2010,WV,OHIO,54,69,54069,Fentanyl,2,249,8668,40.1,-80.61667,0.02872634979233964
2237,2010,WV,POCAHONTAS,54,75,54075,Morphine,5,41,8668,38.31667,-80.03333,0.004730041532071989
2253,2010,WV,RALEIGH,54,81,54081,Oxycodone,127,494,8668,37.75,-81.25,0.05699123211813567
2308,2010,WV,PRESTON,54,77,54077,Methadone,1,26,8668,39.46667,-79.66667,0.0029995385325334565
2318,2010,WV,RALEIGH,54,81,54081,Buprenorphine,4,494,8668,37.75,-81.25,0.05699123211813567
2320,2010,WV,ROANE,54,87,54087,Fentanyl,1,21,8668,38.73333,-81.35,0.0024227041993539456
2321,2010,WV,ROANE,54,87,54087,Oxycodone,1,21,8668,38.73333,-81.35,0.0024227041993539456
2350,2010,WV,UPSHUR,54,97,54097,Hydrocodone,49,253,8668,38.88333,-80.25056,0.02918781725888325
2351,2010,WV,UPSHUR,54,97,54097,Morphine,13,253,8668,38.88333,-80.25056,0.02918781725888325
2409,2010,WV,SUMMERS,54,89,54089,Hydrocodone,1,59,8668,37.65,-80.86667,0.006806645131518228
2419,2010,WV,TUCKER,54,93,54093,Heroin,1,1,8668,39.1,-79.56667,0.00011536686663590217
2423,2010,WV,TYLER,54,95,54095,Heroin,25,57,8668,39.45,-80.86667,0.006575911398246424
2440,2010,WV,WAYNE,54,99,54099,Buprenorphine,1,23,8668,38.15,-82.45,0.00265343793262575
2441,2010,WV,WAYNE,54,99,54099,Hydrocodone,9,23,8668,38.15,-82.45,0.00265343793262575
2446,2010,WV,WETZEL,54,103,54103,Heroin,4,24,8668,39.58333,-80.66667,0.0027688047992616522
2453,2010,WV,WYOMING,54,109,54109,Oxycodone,5,15,8668,37.61667,-81.55,0.0017305029995385325
2481,2011,WV,BARBOUR,54,1,54001,Buprenorphine,1,16,9310,39.13333,-80.03333,0.0017185821697099893
2489,2011,WV,BERKELEY,54,3,54003,Methorphan,4,856,9310,39.45,-78.03333,0.09194414607948442
2490,2011,WV,BERKELEY,54,3,54003,Oxycodone,25,856,9310,39.45,-78.03333,0.09194414607948442
2531,2010,WV,TYLER,54,95,54095,Hydrocodone,2,57,8668,39.45,-80.86667,0.006575911398246424
2532,2010,WV,UPSHUR,54,97,54097,Heroin,1,253,8668,38.88333,-80.25056,0.02918781725888325
2554,2010,WV,WAYNE,54,99,54099,Oxycodone,9,23,8668,38.15,-82.45,0.00265343793262575
2555,2010,WV,WAYNE,54,99,54099,Oxymorphone,1,23,8668,38.15,-82.45,0.00265343793262575
2568,2010,WV,WOOD,54,107,54107,Heroin,60,287,8668,39.2,-81.50139,0.03311029072450392
2569,2010,WV,WOOD,54,107,54107,Hydrocodone,15,287,8668,39.2,-81.50139,0.03311029072450392
2573,2010,WV,WYOMING,54,109,54109,Hydrocodone,1,15,8668,37.61667,-81.55,0.0017305029995385325
2600,2011,WV,BERKELEY,54,3,54003,Fentanyl,2,856,9310,39.45,-78.03333,0.09194414607948442
2601,2011,WV,BERKELEY,54,3,54003,Morphine,2,856,9310,39.45,-78.03333,0.09194414607948442
2624,2010,WV,UPSHUR,54,97,54097,Buprenorphine,4,253,8668,38.88333,-80.25056,0.02918781725888325
2648,2010,WV,WOOD,54,107,54107,Methadone,2,287,8668,39.2,-81.50139,0.03311029072450392
2683,2011,WV,BERKELEY,54,3,54003,Hydrocodone,6,856,9310,39.45,-78.03333,0.09194414607948442
2687,2011,WV,BOONE,54,5,54005,Oxycodone,24,134,9310,38.01667,-81.7,0.01439312567132116
2693,2011,WV,BRAXTON,54,7,54007,Hydrocodone,18,83,9310,38.71667,-80.7,0.00891514500537057
2694,2011,WV,BRAXTON,54,7,54007,Oxycodone,6,83,9310,38.71667,-80.7,0.00891514500537057
2696,2011,WV,BROOKE,54,9,54009,Hydrocodone,2,8,9310,40.28333,-80.56667,0.0008592910848549946
2720,2010,WV,WETZEL,54,103,54103,Oxycodone,2,24,8668,39.58333,-80.66667,0.0027688047992616522
2726,2010,WV,WOOD,54,107,54107,Oxycodone,6,287,8668,39.2,-81.50139,0.03311029072450392
2762,2011,WV,BERKELEY,54,3,54003,Methadone,9,856,9310,39.45,-78.03333,0.09194414607948442
2767,2011,WV,BOONE,54,5,54005,Buprenorphine,5,134,9310,38.01667,-81.7,0.01439312567132116
2771,2011,WV,BRAXTON,54,7,54007,Pentazocine,1,83,9310,38.71667,-80.7,0.00891514500537057
2780,2011,WV,CABELL,54,11,54011,Hydromorphone,2,804,9310,38.43333,-82.25,0.08635875402792696
2800,2011,WV,CLAY,54,15,54015,Oxycodone,3,78,9310,38.48333,-81.06667,0.008378088077336197
2816,2010,WV,WIRT,54,105,54105,Hydrocodone,1,12,8668,39.03333,-81.35,0.0013844023996308261
2846,2011,WV,BERKELEY,54,3,54003,Codeine,1,856,9310,39.45,-78.03333,0.09194414607948442
2855,2011,WV,BRAXTON,54,7,54007,Methadone,1,83,9310,38.71667,-80.7,0.00891514500537057
2866,2011,WV,CABELL,54,11,54011,Heroin,129,804,9310,38.43333,-82.25,0.08635875402792696
2867,2011,WV,CABELL,54,11,54011,Methadone,1,804,9310,38.43333,-82.25,0.08635875402792696
2907,2010,WV,LOGAN,54,45,54045,Hydrocodone,30,307,8668,37.83333,-81.93333,0.03541762805722196
2923,2010,WV,MARION,54,49,54049,Codeine,1,348,8668,39.51667,-80.25,0.04014766958929396
2924,2010,WV,MARION,54,49,54049,Oxycodone,13,348,8668,39.51667,-80.25,0.04014766958929396
2925,2010,WV,MARSHALL,54,51,54051,Oxycodone,14,126,8668,39.86667,-80.65,0.014536225196123673
2928,2010,WV,MASON,54,53,54053,Heroin,21,94,8668,38.8,-82.00028,0.010844485463774804
2939,2010,WV,MERCER,54,55,54055,Hydrocodone,62,587,8668,37.4,-81.11667,0.06772035071527457
2947,2010,WV,MONROE,54,63,54063,Hydrocodone,12,62,8668,37.56667,-80.55,0.007152745731425935
2952,2010,WV,MORGAN,54,65,54065,Oxycodone,2,40,8668,39.56667,-78.25028,0.0046146746654360865
2953,2010,WV,MORGAN,54,65,54065,Oxymorphone,4,40,8668,39.56667,-78.25028,0.0046146746654360865
2964,2010,WV,OHIO,54,69,54069,Hydromorphone,2,249,8668,40.1,-80.61667,0.02872634979233964
2993,2010,WV,PRESTON,54,77,54077,Heroin,5,26,8668,39.46667,-79.66667,0.0029995385325334565
3040,2010,WV,UPSHUR,54,97,54097,Oxycodone,24,253,8668,38.88333,-80.25056,0.02918781725888325
3067,2010,WV,WETZEL,54,103,54103,Hydrocodone,4,24,8668,39.58333,-80.66667,0.0027688047992616522
3103,2011,WV,BERKELEY,54,3,54003,Buprenorphine,15,856,9310,39.45,-78.03333,0.09194414607948442
3107,2011,WV,BOONE,54,5,54005,Hydrocodone,16,134,9310,38.01667,-81.7,0.01439312567132116
3115,2011,WV,BRAXTON,54,7,54007,Morphine,7,83,9310,38.71667,-80.7,0.00891514500537057
3122,2011,WV,CABELL,54,11,54011,Buprenorphine,6,804,9310,38.43333,-82.25,0.08635875402792696
3172,2011,WV,FAYETTE,54,19,54019,Oxycodone,31,125,9310,38.05,-81.1,0.01342642320085929
3173,2011,WV,FAYETTE,54,19,54019,Oxymorphone,3,125,9310,38.05,-81.1,0.01342642320085929
3187,2011,WV,GILMER,54,21,54021,Hydrocodone,1,82,9310,38.93333,-80.85,0.008807733619763695
3197,2011,WV,HAMPSHIRE,54,27,54027,Morphine,14,118,9310,39.33333,-78.6,0.012674543501611171
3200,2011,WV,HANCOCK,54,29,54029,Fentanyl,4,97,9310,40.50056,-80.56667,0.01041890440386681
3291,2011,WV,HAMPSHIRE,54,27,54027,Hydromorphone,4,118,9310,39.33333,-78.6,0.012674543501611171
3295,2011,WV,HANCOCK,54,29,54029,Buprenorphine,2,97,9310,40.50056,-80.56667,0.01041890440386681
3301,2011,WV,HARRISON,54,33,54033,Morphine,1,148,9310,39.28333,-80.38333,0.0158968850698174
3317,2011,WV,DODDRIDGE,54,17,54017,Hydrocodone,1,41,9310,39.26667,-80.7,0.0044038668098818476
3372,2011,WV,HARDY,54,31,54031,Heroin,5,138,9310,39.01667,-78.81667,0.014822771213748658
3377,2011,WV,HARRISON,54,33,54033,Buprenorphine,2,148,9310,39.28333,-80.38333,0.0158968850698174
3402,2011,WV,KANAWHA,54,39,54039,Oxycodone,176,1790,9310,38.33333,-81.56667,0.19226638023630505
3403,2011,WV,KANAWHA,54,39,54039,Oxymorphone,38,1790,9310,38.33333,-81.56667,0.19226638023630505
3434,2010,WV,SUMMERS,54,89,54089,Heroin,12,59,8668,37.65,-80.86667,0.006806645131518228
3448,2010,WV,UPSHUR,54,97,54097,Fentanyl,2,253,8668,38.88333,-80.25056,0.02918781725888325
3449,2010,WV,UPSHUR,54,97,54097,Hydromorphone,2,253,8668,38.88333,-80.25056,0.02918781725888325
3465,2010,WV,WAYNE,54,99,54099,Dextropropoxyphene,1,23,8668,38.15,-82.45,0.00265343793262575
3469,2010,WV,WOOD,54,107,54107,Buprenorphine,1,287,8668,39.2,-81.50139,0.03311029072450392
3470,2010,WV,WOOD,54,107,54107,Morphine,5,287,8668,39.2,-81.50139,0.03311029072450392
3502,2011,WV,BERKELEY,54,3,54003,Heroin,210,856,9310,39.45,-78.03333,0.09194414607948442
3506,2011,WV,BOONE,54,5,54005,Oxymorphone,1,134,9310,38.01667,-81.7,0.01439312567132116
3536,2011,WV,CLAY,54,15,54015,Morphine,1,78,9310,38.48333,-81.06667,0.008378088077336197
3564,2011,WV,FAYETTE,54,19,54019,Hydrocodone,3,125,9310,38.05,-81.1,0.01342642320085929
3584,2011,WV,GILMER,54,21,54021,Oxycodone,1,82,9310,38.93333,-80.85,0.008807733619763695
3601,2011,WV,HAMPSHIRE,54,27,54027,Hydrocodone,4,118,9310,39.33333,-78.6,0.012674543501611171
3602,2011,WV,HAMPSHIRE,54,27,54027,Oxycodone,34,118,9310,39.33333,-78.6,0.012674543501611171
3604,2011,WV,HANCOCK,54,29,54029,Heroin,1,97,9310,40.50056,-80.56667,0.01041890440386681
3605,2011,WV,HANCOCK,54,29,54029,Oxycodone,9,97,9310,40.50056,-80.56667,0.01041890440386681
3629,2011,WV,CABELL,54,11,54011,Oxycodone,227,804,9310,38.43333,-82.25,0.08635875402792696
3630,2011,WV,CABELL,54,11,54011,Oxymorphone,34,804,9310,38.43333,-82.25,0.08635875402792696
3645,2011,WV,CLAY,54,15,54015,Hydrocodone,4,78,9310,38.48333,-81.06667,0.008378088077336197
3696,2011,WV,GILMER,54,21,54021,Heroin,4,82,9310,38.93333,-80.85,0.008807733619763695
3758,2011,WV,GREENBRIER,54,25,54025,Oxycodone,21,103,9310,37.95,-80.41667,0.011063372717508057
3759,2011,WV,GREENBRIER,54,25,54025,Oxymorphone,33,103,9310,37.95,-80.41667,0.011063372717508057
3769,2011,WV,HARRISON,54,33,54033,Hydrocodone,16,148,9310,39.28333,-80.38333,0.0158968850698174
3818,2011,WV,BRAXTON,54,7,54007,Buprenorphine,2,83,9310,38.71667,-80.7,0.00891514500537057
3819,2011,WV,BROOKE,54,9,54009,Heroin,5,8,9310,40.28333,-80.56667,0.0008592910848549946
3881,2011,WV,FAYETTE,54,19,54019,Heroin,6,125,9310,38.05,-81.1,0.01342642320085929
3899,2011,WV,GREENBRIER,54,25,54025,Hydrocodone,7,103,9310,37.95,-80.41667,0.011063372717508057
3905,2011,WV,HAMPSHIRE,54,27,54027,Buprenorphine,4,118,9310,39.33333,-78.6,0.012674543501611171
3909,2011,WV,HANCOCK,54,29,54029,Hydrocodone,5,97,9310,40.50056,-80.56667,0.01041890440386681
3927,2011,WV,KANAWHA,54,39,54039,Hydromorphone,8,1790,9310,38.33333,-81.56667,0.19226638023630505
3950,2011,WV,LOGAN,54,45,54045,Hydrocodone,29,348,9310,37.83333,-81.93333,0.037379162191192264
3965,2011,WV,MARION,54,49,54049,Oxycodone,13,391,9310,39.51667,-80.25,0.04199785177228786
3966,2011,WV,MARION,54,49,54049,Oxymorphone,1,391,9310,39.51667,-80.25,0.04199785177228786
3967,2011,WV,MARSHALL,54,51,54051,Hydrocodone,8,91,9310,39.86667,-80.65,0.009774436090225564
3970,2011,WV,MASON,54,53,54053,Heroin,1,45,9310,38.8,-82.00028,0.004833512352309345
3985,2011,WV,MERCER,54,55,54055,Methadone,2,567,9310,37.4,-81.11667,0.06090225563909774
3990,2011,WV,MONROE,54,63,54063,Hydrocodone,5,19,9310,37.56667,-80.55,0.0020408163265306124
3995,2011,WV,MORGAN,54,65,54065,Hydrocodone,2,64,9310,39.56667,-78.25028,0.006874328678839957
3996,2011,WV,MORGAN,54,65,54065,Oxycodone,6,64,9310,39.56667,-78.25028,0.006874328678839957
3997,2011,WV,MORGAN,54,65,54065,Oxymorphone,2,64,9310,39.56667,-78.25028,0.006874328678839957
4003,2011,WV,NICHOLAS,54,67,54067,Hydrocodone,4,153,9310,38.3,-80.83333,0.016433941997851774
4016,2011,WV,HARDY,54,31,54031,Buprenorphine,1,138,9310,39.01667,-78.81667,0.014822771213748658
4017,2011,WV,HARDY,54,31,54031,Hydrocodone,3,138,9310,39.01667,-78.81667,0.014822771213748658
4033,2011,WV,JACKSON,54,35,54035,Heroin,29,197,9310,38.83333,-81.68333,0.021160042964554242
4040,2011,WV,JEFFERSON,54,37,54037,Heroin,3,103,9310,39.3,-77.85,0.011063372717508057
4062,2011,WV,LEWIS,54,41,54041,Oxycodone,2,36,9310,38.96667,-80.51666999999999,0.003866809881847476
4086,2011,WV,MARSHALL,54,51,54051,Heroin,11,91,9310,39.86667,-80.65,0.009774436090225564
4087,2011,WV,MARSHALL,54,51,54051,Oxycodone,14,91,9310,39.86667,-80.65,0.009774436090225564
4091,2011,WV,MCDOWELL,54,47,54047,Morphine,1,79,9310,37.36667,-81.65,0.008485499462943072
4096,2011,WV,MERCER,54,55,54055,Dextropropoxyphene,1,567,9310,37.4,-81.11667,0.06090225563909774
4097,2011,WV,MERCER,54,55,54055,Hydromorphone,94,567,9310,37.4,-81.11667,0.06090225563909774
4098,2011,WV,MERCER,54,55,54055,Morphine,2,567,9310,37.4,-81.11667,0.06090225563909774
4100,2011,WV,MINERAL,54,57,54057,Fentanyl,1,105,9310,39.4,-78.95,0.011278195488721804
4101,2011,WV,MINERAL,54,57,54057,Heroin,13,105,9310,39.4,-78.95,0.011278195488721804
4102,2011,WV,MINERAL,54,57,54057,Methadone,1,105,9310,39.4,-78.95,0.011278195488721804
4126,2011,WV,JACKSON,54,35,54035,Oxycodone,19,197,9310,38.83333,-81.68333,0.021160042964554242
4132,2011,WV,JEFFERSON,54,37,54037,Oxycodone,11,103,9310,39.3,-77.85,0.011063372717508057
4136,2011,WV,KANAWHA,54,39,54039,Methadone,3,1790,9310,38.33333,-81.56667,0.19226638023630505
4195,2011,WV,MINERAL,54,57,54057,Oxycodone,1,105,9310,39.4,-78.95,0.011278195488721804
4206,2011,WV,MORGAN,54,65,54065,Morphine,1,64,9310,39.56667,-78.25028,0.006874328678839957
4218,2011,WV,LOGAN,54,45,54045,Buprenorphine,4,348,9310,37.83333,-81.93333,0.037379162191192264
4219,2011,WV,LOGAN,54,45,54045,Morphine,3,348,9310,37.83333,-81.93333,0.037379162191192264
4237,2011,WV,MCDOWELL,54,47,54047,Oxycodone,15,79,9310,37.36667,-81.65,0.008485499462943072
4243,2011,WV,MERCER,54,55,54055,Heroin,9,567,9310,37.4,-81.11667,0.06090225563909774
4246,2011,WV,MINGO,54,59,54059,Oxycodone,8,45,9310,37.7,-82.15,0.004833512352309345
4247,2011,WV,MONONGALIA,54,61,54061,Oxycodone,35,105,9310,39.65,-80.03333,0.011278195488721804
4259,2011,WV,NICHOLAS,54,67,54067,Hydromorphone,3,153,9310,38.3,-80.83333,0.016433941997851774
4262,2011,WV,OHIO,54,69,54069,Buprenorphine,1,308,9310,40.1,-80.61667,0.03308270676691729
4281,2011,WV,POCAHONTAS,54,75,54075,Oxycodone,19,63,9310,38.31667,-80.03333,0.006766917293233083
4282,2011,WV,POCAHONTAS,54,75,54075,Oxymorphone,3,63,9310,38.31667,-80.03333,0.006766917293233083
4291,2011,WV,RALEIGH,54,81,54081,Methadone,3,505,9310,37.75,-81.25,0.054242749731471536
4292,2011,WV,RALEIGH,54,81,54081,Pentazocine,1,505,9310,37.75,-81.25,0.054242749731471536
4330,2011,WV,LEWIS,54,41,54041,Heroin,4,36,9310,38.96667,-80.51666999999999,0.003866809881847476
4331,2011,WV,LEWIS,54,41,54041,Methadone,1,36,9310,38.96667,-80.51666999999999,0.003866809881847476
4350,2011,WV,MARION,54,49,54049,Hydromorphone,2,391,9310,39.51667,-80.25,0.04199785177228786
4352,2011,WV,MARSHALL,54,51,54051,Morphine,8,91,9310,39.86667,-80.65,0.009774436090225564
4353,2011,WV,MARSHALL,54,51,54051,Oxymorphone,3,91,9310,39.86667,-80.65,0.009774436090225564
4362,2011,WV,MERCER,54,55,54055,Buprenorphine,2,567,9310,37.4,-81.11667,0.06090225563909774
4406,2011,WV,PRESTON,54,77,54077,Morphine,2,150,9310,39.46667,-79.66667,0.01611170784103115
4426,2011,WV,KANAWHA,54,39,54039,Buprenorphine,9,1790,9310,38.33333,-81.56667,0.19226638023630505
4427,2011,WV,KANAWHA,54,39,54039,Codeine,5,1790,9310,38.33333,-81.56667,0.19226638023630505
4428,2011,WV,KANAWHA,54,39,54039,Dextropropoxyphene,5,1790,9310,38.33333,-81.56667,0.19226638023630505
4429,2011,WV,KANAWHA,54,39,54039,Hydrocodone,91,1790,9310,38.33333,-81.56667,0.19226638023630505
4430,2011,WV,KANAWHA,54,39,54039,Morphine,5,1790,9310,38.33333,-81.56667,0.19226638023630505
4469,2011,WV,MARION,54,49,54049,Buprenorphine,8,391,9310,39.51667,-80.25,0.04199785177228786
4470,2011,WV,MARION,54,49,54049,Hydrocodone,11,391,9310,39.51667,-80.25,0.04199785177228786
4473,2011,WV,MARSHALL,54,51,54051,Buprenorphine,1,91,9310,39.86667,-80.65,0.009774436090225564
4475,2011,WV,MASON,54,53,54053,Methadone,1,45,9310,38.8,-82.00028,0.004833512352309345
4487,2011,WV,MERCER,54,55,54055,Oxycodone,182,567,9310,37.4,-81.11667,0.06090225563909774
4488,2011,WV,MERCER,54,55,54055,Oxymorphone,41,567,9310,37.4,-81.11667,0.06090225563909774
4491,2011,WV,MONONGALIA,54,61,54061,Heroin,7,105,9310,39.65,-80.03333,0.011278195488721804
4493,2011,WV,MONROE,54,63,54063,Oxycodone,4,19,9310,37.56667,-80.55,0.0020408163265306124
4510,2011,WV,OHIO,54,69,54069,Hydrocodone,3,308,9310,40.1,-80.61667,0.03308270676691729
4515,2011,WV,PENDLETON,54,71,54071,Oxycodone,2,14,9310,38.68333,-79.35,0.0015037593984962407
4519,2011,WV,HARDY,54,31,54031,Hydromorphone,3,138,9310,39.01667,-78.81667,0.014822771213748658
4520,2011,WV,HARDY,54,31,54031,Morphine,3,138,9310,39.01667,-78.81667,0.014822771213748658
4521,2011,WV,HARRISON,54,33,54033,Heroin,15,148,9310,39.28333,-80.38333,0.0158968850698174
4522,2011,WV,HARRISON,54,33,54033,Oxycodone,5,148,9310,39.28333,-80.38333,0.0158968850698174
4564,2011,WV,LEWIS,54,41,54041,Morphine,2,36,9310,38.96667,-80.51666999999999,0.003866809881847476
4580,2011,WV,MARION,54,49,54049,Heroin,64,391,9310,39.51667,-80.25,0.04199785177228786
4582,2011,WV,MARSHALL,54,51,54051,Fentanyl,2,91,9310,39.86667,-80.65,0.009774436090225564
4583,2011,WV,MASON,54,53,54053,Oxycodone,3,45,9310,38.8,-82.00028,0.004833512352309345
4584,2011,WV,MASON,54,53,54053,Oxymorphone,3,45,9310,38.8,-82.00028,0.004833512352309345
4588,2011,WV,MCDOWELL,54,47,54047,Hydrocodone,9,79,9310,37.36667,-81.65,0.008485499462943072
4595,2011,WV,MERCER,54,55,54055,Hydrocodone,40,567,9310,37.4,-81.11667,0.06090225563909774
4596,2011,WV,MINERAL,54,57,54057,Buprenorphine,1,105,9310,39.4,-78.95,0.011278195488721804
4597,2011,WV,MINGO,54,59,54059,Hydrocodone,7,45,9310,37.7,-82.15,0.004833512352309345
4600,2011,WV,MONROE,54,63,54063,Methadone,1,19,9310,37.56667,-80.55,0.0020408163265306124
4607,2011,WV,MORGAN,54,65,54065,Heroin,24,64,9310,39.56667,-78.25028,0.006874328678839957
4608,2011,WV,MORGAN,54,65,54065,Methadone,1,64,9310,39.56667,-78.25028,0.006874328678839957
4635,2011,WV,CABELL,54,11,54011,Hydrocodone,15,804,9310,38.43333,-82.25,0.08635875402792696
4699,2011,WV,GILMER,54,21,54021,Dextropropoxyphene,2,82,9310,38.93333,-80.85,0.008807733619763695
4700,2011,WV,GRANT,54,23,54023,Oxycodone,2,20,9310,39.11667,-79.2,0.0021482277121374865
4707,2011,WV,GREENBRIER,54,25,54025,Buprenorphine,1,103,9310,37.95,-80.41667,0.011063372717508057
4708,2011,WV,GREENBRIER,54,25,54025,Morphine,7,103,9310,37.95,-80.41667,0.011063372717508057
4722,2011,WV,NICHOLAS,54,67,54067,Heroin,4,153,9310,38.3,-80.83333,0.016433941997851774
4745,2011,WV,PLEASANTS,54,73,54073,Heroin,1,20,9310,39.36667,-81.15,0.0021482277121374865
4756,2011,WV,RALEIGH,54,81,54081,Buprenorphine,5,505,9310,37.75,-81.25,0.054242749731471536
4757,2011,WV,RANDOLPH,54,83,54083,Morphine,7,79,9310,38.76667,-79.83333,0.008485499462943072
4759,2011,WV,ROANE,54,87,54087,Fentanyl,3,56,9310,38.73333,-81.35,0.006015037593984963
4781,2011,WV,SUMMERS,54,89,54089,Oxycodone,5,35,9310,37.65,-80.86667,0.0037593984962406013
4795,2011,WV,UPSHUR,54,97,54097,Buprenorphine,2,210,9310,38.88333,-80.25056,0.022556390977443608
4796,2011,WV,UPSHUR,54,97,54097,Dextropropoxyphene,1,210,9310,38.88333,-80.25056,0.022556390977443608
4797,2011,WV,UPSHUR,54,97,54097,Hydrocodone,19,210,9310,38.88333,-80.25056,0.022556390977443608
4826,2011,WV,POCAHONTAS,54,75,54075,Buprenorphine,3,63,9310,38.31667,-80.03333,0.006766917293233083
4835,2011,WV,PRESTON,54,77,54077,Heroin,3,150,9310,39.46667,-79.66667,0.01611170784103115
4840,2011,WV,RALEIGH,54,81,54081,Oxycodone,106,505,9310,37.75,-81.25,0.054242749731471536
4841,2011,WV,RALEIGH,54,81,54081,Oxymorphone,13,505,9310,37.75,-81.25,0.054242749731471536
4870,2011,WV,SUMMERS,54,89,54089,Heroin,9,35,9310,37.65,-80.86667,0.0037593984962406013
4893,2011,WV,WEBSTER,54,101,54101,Hydrocodone,6,78,9310,38.51667,-80.41667,0.008378088077336197
4899,2011,WV,WOOD,54,107,54107,Dextropropoxyphene,1,381,9310,39.2,-81.50139,0.040923737916219116
4903,2011,WV,WYOMING,54,109,54109,Buprenorphine,1,26,9310,37.61667,-81.55,0.0027926960257787323
4931,2011,WV,SUMMERS,54,89,54089,Hydrocodone,4,35,9310,37.65,-80.86667,0.0037593984962406013
4944,2011,WV,TYLER,54,95,54095,Heroin,11,48,9310,39.45,-80.86667,0.0051557465091299675
4962,2011,WV,WAYNE,54,99,54099,Hydrocodone,6,56,9310,38.15,-82.45,0.006015037593984963
4967,2011,WV,WETZEL,54,103,54103,Heroin,19,36,9310,39.58333,-80.66667,0.003866809881847476
4972,2011,WV,WOOD,54,107,54107,Heroin,4,381,9310,39.2,-81.50139,0.040923737916219116
4976,2011,WV,WYOMING,54,109,54109,Oxycodone,4,26,9310,37.61667,-81.55,0.0027926960257787323
5012,2012,WV,BERKELEY,54,3,54003,Hydromorphone,1,727,9429,39.45,-78.03333,0.07710255594442676
5013,2012,WV,BERKELEY,54,3,54003,Methorphan,11,727,9429,39.45,-78.03333,0.07710255594442676
5050,2011,WV,SUMMERS,54,89,54089,Buprenorphine,1,35,9310,37.65,-80.86667,0.0037593984962406013
5062,2011,WV,TYLER,54,95,54095,Hydrocodone,2,48,9310,39.45,-80.86667,0.0051557465091299675
5065,2011,WV,UPSHUR,54,97,54097,Heroin,11,210,9310,38.88333,-80.25056,0.022556390977443608
5085,2011,WV,WETZEL,54,103,54103,Hydrocodone,1,36,9310,39.58333,-80.66667,0.003866809881847476
5091,2011,WV,WOOD,54,107,54107,Hydrocodone,4,381,9310,39.2,-81.50139,0.040923737916219116
5123,2012,WV,BRAXTON,54,7,54007,Buprenorphine,2,147,9429,38.71667,-80.7,0.015590200445434299
5124,2012,WV,BRAXTON,54,7,54007,Morphine,12,147,9429,38.71667,-80.7,0.015590200445434299
5126,2011,WV,HAMPSHIRE,54,27,54027,Heroin,6,118,9310,39.33333,-78.6,0.012674543501611171
5131,2011,WV,HARDY,54,31,54031,Oxycodone,13,138,9310,39.01667,-78.81667,0.014822771213748658
5132,2011,WV,HARDY,54,31,54031,Oxymorphone,1,138,9310,39.01667,-78.81667,0.014822771213748658
5152,2011,WV,JACKSON,54,35,54035,Hydrocodone,14,197,9310,38.83333,-81.68333,0.021160042964554242
5157,2011,WV,KANAWHA,54,39,54039,Heroin,247,1790,9310,38.33333,-81.56667,0.19226638023630505
5179,2011,WV,LOGAN,54,45,54045,Oxycodone,88,348,9310,37.83333,-81.93333,0.037379162191192264
5180,2011,WV,LOGAN,54,45,54045,Oxymorphone,23,348,9310,37.83333,-81.93333,0.037379162191192264
5198,2011,WV,MARION,54,49,54049,Dextropropoxyphene,1,391,9310,39.51667,-80.25,0.04199785177228786
5199,2011,WV,MARION,54,49,54049,Morphine,2,391,9310,39.51667,-80.25,0.04199785177228786
5204,2011,WV,MCDOWELL,54,47,54047,Buprenorphine,2,79,9310,37.36667,-81.65,0.008485499462943072
5217,2011,WV,MINERAL,54,57,54057,Hydrocodone,1,105,9310,39.4,-78.95,0.011278195488721804
5218,2011,WV,MINERAL,54,57,54057,Methorphan,1,105,9310,39.4,-78.95,0.011278195488721804
5232,2011,WV,POCAHONTAS,54,75,54075,Methadone,1,63,9310,38.31667,-80.03333,0.006766917293233083
5238,2011,WV,PRESTON,54,77,54077,Oxycodone,11,150,9310,39.46667,-79.66667,0.01611170784103115
5239,2011,WV,PRESTON,54,77,54077,Oxymorphone,1,150,9310,39.46667,-79.66667,0.01611170784103115
5242,2011,WV,PUTNAM,54,79,54079,Heroin,8,119,9310,38.51667,-81.88333,0.012781954887218045
5243,2011,WV,PUTNAM,54,79,54079,Oxycodone,12,119,9310,38.51667,-81.88333,0.012781954887218045
5244,2011,WV,PUTNAM,54,79,54079,Oxymorphone,2,119,9310,38.51667,-81.88333,0.012781954887218045
5304,2011,WV,WEBSTER,54,101,54101,Oxycodone,3,78,9310,38.51667,-80.41667,0.008378088077336197
5314,2011,WV,WOOD,54,107,54107,Oxycodone,4,381,9310,39.2,-81.50139,0.040923737916219116
5336,2011,WV,NICHOLAS,54,67,54067,Buprenorphine,1,153,9310,38.3,-80.83333,0.016433941997851774
5337,2011,WV,NICHOLAS,54,67,54067,Morphine,12,153,9310,38.3,-80.83333,0.016433941997851774
5341,2011,WV,OHIO,54,69,54069,Codeine,2,308,9310,40.1,-80.61667,0.03308270676691729
5342,2011,WV,OHIO,54,69,54069,Oxycodone,44,308,9310,40.1,-80.61667,0.03308270676691729
5343,2011,WV,OHIO,54,69,54069,Oxymorphone,4,308,9310,40.1,-80.61667,0.03308270676691729
5348,2011,WV,PENDLETON,54,71,54071,Methadone,2,14,9310,38.68333,-79.35,0.0015037593984962407
5362,2011,WV,POCAHONTAS,54,75,54075,Hydrocodone,18,63,9310,38.31667,-80.03333,0.006766917293233083
5372,2011,WV,PUTNAM,54,79,54079,Hydrocodone,5,119,9310,38.51667,-81.88333,0.012781954887218045
5375,2011,WV,ROANE,54,87,54087,Hydrocodone,2,56,9310,38.73333,-81.35,0.006015037593984963
5410,2011,WV,UPSHUR,54,97,54097,Codeine,1,210,9310,38.88333,-80.25056,0.022556390977443608
5411,2011,WV,UPSHUR,54,97,54097,Oxycodone,24,210,9310,38.88333,-80.25056,0.022556390977443608
5426,2011,WV,NICHOLAS,54,67,54067,Oxycodone,26,153,9310,38.3,-80.83333,0.016433941997851774
5427,2011,WV,NICHOLAS,54,67,54067,Oxymorphone,11,153,9310,38.3,-80.83333,0.016433941997851774
5429,2011,WV,OHIO,54,69,54069,Heroin,65,308,9310,40.1,-80.61667,0.03308270676691729
5442,2011,WV,POCAHONTAS,54,75,54075,Morphine,4,63,9310,38.31667,-80.03333,0.006766917293233083
5448,2011,WV,RALEIGH,54,81,54081,Hydrocodone,33,505,9310,37.75,-81.25,0.054242749731471536
5449,2011,WV,RALEIGH,54,81,54081,Morphine,11,505,9310,37.75,-81.25,0.054242749731471536
5450,2011,WV,RANDOLPH,54,83,54083,Buprenorphine,10,79,9310,38.76667,-79.83333,0.008485499462943072
5453,2011,WV,RITCHIE,54,85,54085,Hydrocodone,3,47,9310,39.16667,-81.08333,0.005048335123523094
5480,2011,WV,SUMMERS,54,89,54089,Hydromorphone,2,35,9310,37.65,-80.86667,0.0037593984962406013
5484,2011,WV,TAYLOR,54,91,54091,Heroin,1,1,9310,39.35,-80.05,0.00010741138560687433
5506,2011,WV,WEBSTER,54,101,54101,Codeine,1,78,9310,38.51667,-80.41667,0.008378088077336197
5507,2011,WV,WEBSTER,54,101,54101,Morphine,1,78,9310,38.51667,-80.41667,0.008378088077336197
5509,2011,WV,WETZEL,54,103,54103,Buprenorphine,1,36,9310,39.58333,-80.66667,0.003866809881847476
5555,2011,WV,RALEIGH,54,81,54081,Heroin,20,505,9310,37.75,-81.25,0.054242749731471536
5590,2011,WV,UPSHUR,54,97,54097,Hydromorphone,1,210,9310,38.88333,-80.25056,0.022556390977443608
5591,2011,WV,UPSHUR,54,97,54097,Morphine,16,210,9310,38.88333,-80.25056,0.022556390977443608
5606,2011,WV,WETZEL,54,103,54103,Oxycodone,6,36,9310,39.58333,-80.66667,0.003866809881847476
5613,2011,WV,WOOD,54,107,54107,Morphine,4,381,9310,39.2,-81.50139,0.040923737916219116
5648,2012,WV,BOONE,54,5,54005,Oxycodone,5,32,9429,38.01667,-81.7,0.0033937851309788947
5651,2012,WV,BROOKE,54,9,54009,Heroin,1,14,9429,40.28333,-80.56667,0.0014847809948032665
5662,2012,WV,CABELL,54,11,54011,Fentanyl,1,508,9429,38.43333,-82.25,0.053876338954289955
5663,2012,WV,CABELL,54,11,54011,Oxycodone,79,508,9429,38.43333,-82.25,0.053876338954289955
5664,2012,WV,CABELL,54,11,54011,Oxymorphone,21,508,9429,38.43333,-82.25,0.053876338954289955
5740,2012,WV,BERKELEY,54,3,54003,Heroin,206,727,9429,39.45,-78.03333,0.07710255594442676
5741,2012,WV,BERKELEY,54,3,54003,Hydrocodone,4,727,9429,39.45,-78.03333,0.07710255594442676
5742,2012,WV,BERKELEY,54,3,54003,Oxycodone,23,727,9429,39.45,-78.03333,0.07710255594442676
5751,2012,WV,BRAXTON,54,7,54007,Hydrocodone,20,147,9429,38.71667,-80.7,0.015590200445434299
5760,2012,WV,CABELL,54,11,54011,Codeine,1,508,9429,38.43333,-82.25,0.053876338954289955
5792,2012,WV,DODDRIDGE,54,17,54017,Methadone,1,35,9429,39.26667,-80.7,0.003711952487008166
5809,2012,WV,FAYETTE,54,19,54019,Morphine,1,95,9429,38.05,-81.1,0.010075299607593595
5819,2012,WV,GILMER,54,21,54021,Oxycodone,1,19,9429,38.93333,-80.85,0.002015059921518719
5824,2012,WV,GRANT,54,23,54023,Hydrocodone,6,106,9429,39.11667,-79.2,0.011241913246367589
5825,2012,WV,GRANT,54,23,54023,Oxycodone,8,106,9429,39.11667,-79.2,0.011241913246367589
5843,2012,WV,CALHOUN,54,13,54013,Hydrocodone,6,62,9429,38.83333,-81.11667,0.006575458691271609
5929,2012,WV,GREENBRIER,54,25,54025,Heroin,3,78,9429,37.95,-80.41667,0.008272351256761056
5931,2012,WV,BROOKE,54,9,54009,Oxycodone,3,14,9429,40.28333,-80.56667,0.0014847809948032665
5939,2012,WV,CABELL,54,11,54011,Morphine,3,508,9429,38.43333,-82.25,0.053876338954289955
5940,2012,WV,CALHOUN,54,13,54013,Fentanyl,1,62,9429,38.83333,-81.11667,0.006575458691271609
5941,2012,WV,CALHOUN,54,13,54013,Morphine,9,62,9429,38.83333,-81.11667,0.006575458691271609
5983,2012,WV,DODDRIDGE,54,17,54017,Oxycodone,2,35,9429,39.26667,-80.7,0.003711952487008166
6011,2012,WV,GREENBRIER,54,25,54025,Hydrocodone,8,78,9429,37.95,-80.41667,0.008272351256761056
6025,2012,WV,HARDY,54,31,54031,Buprenorphine,2,194,9429,39.01667,-78.81667,0.02057482235655955
6036,2011,WV,WAYNE,54,99,54099,Oxycodone,31,56,9310,38.15,-82.45,0.006015037593984963
6046,2011,WV,WOOD,54,107,54107,Methadone,2,381,9310,39.2,-81.50139,0.040923737916219116
6051,2011,WV,WYOMING,54,109,54109,Hydrocodone,5,26,9310,37.61667,-81.55,0.0027926960257787323
6072,2012,WV,BARBOUR,54,1,54001,Oxycodone,1,3,9429,39.13333,-80.03333,0.0003181673560292714
6082,2012,WV,BERKELEY,54,3,54003,Buprenorphine,16,727,9429,39.45,-78.03333,0.07710255594442676
6083,2012,WV,BERKELEY,54,3,54003,Morphine,3,727,9429,39.45,-78.03333,0.07710255594442676
6089,2012,WV,BROOKE,54,9,54009,Hydrocodone,1,14,9429,40.28333,-80.56667,0.0014847809948032665
6153,2012,WV,BERKELEY,54,3,54003,Methadone,3,727,9429,39.45,-78.03333,0.07710255594442676
6160,2012,WV,BOONE,54,5,54005,Buprenorphine,1,32,9429,38.01667,-81.7,0.0033937851309788947
6161,2012,WV,BOONE,54,5,54005,Hydrocodone,5,32,9429,38.01667,-81.7,0.0033937851309788947
6172,2012,WV,BROOKE,54,9,54009,Methadone,2,14,9429,40.28333,-80.56667,0.0014847809948032665
6182,2012,WV,CABELL,54,11,54011,Hydromorphone,1,508,9429,38.43333,-82.25,0.053876338954289955
6203,2012,WV,CLAY,54,15,54015,Oxycodone,1,59,9429,38.48333,-81.06667,0.006257291335242337
6220,2012,WV,DODDRIDGE,54,17,54017,Buprenorphine,5,35,9429,39.26667,-80.7,0.003711952487008166
6240,2012,WV,HAMPSHIRE,54,27,54027,Hydromorphone,3,102,9429,39.33333,-78.6,0.010817690104995227
6244,2012,WV,HANCOCK,54,29,54029,Buprenorphine,1,54,9429,40.50056,-80.56667,0.005727012408526885
6245,2012,WV,HANCOCK,54,29,54029,Hydrocodone,1,54,9429,40.50056,-80.56667,0.005727012408526885
6252,2012,WV,HARRISON,54,33,54033,Dextropropoxyphene,1,666,9429,39.28333,-80.38333,0.07063315303849825
6253,2012,WV,HARRISON,54,33,54033,Morphine,13,666,9429,39.28333,-80.38333,0.07063315303849825
6267,2012,WV,JACKSON,54,35,54035,Codeine,1,91,9429,38.83333,-81.68333,0.009651076466221232
6269,2012,WV,JEFFERSON,54,37,54037,Buprenorphine,2,105,9429,39.3,-77.85,0.011135857461024499
6270,2012,WV,JEFFERSON,54,37,54037,Codeine,1,105,9429,39.3,-77.85,0.011135857461024499
6273,2012,WV,KANAWHA,54,39,54039,Buprenorphine,8,1395,9429,38.33333,-81.56667,0.1479478205536112
6274,2012,WV,KANAWHA,54,39,54039,Codeine,6,1395,9429,38.33333,-81.56667,0.1479478205536112
6275,2012,WV,KANAWHA,54,39,54039,Hydrocodone,61,1395,9429,38.33333,-81.56667,0.1479478205536112
6276,2012,WV,KANAWHA,54,39,54039,Morphine,6,1395,9429,38.33333,-81.56667,0.1479478205536112
6312,2012,WV,MARION,54,49,54049,Hydrocodone,6,543,9429,39.51667,-80.25,0.05758829144129812
6314,2012,WV,MARSHALL,54,51,54051,Buprenorphine,2,133,9429,39.86667,-80.65,0.014105419450631032
6315,2012,WV,MARSHALL,54,51,54051,Hydrocodone,6,133,9429,39.86667,-80.65,0.014105419450631032
6316,2012,WV,MCDOWELL,54,47,54047,Methadone,1,38,9429,37.36667,-81.65,0.004030119843037438
6329,2012,WV,MERCER,54,55,54055,Oxymorphone,19,452,9429,37.4,-81.11667,0.04793721497507689
6344,2012,WV,BERKELEY,54,3,54003,Oxymorphone,2,727,9429,39.45,-78.03333,0.07710255594442676
6357,2012,WV,BRAXTON,54,7,54007,Oxycodone,11,147,9429,38.71667,-80.7,0.015590200445434299
6373,2012,WV,CABELL,54,11,54011,Heroin,97,508,9429,38.43333,-82.25,0.053876338954289955
6392,2012,WV,CLAY,54,15,54015,Hydrocodone,1,59,9429,38.48333,-81.06667,0.006257291335242337
6411,2012,WV,DODDRIDGE,54,17,54017,Heroin,11,35,9429,39.26667,-80.7,0.003711952487008166
6423,2012,WV,FAYETTE,54,19,54019,Hydrocodone,10,95,9429,38.05,-81.1,0.010075299607593595
6424,2012,WV,FAYETTE,54,19,54019,Oxycodone,24,95,9429,38.05,-81.1,0.010075299607593595
6461,2012,WV,BOONE,54,5,54005,Oxymorphone,2,32,9429,38.01667,-81.7,0.0033937851309788947
6478,2012,WV,CABELL,54,11,54011,Hydrocodone,11,508,9429,38.43333,-82.25,0.053876338954289955
6529,2012,WV,DODDRIDGE,54,17,54017,Hydrocodone,5,35,9429,39.26667,-80.7,0.003711952487008166
6577,2012,WV,GILMER,54,21,54021,Hydrocodone,1,19,9429,38.93333,-80.85,0.002015059921518719
6589,2012,WV,HAMPSHIRE,54,27,54027,Buprenorphine,7,102,9429,39.33333,-78.6,0.010817690104995227
6590,2012,WV,HAMPSHIRE,54,27,54027,Morphine,1,102,9429,39.33333,-78.6,0.010817690104995227
6596,2012,WV,HARRISON,54,33,54033,Hydrocodone,18,666,9429,39.28333,-80.38333,0.07063315303849825
6597,2012,WV,HARRISON,54,33,54033,Oxycodone,10,666,9429,39.28333,-80.38333,0.07063315303849825
6598,2012,WV,HARRISON,54,33,54033,Oxymorphone,2,666,9429,39.28333,-80.38333,0.07063315303849825
6624,2012,WV,KANAWHA,54,39,54039,Hydromorphone,4,1395,9429,38.33333,-81.56667,0.1479478205536112
6645,2012,WV,HAMPSHIRE,54,27,54027,Hydrocodone,9,102,9429,39.33333,-78.6,0.010817690104995227
6647,2012,WV,HANCOCK,54,29,54029,Heroin,13,54,9429,40.50056,-80.56667,0.005727012408526885
6650,2012,WV,HARDY,54,31,54031,Oxycodone,2,194,9429,39.01667,-78.81667,0.02057482235655955
6675,2012,WV,JACKSON,54,35,54035,Hydrocodone,4,91,9429,38.83333,-81.68333,0.009651076466221232
6683,2012,WV,JEFFERSON,54,37,54037,Oxycodone,11,105,9429,39.3,-77.85,0.011135857461024499
6684,2012,WV,JEFFERSON,54,37,54037,Oxymorphone,1,105,9429,39.3,-77.85,0.011135857461024499
6688,2012,WV,KANAWHA,54,39,54039,Heroin,133,1395,9429,38.33333,-81.56667,0.1479478205536112
6708,2012,WV,LOGAN,54,45,54045,Oxycodone,83,346,9429,37.83333,-81.93333,0.0366953017287093
6709,2012,WV,LOGAN,54,45,54045,Oxymorphone,16,346,9429,37.83333,-81.93333,0.0366953017287093
6728,2012,WV,MARION,54,49,54049,Dextropropoxyphene,1,543,9429,39.51667,-80.25,0.05758829144129812
6729,2012,WV,MARION,54,49,54049,Morphine,2,543,9429,39.51667,-80.25,0.05758829144129812
6732,2012,WV,MARSHALL,54,51,54051,Morphine,3,133,9429,39.86667,-80.65,0.014105419450631032
6733,2012,WV,MARSHALL,54,51,54051,Oxymorphone,1,133,9429,39.86667,-80.65,0.014105419450631032
6771,2012,WV,HAMPSHIRE,54,27,54027,Methadone,1,102,9429,39.33333,-78.6,0.010817690104995227
6774,2012,WV,HARDY,54,31,54031,Heroin,9,194,9429,39.01667,-78.81667,0.02057482235655955
6775,2012,WV,HARDY,54,31,54031,Methadone,2,194,9429,39.01667,-78.81667,0.02057482235655955
6780,2012,WV,HARRISON,54,33,54033,Buprenorphine,17,666,9429,39.28333,-80.38333,0.07063315303849825
6795,2012,WV,JACKSON,54,35,54035,Hydromorphone,1,91,9429,38.83333,-81.68333,0.009651076466221232
6804,2012,WV,KANAWHA,54,39,54039,Oxycodone,153,1395,9429,38.33333,-81.56667,0.1479478205536112
6805,2012,WV,KANAWHA,54,39,54039,Oxymorphone,29,1395,9429,38.33333,-81.56667,0.1479478205536112
6826,2012,WV,LEWIS,54,41,54041,Hydrocodone,2,47,9429,38.96667,-80.51666999999999,0.0049846219111252515
6832,2012,WV,LOGAN,54,45,54045,Heroin,14,346,9429,37.83333,-81.93333,0.0366953017287093
6859,2012,WV,GREENBRIER,54,25,54025,Oxycodone,14,78,9429,37.95,-80.41667,0.008272351256761056
6860,2012,WV,GREENBRIER,54,25,54025,Oxymorphone,8,78,9429,37.95,-80.41667,0.008272351256761056
6868,2012,WV,HARDY,54,31,54031,Hydromorphone,2,194,9429,39.01667,-78.81667,0.02057482235655955
6869,2012,WV,HARRISON,54,33,54033,Heroin,150,666,9429,39.28333,-80.38333,0.07063315303849825
6905,2012,WV,LEWIS,54,41,54041,Hydromorphone,2,47,9429,38.96667,-80.51666999999999,0.0049846219111252515
6908,2012,WV,LOGAN,54,45,54045,Buprenorphine,2,346,9429,37.83333,-81.93333,0.0366953017287093
6909,2012,WV,LOGAN,54,45,54045,Hydrocodone,36,346,9429,37.83333,-81.93333,0.0366953017287093
6932,2012,WV,MCDOWELL,54,47,54047,Oxymorphone,1,38,9429,37.36667,-81.65,0.004030119843037438
6950,2012,WV,GRANT,54,23,54023,Oxymorphone,3,106,9429,39.11667,-79.2,0.011241913246367589
6962,2012,WV,HAMPSHIRE,54,27,54027,Oxycodone,13,102,9429,39.33333,-78.6,0.010817690104995227
6969,2012,WV,HARDY,54,31,54031,Hydrocodone,1,194,9429,39.01667,-78.81667,0.02057482235655955
6989,2012,WV,JACKSON,54,35,54035,Oxycodone,13,91,9429,38.83333,-81.68333,0.009651076466221232
6997,2012,WV,JEFFERSON,54,37,54037,Heroin,17,105,9429,39.3,-77.85,0.011135857461024499
7018,2012,WV,LEWIS,54,41,54041,Heroin,1,47,9429,38.96667,-80.51666999999999,0.0049846219111252515
7038,2012,WV,MARSHALL,54,51,54051,Oxycodone,44,133,9429,39.86667,-80.65,0.014105419450631032
7047,2012,WV,JEFFERSON,54,37,54037,Hydrocodone,2,105,9429,39.3,-77.85,0.011135857461024499
7049,2012,WV,KANAWHA,54,39,54039,Dextropropoxyphene,1,1395,9429,38.33333,-81.56667,0.1479478205536112
7067,2012,WV,LEWIS,54,41,54041,Buprenorphine,3,47,9429,38.96667,-80.51666999999999,0.0049846219111252515
7068,2012,WV,LEWIS,54,41,54041,Morphine,2,47,9429,38.96667,-80.51666999999999,0.0049846219111252515
7076,2012,WV,LOGAN,54,45,54045,Hydromorphone,2,346,9429,37.83333,-81.93333,0.0366953017287093
7086,2012,WV,MARION,54,49,54049,Heroin,223,543,9429,39.51667,-80.25,0.05758829144129812
7091,2012,WV,MCDOWELL,54,47,54047,Hydrocodone,4,38,9429,37.36667,-81.65,0.004030119843037438
7100,2012,WV,MERCER,54,55,54055,Methadone,1,452,9429,37.4,-81.11667,0.04793721497507689
7104,2012,WV,MINGO,54,59,54059,Hydrocodone,13,117,9429,37.7,-82.15,0.012408526885141585
7105,2012,WV,MONONGALIA,54,61,54061,Morphine,2,115,9429,39.65,-80.03333,0.012196415314455403
7112,2012,WV,MORGAN,54,65,54065,Heroin,31,147,9429,39.56667,-78.25028,0.015590200445434299
7113,2012,WV,MORGAN,54,65,54065,Hydrocodone,10,147,9429,39.56667,-78.25028,0.015590200445434299
7114,2012,WV,MORGAN,54,65,54065,Methadone,7,147,9429,39.56667,-78.25028,0.015590200445434299
7121,2012,WV,NICHOLAS,54,67,54067,Codeine,1,324,9429,38.3,-80.83333,0.03436207445116131
7122,2012,WV,NICHOLAS,54,67,54067,Hydrocodone,20,324,9429,38.3,-80.83333,0.03436207445116131
7154,2012,WV,GREENBRIER,54,25,54025,Hydromorphone,1,78,9429,37.95,-80.41667,0.008272351256761056
7155,2012,WV,GREENBRIER,54,25,54025,Morphine,7,78,9429,37.95,-80.41667,0.008272351256761056
7165,2012,WV,HAMPSHIRE,54,27,54027,Heroin,8,102,9429,39.33333,-78.6,0.010817690104995227
7166,2012,WV,HANCOCK,54,29,54029,Oxycodone,4,54,9429,40.50056,-80.56667,0.005727012408526885
7174,2012,WV,HARRISON,54,33,54033,Hydromorphone,1,666,9429,39.28333,-80.38333,0.07063315303849825
7185,2012,WV,JACKSON,54,35,54035,Heroin,9,91,9429,38.83333,-81.68333,0.009651076466221232
7216,2012,WV,LEWIS,54,41,54041,Fentanyl,1,47,9429,38.96667,-80.51666999999999,0.0049846219111252515
7217,2012,WV,LEWIS,54,41,54041,Oxycodone,6,47,9429,38.96667,-80.51666999999999,0.0049846219111252515
7231,2012,WV,MARION,54,49,54049,Codeine,1,543,9429,39.51667,-80.25,0.05758829144129812
7236,2012,WV,MCDOWELL,54,47,54047,Morphine,1,38,9429,37.36667,-81.65,0.004030119843037438
7240,2012,WV,MERCER,54,55,54055,Morphine,2,452,9429,37.4,-81.11667,0.04793721497507689
7245,2012,WV,MERCER,54,55,54055,Heroin,24,452,9429,37.4,-81.11667,0.04793721497507689
7247,2012,WV,MINGO,54,59,54059,Oxycodone,29,117,9429,37.7,-82.15,0.012408526885141585
7248,2012,WV,MONONGALIA,54,61,54061,Oxycodone,43,115,9429,39.65,-80.03333,0.012196415314455403
7256,2012,WV,MORGAN,54,65,54065,Hydromorphone,2,147,9429,39.56667,-78.25028,0.015590200445434299
7263,2012,WV,NICHOLAS,54,67,54067,Hydromorphone,3,324,9429,38.3,-80.83333,0.03436207445116131
7268,2012,WV,OHIO,54,69,54069,Buprenorphine,8,245,9429,40.1,-80.61667,0.025983667409057165
7269,2012,WV,OHIO,54,69,54069,Morphine,2,245,9429,40.1,-80.61667,0.025983667409057165
7288,2012,WV,POCAHONTAS,54,75,54075,Oxycodone,5,70,9429,38.31667,-80.03333,0.007423904974016332
7289,2012,WV,POCAHONTAS,54,75,54075,Oxymorphone,2,70,9429,38.31667,-80.03333,0.007423904974016332
7348,2012,WV,MARION,54,49,54049,Buprenorphine,4,543,9429,39.51667,-80.25,0.05758829144129812
7349,2012,WV,MARSHALL,54,51,54051,Heroin,9,133,9429,39.86667,-80.65,0.014105419450631032
7352,2012,WV,MCDOWELL,54,47,54047,Oxycodone,1,38,9429,37.36667,-81.65,0.004030119843037438
7360,2012,WV,MERCER,54,55,54055,Oxycodone,116,452,9429,37.4,-81.11667,0.04793721497507689
7381,2012,WV,OHIO,54,69,54069,Hydrocodone,4,245,9429,40.1,-80.61667,0.025983667409057165
7382,2012,WV,OHIO,54,69,54069,Oxycodone,59,245,9429,40.1,-80.61667,0.025983667409057165
7383,2012,WV,OHIO,54,69,54069,Oxymorphone,2,245,9429,40.1,-80.61667,0.025983667409057165
7400,2012,WV,POCAHONTAS,54,75,54075,Hydrocodone,14,70,9429,38.31667,-80.03333,0.007423904974016332
7421,2012,WV,RITCHIE,54,85,54085,Oxymorphone,2,66,9429,39.16667,-81.08333,0.006999681832643971
7442,2012,WV,MINERAL,54,57,54057,Buprenorphine,1,137,9429,39.4,-78.95,0.014529642592003393
7443,2012,WV,MINGO,54,59,54059,Heroin,4,117,9429,37.7,-82.15,0.012408526885141585
7444,2012,WV,MINGO,54,59,54059,Methadone,1,117,9429,37.7,-82.15,0.012408526885141585
7445,2012,WV,MONONGALIA,54,61,54061,Heroin,36,115,9429,39.65,-80.03333,0.012196415314455403
7447,2012,WV,MONROE,54,63,54063,Oxycodone,3,10,9429,37.56667,-80.55,0.0010605578534309047
7462,2012,WV,NICHOLAS,54,67,54067,Morphine,35,324,9429,38.3,-80.83333,0.03436207445116131
7484,2012,WV,POCAHONTAS,54,75,54075,Heroin,7,70,9429,38.31667,-80.03333,0.007423904974016332
7490,2012,WV,PRESTON,54,77,54077,Oxycodone,4,110,9429,39.46667,-79.66667,0.011666136387739952
7494,2012,WV,PUTNAM,54,79,54079,Oxycodone,20,182,9429,38.51667,-81.88333,0.019302152932442463
7495,2012,WV,PUTNAM,54,79,54079,Oxymorphone,4,182,9429,38.51667,-81.88333,0.019302152932442463
7496,2012,WV,RANDOLPH,54,83,54083,Oxycodone,3,138,9429,38.76667,-79.83333,0.014635698377346485
7500,2012,WV,ROANE,54,87,54087,Morphine,16,90,9429,38.73333,-81.35,0.009545020680878142
7531,2012,WV,SUMMERS,54,89,54089,Oxymorphone,3,14,9429,37.65,-80.86667,0.0014847809948032665
7567,2012,WV,MORGAN,54,65,54065,Dextropropoxyphene,1,147,9429,39.56667,-78.25028,0.015590200445434299
7568,2012,WV,MORGAN,54,65,54065,Morphine,3,147,9429,39.56667,-78.25028,0.015590200445434299
7575,2012,WV,NICHOLAS,54,67,54067,Buprenorphine,5,324,9429,38.3,-80.83333,0.03436207445116131
7581,2012,WV,OHIO,54,69,54069,Heroin,39,245,9429,40.1,-80.61667,0.025983667409057165
7597,2012,WV,PRESTON,54,77,54077,Buprenorphine,4,110,9429,39.46667,-79.66667,0.011666136387739952
7604,2012,WV,RALEIGH,54,81,54081,Fentanyl,2,626,9429,37.75,-81.25,0.06639092162477463
7605,2012,WV,RALEIGH,54,81,54081,Hydromorphone,5,626,9429,37.75,-81.25,0.06639092162477463
7608,2012,WV,ROANE,54,87,54087,Hydrocodone,1,90,9429,38.73333,-81.35,0.009545020680878142
7653,2012,WV,MCDOWELL,54,47,54047,Buprenorphine,1,38,9429,37.36667,-81.65,0.004030119843037438
7659,2012,WV,MERCER,54,55,54055,Buprenorphine,2,452,9429,37.4,-81.11667,0.04793721497507689
7665,2012,WV,MINERAL,54,57,54057,Oxycodone,1,137,9429,39.4,-78.95,0.014529642592003393
7677,2012,WV,MORGAN,54,65,54065,Buprenorphine,5,147,9429,39.56667,-78.25028,0.015590200445434299
7685,2012,WV,NICHOLAS,54,67,54067,Heroin,4,324,9429,38.3,-80.83333,0.03436207445116131
7707,2012,WV,POCAHONTAS,54,75,54075,Buprenorphine,3,70,9429,38.31667,-80.03333,0.007423904974016332
7715,2012,WV,PUTNAM,54,79,54079,Buprenorphine,1,182,9429,38.51667,-81.88333,0.019302152932442463
7716,2012,WV,PUTNAM,54,79,54079,Hydrocodone,2,182,9429,38.51667,-81.88333,0.019302152932442463
7717,2012,WV,RALEIGH,54,81,54081,Hydrocodone,14,626,9429,37.75,-81.25,0.06639092162477463
7720,2012,WV,RITCHIE,54,85,54085,Oxycodone,2,66,9429,39.16667,-81.08333,0.006999681832643971
7721,2012,WV,ROANE,54,87,54087,Fentanyl,1,90,9429,38.73333,-81.35,0.009545020680878142
7722,2012,WV,ROANE,54,87,54087,Oxymorphone,2,90,9429,38.73333,-81.35,0.009545020680878142
7761,2012,WV,LOGAN,54,45,54045,Fentanyl,1,346,9429,37.83333,-81.93333,0.0366953017287093
7775,2012,WV,MARION,54,49,54049,Oxycodone,46,543,9429,39.51667,-80.25,0.05758829144129812
7776,2012,WV,MARSHALL,54,51,54051,Hydromorphone,1,133,9429,39.86667,-80.65,0.014105419450631032
7778,2012,WV,MASON,54,53,54053,Heroin,1,106,9429,38.8,-82.00028,0.011241913246367589
7792,2012,WV,MERCER,54,55,54055,Hydrocodone,30,452,9429,37.4,-81.11667,0.04793721497507689
7793,2012,WV,MERCER,54,55,54055,Hydromorphone,101,452,9429,37.4,-81.11667,0.04793721497507689
7799,2012,WV,MONROE,54,63,54063,Hydrocodone,2,10,9429,37.56667,-80.55,0.0010605578534309047
7804,2012,WV,MORGAN,54,65,54065,Oxycodone,38,147,9429,39.56667,-78.25028,0.015590200445434299
7839,2012,WV,PRESTON,54,77,54077,Hydrocodone,10,110,9429,39.46667,-79.66667,0.011666136387739952
7850,2012,WV,UPSHUR,54,97,54097,Hydromorphone,1,191,9429,38.88333,-80.25056,0.02025665500053028
7873,2012,WV,WOOD,54,107,54107,Heroin,27,449,9429,39.2,-81.50139,0.047619047619047616
7916,2013,WV,BERKELEY,54,3,54003,Methorphan,1,408,9062,39.45,-78.03333,0.04502317369234165
7938,2013,WV,CABELL,54,11,54011,Morphine,6,523,9062,38.43333,-82.25,0.057713529022290884
7967,2012,WV,WAYNE,54,99,54099,Heroin,1,25,9429,38.15,-82.45,0.0026513946335772615
7975,2012,WV,WOOD,54,107,54107,Methadone,1,449,9429,39.2,-81.50139,0.047619047619047616
8007,2013,WV,BERKELEY,54,3,54003,Buprenorphine,7,408,9062,39.45,-78.03333,0.04502317369234165
8013,2013,WV,BRAXTON,54,7,54007,Buprenorphine,1,86,9062,38.71667,-80.7,0.009490178768483779
8046,2013,WV,CLAY,54,15,54015,Morphine,1,31,9062,38.48333,-81.06667,0.0034208783932906644
8057,2012,WV,UPSHUR,54,97,54097,Heroin,2,191,9429,38.88333,-80.25056,0.02025665500053028
8080,2012,WV,WOOD,54,107,54107,Hydrocodone,17,449,9429,39.2,-81.50139,0.047619047619047616
8103,2013,WV,BARBOUR,54,1,54001,Oxycodone,1,22,9062,39.13333,-80.03333,0.0024277201500772457
8115,2013,WV,BRAXTON,54,7,54007,Morphine,2,86,9062,38.71667,-80.7,0.009490178768483779
8161,2012,WV,UPSHUR,54,97,54097,Hydrocodone,22,191,9429,38.88333,-80.25056,0.02025665500053028
8180,2012,WV,WEBSTER,54,101,54101,Hydrocodone,1,86,9429,38.51667,-80.41667,0.00912079753950578
8181,2012,WV,WEBSTER,54,101,54101,Morphine,8,86,9429,38.51667,-80.41667,0.00912079753950578
8184,2012,WV,WETZEL,54,103,54103,Morphine,1,19,9429,39.58333,-80.66667,0.002015059921518719
8192,2012,WV,WYOMING,54,109,54109,Buprenorphine,1,35,9429,37.61667,-81.55,0.003711952487008166
8216,2013,WV,BERKELEY,54,3,54003,Fentanyl,2,408,9062,39.45,-78.03333,0.04502317369234165
8217,2013,WV,BERKELEY,54,3,54003,Heroin,121,408,9062,39.45,-78.03333,0.04502317369234165
8226,2013,WV,BRAXTON,54,7,54007,Heroin,12,86,9062,38.71667,-80.7,0.009490178768483779
8239,2013,WV,CABELL,54,11,54011,Oxycodone,155,523,9062,38.43333,-82.25,0.057713529022290884
8240,2013,WV,CABELL,54,11,54011,Oxymorphone,4,523,9062,38.43333,-82.25,0.057713529022290884
8261,2012,WV,PUTNAM,54,79,54079,Heroin,3,182,9429,38.51667,-81.88333,0.019302152932442463
8262,2012,WV,RALEIGH,54,81,54081,Oxycodone,172,626,9429,37.75,-81.25,0.06639092162477463
8263,2012,WV,RALEIGH,54,81,54081,Oxymorphone,10,626,9429,37.75,-81.25,0.06639092162477463
8264,2012,WV,RANDOLPH,54,83,54083,Heroin,4,138,9429,38.76667,-79.83333,0.014635698377346485
8293,2012,WV,UPSHUR,54,97,54097,Buprenorphine,6,191,9429,38.88333,-80.25056,0.02025665500053028
8294,2012,WV,UPSHUR,54,97,54097,Morphine,3,191,9429,38.88333,-80.25056,0.02025665500053028
8303,2012,WV,WEBSTER,54,101,54101,Hydromorphone,1,86,9429,38.51667,-80.41667,0.00912079753950578
8306,2012,WV,WETZEL,54,103,54103,Oxycodone,3,19,9429,39.58333,-80.66667,0.002015059921518719
8346,2013,WV,BERKELEY,54,3,54003,Hydrocodone,1,408,9062,39.45,-78.03333,0.04502317369234165
8347,2013,WV,BERKELEY,54,3,54003,Methadone,1,408,9062,39.45,-78.03333,0.04502317369234165
8353,2012,WV,RALEIGH,54,81,54081,Heroin,69,626,9429,37.75,-81.25,0.06639092162477463
8392,2012,WV,SUMMERS,54,89,54089,Oxycodone,1,14,9429,37.65,-80.86667,0.0014847809948032665
8421,2012,WV,WETZEL,54,103,54103,Heroin,4,19,9429,39.58333,-80.66667,0.002015059921518719
8428,2012,WV,WYOMING,54,109,54109,Oxycodone,14,35,9429,37.61667,-81.55,0.003711952487008166
8452,2012,WV,MINERAL,54,57,54057,Heroin,9,137,9429,39.4,-78.95,0.014529642592003393
8464,2012,WV,NICHOLAS,54,67,54067,Oxycodone,75,324,9429,38.3,-80.83333,0.03436207445116131
8465,2012,WV,NICHOLAS,54,67,54067,Oxymorphone,9,324,9429,38.3,-80.83333,0.03436207445116131
8469,2012,WV,OHIO,54,69,54069,Methadone,4,245,9429,40.1,-80.61667,0.025983667409057165
8486,2012,WV,PLEASANTS,54,73,54073,Heroin,1,13,9429,39.36667,-81.15,0.0013787252094601761
8487,2012,WV,POCAHONTAS,54,75,54075,Morphine,1,70,9429,38.31667,-80.03333,0.007423904974016332
8497,2012,WV,RALEIGH,54,81,54081,Morphine,16,626,9429,37.75,-81.25,0.06639092162477463
8498,2012,WV,RANDOLPH,54,83,54083,Buprenorphine,2,138,9429,38.76667,-79.83333,0.014635698377346485
8499,2012,WV,RANDOLPH,54,83,54083,Hydrocodone,2,138,9429,38.76667,-79.83333,0.014635698377346485
8504,2012,WV,RITCHIE,54,85,54085,Hydrocodone,8,66,9429,39.16667,-81.08333,0.006999681832643971
8505,2012,WV,ROANE,54,87,54087,Heroin,5,90,9429,38.73333,-81.35,0.009545020680878142
8536,2012,WV,UPSHUR,54,97,54097,Oxycodone,22,191,9429,38.88333,-80.25056,0.02025665500053028
8546,2012,WV,WEBSTER,54,101,54101,Buprenorphine,2,86,9429,38.51667,-80.41667,0.00912079753950578
8547,2012,WV,WETZEL,54,103,54103,Buprenorphine,1,19,9429,39.58333,-80.66667,0.002015059921518719
8548,2012,WV,WETZEL,54,103,54103,Hydrocodone,2,19,9429,39.58333,-80.66667,0.002015059921518719
8554,2012,WV,WOOD,54,107,54107,Morphine,3,449,9429,39.2,-81.50139,0.047619047619047616
8583,2013,WV,BOONE,54,5,54005,Oxycodone,2,28,9062,38.01667,-81.7,0.003089825645552858
8588,2013,WV,BRAXTON,54,7,54007,Oxycodone,8,86,9062,38.71667,-80.7,0.009490178768483779
8590,2013,WV,BROOKE,54,9,54009,Heroin,18,27,9062,40.28333,-80.56667,0.002979474729640256
8601,2013,WV,CABELL,54,11,54011,Heroin,175,523,9062,38.43333,-82.25,0.057713529022290884
8689,2013,WV,FAYETTE,54,19,54019,Hydrocodone,3,109,9062,38.05,-81.1,0.012028249834473627
8708,2013,WV,GILMER,54,21,54021,Hydromorphone,1,73,9062,38.93333,-80.85,0.008055616861619952
8713,2013,WV,GRANT,54,23,54023,Buprenorphine,2,68,9062,39.11667,-79.2,0.007503862282056941
8716,2013,WV,GREENBRIER,54,25,54025,Hydrocodone,9,127,9062,37.95,-80.41667,0.014014566320900463
8723,2013,WV,HAMPSHIRE,54,27,54027,Buprenorphine,7,100,9062,39.33333,-78.6,0.011035091591260208
8730,2013,WV,HARDY,54,31,54031,Morphine,2,86,9062,39.01667,-78.81667,0.009490178768483779
8733,2013,WV,HARRISON,54,33,54033,Hydrocodone,23,658,9062,39.28333,-80.38333,0.07261090267049217
8734,2013,WV,HARRISON,54,33,54033,Oxycodone,22,658,9062,39.28333,-80.38333,0.07261090267049217
8735,2013,WV,HARRISON,54,33,54033,Oxymorphone,1,658,9062,39.28333,-80.38333,0.07261090267049217
8766,2012,WV,WAYNE,54,99,54099,Oxycodone,3,25,9429,38.15,-82.45,0.0026513946335772615
8767,2012,WV,WAYNE,54,99,54099,Oxymorphone,2,25,9429,38.15,-82.45,0.0026513946335772615
8779,2012,WV,WOOD,54,107,54107,Oxycodone,24,449,9429,39.2,-81.50139,0.047619047619047616
8818,2013,WV,BOONE,54,5,54005,Buprenorphine,1,28,9062,38.01667,-81.7,0.003089825645552858
8819,2013,WV,BOONE,54,5,54005,Hydrocodone,2,28,9062,38.01667,-81.7,0.003089825645552858
8827,2013,WV,BRAXTON,54,7,54007,Hydromorphone,1,86,9062,38.71667,-80.7,0.009490178768483779
8837,2013,WV,CABELL,54,11,54011,Hydromorphone,5,523,9062,38.43333,-82.25,0.057713529022290884
8890,2013,WV,CLAY,54,15,54015,Oxycodone,1,31,9062,38.48333,-81.06667,0.0034208783932906644
8947,2013,WV,GRANT,54,23,54023,Hydrocodone,4,68,9062,39.11667,-79.2,0.007503862282056941
8999,2013,WV,FAYETTE,54,19,54019,Codeine,1,109,9062,38.05,-81.1,0.012028249834473627
9014,2013,WV,GRANT,54,23,54023,Morphine,2,68,9062,39.11667,-79.2,0.007503862282056941
9017,2013,WV,GREENBRIER,54,25,54025,Hydromorphone,1,127,9062,37.95,-80.41667,0.014014566320900463
9031,2013,WV,HARDY,54,31,54031,Buprenorphine,1,86,9062,39.01667,-78.81667,0.009490178768483779
9048,2013,WV,KANAWHA,54,39,54039,Dextropropoxyphene,1,1013,9062,38.33333,-81.56667,0.1117854778194659
9049,2013,WV,KANAWHA,54,39,54039,Fentanyl,1,1013,9062,38.33333,-81.56667,0.1117854778194659
9128,2013,WV,GRANT,54,23,54023,Hydromorphone,2,68,9062,39.11667,-79.2,0.007503862282056941
9132,2013,WV,GREENBRIER,54,25,54025,Heroin,56,127,9062,37.95,-80.41667,0.014014566320900463
9136,2013,WV,HAMPSHIRE,54,27,54027,Hydromorphone,1,100,9062,39.33333,-78.6,0.011035091591260208
9142,2013,WV,HANCOCK,54,29,54029,Buprenorphine,1,175,9062,40.50056,-80.56667,0.019311410284705365
9143,2013,WV,HANCOCK,54,29,54029,Hydrocodone,3,175,9062,40.50056,-80.56667,0.019311410284705365
9151,2013,WV,BERKELEY,54,3,54003,Oxycodone,13,408,9062,39.45,-78.03333,0.04502317369234165
9166,2013,WV,BRAXTON,54,7,54007,Hydrocodone,8,86,9062,38.71667,-80.7,0.009490178768483779
9178,2013,WV,CABELL,54,11,54011,Hydrocodone,10,523,9062,38.43333,-82.25,0.057713529022290884
9179,2013,WV,CABELL,54,11,54011,Methorphan,2,523,9062,38.43333,-82.25,0.057713529022290884
9233,2013,WV,FAYETTE,54,19,54019,Morphine,1,109,9062,38.05,-81.1,0.012028249834473627
9244,2013,WV,GILMER,54,21,54021,Oxycodone,1,73,9062,38.93333,-80.85,0.008055616861619952
9248,2013,WV,GRANT,54,23,54023,Oxycodone,13,68,9062,39.11667,-79.2,0.007503862282056941
9285,2013,WV,DODDRIDGE,54,17,54017,Buprenorphine,30,67,9062,39.26667,-80.7,0.007393511366144339
9286,2013,WV,DODDRIDGE,54,17,54017,Hydrocodone,4,67,9062,39.26667,-80.7,0.007393511366144339
9302,2013,WV,FAYETTE,54,19,54019,Hydromorphone,1,109,9062,38.05,-81.1,0.012028249834473627
9323,2013,WV,GILMER,54,21,54021,Buprenorphine,1,73,9062,38.93333,-80.85,0.008055616861619952
9324,2013,WV,GILMER,54,21,54021,Hydrocodone,4,73,9062,38.93333,-80.85,0.008055616861619952
9327,2013,WV,GREENBRIER,54,25,54025,Oxycodone,20,127,9062,37.95,-80.41667,0.014014566320900463
9328,2013,WV,GREENBRIER,54,25,54025,Oxymorphone,1,127,9062,37.95,-80.41667,0.014014566320900463
9332,2013,WV,HAMPSHIRE,54,27,54027,Morphine,1,100,9062,39.33333,-78.6,0.011035091591260208
9337,2013,WV,HARDY,54,31,54031,Hydromorphone,3,86,9062,39.01667,-78.81667,0.009490178768483779
9340,2013,WV,HARRISON,54,33,54033,Heroin,305,658,9062,39.28333,-80.38333,0.07261090267049217
9366,2013,WV,HANCOCK,54,29,54029,Heroin,71,175,9062,40.50056,-80.56667,0.019311410284705365
9368,2013,WV,HARDY,54,31,54031,Hydrocodone,1,86,9062,39.01667,-78.81667,0.009490178768483779
9392,2013,WV,JACKSON,54,35,54035,Hydrocodone,4,38,9062,38.83333,-81.68333,0.004193334804678879
9394,2013,WV,JEFFERSON,54,37,54037,Heroin,6,30,9062,39.3,-77.85,0.003310527477378062
9398,2013,WV,KANAWHA,54,39,54039,Heroin,166,1013,9062,38.33333,-81.56667,0.1117854778194659
9411,2013,WV,LEWIS,54,41,54041,Hydrocodone,37,390,9062,38.96667,-80.51666999999999,0.04303685720591481
9416,2013,WV,LOGAN,54,45,54045,Oxycodone,63,363,9062,37.83333,-81.93333,0.04005738247627455
9417,2013,WV,LOGAN,54,45,54045,Oxymorphone,9,363,9062,37.83333,-81.93333,0.04005738247627455
9431,2013,WV,MARION,54,49,54049,Buprenorphine,1,456,9062,39.51667,-80.25,0.05032001765614655
9432,2013,WV,MARION,54,49,54049,Dextropropoxyphene,1,456,9062,39.51667,-80.25,0.05032001765614655
9433,2013,WV,MARION,54,49,54049,Morphine,2,456,9062,39.51667,-80.25,0.05032001765614655
9435,2013,WV,MARSHALL,54,51,54051,Heroin,66,145,9062,39.86667,-80.65,0.0160008828073273
9440,2013,WV,MASON,54,53,54053,Buprenorphine,1,85,9062,38.8,-82.00028,0.009379827852571177
9458,2013,WV,HAMPSHIRE,54,27,54027,Hydrocodone,2,100,9062,39.33333,-78.6,0.011035091591260208
9459,2013,WV,HAMPSHIRE,54,27,54027,Methadone,1,100,9062,39.33333,-78.6,0.011035091591260208
9463,2013,WV,HARDY,54,31,54031,Heroin,26,86,9062,39.01667,-78.81667,0.009490178768483779
9467,2013,WV,HARRISON,54,33,54033,Buprenorphine,12,658,9062,39.28333,-80.38333,0.07261090267049217
9491,2013,WV,KANAWHA,54,39,54039,Oxycodone,94,1013,9062,38.33333,-81.56667,0.1117854778194659
9492,2013,WV,KANAWHA,54,39,54039,Oxymorphone,8,1013,9062,38.33333,-81.56667,0.1117854778194659
9515,2013,WV,LOGAN,54,45,54045,Heroin,17,363,9062,37.83333,-81.93333,0.04005738247627455
9531,2013,WV,MARSHALL,54,51,54051,Oxymorphone,1,145,9062,39.86667,-80.65,0.0160008828073273
9534,2013,WV,MCDOWELL,54,47,54047,Oxycodone,5,83,9062,37.36667,-81.65,0.009159126020745973
9535,2013,WV,MCDOWELL,54,47,54047,Oxymorphone,2,83,9062,37.36667,-81.65,0.009159126020745973
9542,2013,WV,MERCER,54,55,54055,Heroin,10,529,9062,37.4,-81.11667,0.0583756345177665
9546,2013,WV,MINGO,54,59,54059,Oxycodone,58,162,9062,37.7,-82.15,0.017876848377841537
9562,2013,WV,FAYETTE,54,19,54019,Heroin,16,109,9062,38.05,-81.1,0.012028249834473627
9589,2013,WV,HAMPSHIRE,54,27,54027,Oxycodone,15,100,9062,39.33333,-78.6,0.011035091591260208
9592,2013,WV,HANCOCK,54,29,54029,Oxycodone,10,175,9062,40.50056,-80.56667,0.019311410284705365
9634,2013,WV,LEWIS,54,41,54041,Heroin,122,390,9062,38.96667,-80.51666999999999,0.04303685720591481
9658,2013,WV,CLAY,54,15,54015,Hydrocodone,9,31,9062,38.48333,-81.06667,0.0034208783932906644
9704,2013,WV,FAYETTE,54,19,54019,Oxycodone,18,109,9062,38.05,-81.1,0.012028249834473627
9705,2013,WV,FAYETTE,54,19,54019,Oxymorphone,1,109,9062,38.05,-81.1,0.012028249834473627
9721,2013,WV,GRANT,54,23,54023,Heroin,1,68,9062,39.11667,-79.2,0.007503862282056941
9729,2013,WV,GREENBRIER,54,25,54025,Morphine,1,127,9062,37.95,-80.41667,0.014014566320900463
9739,2013,WV,HAMPSHIRE,54,27,54027,Heroin,24,100,9062,39.33333,-78.6,0.011035091591260208
9742,2013,WV,HANCOCK,54,29,54029,Methadone,3,175,9062,40.50056,-80.56667,0.019311410284705365
9747,2013,WV,HARDY,54,31,54031,Oxycodone,5,86,9062,39.01667,-78.81667,0.009490178768483779
9748,2013,WV,HARDY,54,31,54031,Oxymorphone,1,86,9062,39.01667,-78.81667,0.009490178768483779
9750,2013,WV,HARRISON,54,33,54033,Hydromorphone,1,658,9062,39.28333,-80.38333,0.07261090267049217
9756,2013,WV,HARRISON,54,33,54033,Morphine,2,658,9062,39.28333,-80.38333,0.07261090267049217
9772,2013,WV,KANAWHA,54,39,54039,Buprenorphine,4,1013,9062,38.33333,-81.56667,0.1117854778194659
9773,2013,WV,KANAWHA,54,39,54039,Hydrocodone,41,1013,9062,38.33333,-81.56667,0.1117854778194659
9808,2013,WV,MARION,54,49,54049,Hydrocodone,4,456,9062,39.51667,-80.25,0.05032001765614655
9810,2013,WV,MARSHALL,54,51,54051,Buprenorphine,6,145,9062,39.86667,-80.65,0.0160008828073273
9811,2013,WV,MARSHALL,54,51,54051,Hydrocodone,3,145,9062,39.86667,-80.65,0.0160008828073273
9815,2013,WV,MCDOWELL,54,47,54047,Heroin,9,83,9062,37.36667,-81.65,0.009159126020745973
9830,2013,WV,MINGO,54,59,54059,Heroin,3,162,9062,37.7,-82.15,0.017876848377841537
9831,2013,WV,MINGO,54,59,54059,Methadone,1,162,9062,37.7,-82.15,0.017876848377841537
9832,2013,WV,MONONGALIA,54,61,54061,Heroin,16,130,9062,39.65,-80.03333,0.014345619068638269
9850,2013,WV,NICHOLAS,54,67,54067,Buprenorphine,3,424,9062,38.3,-80.83333,0.04678878834694328
9851,2013,WV,NICHOLAS,54,67,54067,Morphine,28,424,9062,38.3,-80.83333,0.04678878834694328
9889,2013,WV,LOGAN,54,45,54045,Buprenorphine,2,363,9062,37.83333,-81.93333,0.04005738247627455
9890,2013,WV,LOGAN,54,45,54045,Hydrocodone,19,363,9062,37.83333,-81.93333,0.04005738247627455
9891,2013,WV,LOGAN,54,45,54045,Morphine,4,363,9062,37.83333,-81.93333,0.04005738247627455
9911,2013,WV,MARION,54,49,54049,Oxycodone,31,456,9062,39.51667,-80.25,0.05032001765614655
9912,2013,WV,MARSHALL,54,51,54051,Morphine,1,145,9062,39.86667,-80.65,0.0160008828073273
9927,2013,WV,MONONGALIA,54,61,54061,Oxycodone,31,130,9062,39.65,-80.03333,0.014345619068638269
9928,2013,WV,MONONGALIA,54,61,54061,Oxymorphone,1,130,9062,39.65,-80.03333,0.014345619068638269
9954,2013,WV,KANAWHA,54,39,54039,Hydromorphone,3,1013,9062,38.33333,-81.56667,0.1117854778194659
9955,2013,WV,KANAWHA,54,39,54039,Morphine,5,1013,9062,38.33333,-81.56667,0.1117854778194659
9976,2013,WV,LEWIS,54,41,54041,Buprenorphine,6,390,9062,38.96667,-80.51666999999999,0.04303685720591481
9993,2013,WV,MASON,54,53,54053,Heroin,4,85,9062,38.8,-82.00028,0.009379827852571177
10009,2013,WV,MERCER,54,55,54055,Hydromorphone,118,529,9062,37.4,-81.11667,0.0583756345177665
10010,2013,WV,MERCER,54,55,54055,Methadone,2,529,9062,37.4,-81.11667,0.0583756345177665
10015,2013,WV,MINGO,54,59,54059,Hydromorphone,3,162,9062,37.7,-82.15,0.017876848377841537
10018,2013,WV,MONROE,54,63,54063,Hydrocodone,2,18,9062,37.56667,-80.55,0.0019863164864268373
10023,2013,WV,MORGAN,54,65,54065,Oxycodone,3,47,9062,39.56667,-78.25028,0.005186493047892297
10029,2013,WV,NICHOLAS,54,67,54067,Hydrocodone,32,424,9062,38.3,-80.83333,0.04678878834694328
10048,2013,WV,POCAHONTAS,54,75,54075,Oxycodone,6,68,9062,38.31667,-80.03333,0.007503862282056941
10054,2013,WV,PRESTON,54,77,54077,Hydrocodone,4,77,9062,39.46667,-79.66667,0.00849702052527036
10058,2013,WV,MERCER,54,55,54055,Oxycodone,122,529,9062,37.4,-81.11667,0.0583756345177665
10059,2013,WV,MERCER,54,55,54055,Oxymorphone,1,529,9062,37.4,-81.11667,0.0583756345177665
10060,2013,WV,MONONGALIA,54,61,54061,Hydrocodone,4,130,9062,39.65,-80.03333,0.014345619068638269
10063,2013,WV,MONROE,54,63,54063,Oxycodone,5,18,9062,37.56667,-80.55,0.0019863164864268373
10082,2013,WV,OHIO,54,69,54069,Codeine,1,345,9062,40.1,-80.61667,0.03807106598984772
10083,2013,WV,OHIO,54,69,54069,Hydrocodone,19,345,9062,40.1,-80.61667,0.03807106598984772
10084,2013,WV,OHIO,54,69,54069,Oxycodone,83,345,9062,40.1,-80.61667,0.03807106598984772
10085,2013,WV,OHIO,54,69,54069,Oxymorphone,1,345,9062,40.1,-80.61667,0.03807106598984772
10102,2013,WV,PLEASANTS,54,73,54073,Hydrocodone,1,29,9062,39.36667,-81.15,0.00320017656146546
10103,2013,WV,POCAHONTAS,54,75,54075,Hydrocodone,2,68,9062,38.31667,-80.03333,0.007503862282056941
10104,2013,WV,POCAHONTAS,54,75,54075,Hydromorphone,1,68,9062,38.31667,-80.03333,0.007503862282056941
10124,2013,WV,RALEIGH,54,81,54081,Morphine,11,584,9062,37.75,-81.25,0.06444493489295962
10125,2013,WV,RANDOLPH,54,83,54083,Hydromorphone,1,138,9062,38.76667,-79.83333,0.015228426395939087
10155,2013,WV,JACKSON,54,35,54035,Oxycodone,2,38,9062,38.83333,-81.68333,0.004193334804678879
10181,2013,WV,LEWIS,54,41,54041,Morphine,6,390,9062,38.96667,-80.51666999999999,0.04303685720591481
10185,2013,WV,LOGAN,54,45,54045,Hydromorphone,2,363,9062,37.83333,-81.93333,0.04005738247627455
10199,2013,WV,MARION,54,49,54049,Heroin,127,456,9062,39.51667,-80.25,0.05032001765614655
10200,2013,WV,MARSHALL,54,51,54051,Hydromorphone,1,145,9062,39.86667,-80.65,0.0160008828073273
10211,2013,WV,MINERAL,54,57,54057,Oxycodone,1,22,9062,39.4,-78.95,0.0024277201500772457
10212,2013,WV,MINGO,54,59,54059,Hydrocodone,23,162,9062,37.7,-82.15,0.017876848377841537
10222,2013,WV,MORGAN,54,65,54065,Heroin,9,47,9062,39.56667,-78.25028,0.005186493047892297
10232,2013,WV,NICHOLAS,54,67,54067,Hydromorphone,2,424,9062,38.3,-80.83333,0.04678878834694328
10267,2013,WV,JACKSON,54,35,54035,Heroin,10,38,9062,38.83333,-81.68333,0.004193334804678879
10295,2013,WV,LEWIS,54,41,54041,Oxycodone,40,390,9062,38.96667,-80.51666999999999,0.04303685720591481
10300,2013,WV,LOGAN,54,45,54045,Pentazocine,1,363,9062,37.83333,-81.93333,0.04005738247627455
10316,2013,WV,MARSHALL,54,51,54051,Oxycodone,14,145,9062,39.86667,-80.65,0.0160008828073273
10319,2013,WV,MASON,54,53,54053,Hydrocodone,1,85,9062,38.8,-82.00028,0.009379827852571177
10327,2013,WV,MERCER,54,55,54055,Morphine,10,529,9062,37.4,-81.11667,0.0583756345177665
10332,2013,WV,MINERAL,54,57,54057,Heroin,2,22,9062,39.4,-78.95,0.0024277201500772457
10333,2013,WV,MINGO,54,59,54059,Morphine,1,162,9062,37.7,-82.15,0.017876848377841537
10347,2013,WV,NICHOLAS,54,67,54067,Heroin,60,424,9062,38.3,-80.83333,0.04678878834694328
10358,2013,WV,OHIO,54,69,54069,Buprenorphine,10,345,9062,40.1,-80.61667,0.03807106598984772
10359,2013,WV,OHIO,54,69,54069,Morphine,1,345,9062,40.1,-80.61667,0.03807106598984772
10392,2013,WV,PRESTON,54,77,54077,Heroin,6,77,9062,39.46667,-79.66667,0.00849702052527036
10439,2013,WV,SUMMERS,54,89,54089,Heroin,9,126,9062,37.65,-80.86667,0.013904215404987862
10459,2013,WV,MORGAN,54,65,54065,Buprenorphine,1,47,9062,39.56667,-78.25028,0.005186493047892297
10467,2013,WV,NICHOLAS,54,67,54067,Oxycodone,101,424,9062,38.3,-80.83333,0.04678878834694328
10471,2013,WV,OHIO,54,69,54069,Heroin,53,345,9062,40.1,-80.61667,0.03807106598984772
10490,2013,WV,PRESTON,54,77,54077,Buprenorphine,1,77,9062,39.46667,-79.66667,0.00849702052527036
10496,2013,WV,RALEIGH,54,81,54081,Hydromorphone,6,584,9062,37.75,-81.25,0.06444493489295962
10528,2013,WV,SUMMERS,54,89,54089,Buprenorphine,1,126,9062,37.65,-80.86667,0.013904215404987862
10569,2013,WV,POCAHONTAS,54,75,54075,Buprenorphine,6,68,9062,38.31667,-80.03333,0.007503862282056941
10570,2013,WV,POCAHONTAS,54,75,54075,Codeine,2,68,9062,38.31667,-80.03333,0.007503862282056941
10586,2013,WV,RALEIGH,54,81,54081,Buprenorphine,1,584,9062,37.75,-81.25,0.06444493489295962
10587,2013,WV,RANDOLPH,54,83,54083,Hydrocodone,9,138,9062,38.76667,-79.83333,0.015228426395939087
10625,2013,WV,UPSHUR,54,97,54097,Oxycodone,33,153,9062,38.88333,-80.25056,0.016883690134628117
10646,2013,WV,WEBSTER,54,101,54101,Buprenorphine,5,131,9062,38.51667,-80.41667,0.014455969984550872
10647,2013,WV,WEBSTER,54,101,54101,Hydrocodone,8,131,9062,38.51667,-80.41667,0.014455969984550872
10649,2013,WV,WETZEL,54,103,54103,Morphine,1,19,9062,39.58333,-80.66667,0.0020966674023394395
10653,2013,WV,WOOD,54,107,54107,Codeine,1,411,9062,39.2,-81.50139,0.04535422644007945
10669,2013,WV,PLEASANTS,54,73,54073,Buprenorphine,2,29,9062,39.36667,-81.15,0.00320017656146546
10674,2013,WV,PRESTON,54,77,54077,Oxycodone,1,77,9062,39.46667,-79.66667,0.00849702052527036
10677,2013,WV,PUTNAM,54,79,54079,Oxycodone,20,177,9062,38.51667,-81.88333,0.019532112116530567
10678,2013,WV,PUTNAM,54,79,54079,Oxymorphone,1,177,9062,38.51667,-81.88333,0.019532112116530567
10681,2013,WV,RANDOLPH,54,83,54083,Oxycodone,3,138,9062,38.76667,-79.83333,0.015228426395939087
10719,2013,WV,UPSHUR,54,97,54097,Methadone,2,153,9062,38.88333,-80.25056,0.016883690134628117
10734,2013,WV,WAYNE,54,99,54099,Oxycodone,31,75,9062,38.15,-82.45,0.008276318693445155
10735,2013,WV,WEBSTER,54,101,54101,Oxycodone,4,131,9062,38.51667,-80.41667,0.014455969984550872
10736,2013,WV,WEBSTER,54,101,54101,Pentazocine,1,131,9062,38.51667,-80.41667,0.014455969984550872
10749,2013,WV,WOOD,54,107,54107,Oxycodone,7,411,9062,39.2,-81.50139,0.04535422644007945
10771,2013,WV,PUTNAM,54,79,54079,Heroin,20,177,9062,38.51667,-81.88333,0.019532112116530567
10773,2013,WV,RALEIGH,54,81,54081,Heroin,156,584,9062,37.75,-81.25,0.06444493489295962
10776,2013,WV,RITCHIE,54,85,54085,Buprenorphine,1,33,9062,39.16667,-81.08333,0.0036415802251158684
10812,2013,WV,UPSHUR,54,97,54097,Morphine,2,153,9062,38.88333,-80.25056,0.016883690134628117
10827,2013,WV,WAYNE,54,99,54099,Buprenorphine,1,75,9062,38.15,-82.45,0.008276318693445155
10857,2013,WV,RALEIGH,54,81,54081,Oxycodone,158,584,9062,37.75,-81.25,0.06444493489295962
10858,2013,WV,RALEIGH,54,81,54081,Oxymorphone,4,584,9062,37.75,-81.25,0.06444493489295962
10886,2013,WV,SUMMERS,54,89,54089,Hydrocodone,14,126,9062,37.65,-80.86667,0.013904215404987862
10887,2013,WV,SUMMERS,54,89,54089,Oxycodone,12,126,9062,37.65,-80.86667,0.013904215404987862
10903,2013,WV,UPSHUR,54,97,54097,Buprenorphine,1,153,9062,38.88333,-80.25056,0.016883690134628117
10926,2013,WV,WYOMING,54,109,54109,Oxycodone,12,38,9062,37.61667,-81.55,0.004193334804678879
10949,2014,WV,BERKELEY,54,3,54003,Oxycodone,4,250,6926,39.45,-78.03333,0.036095870632399656
10956,2013,WV,MARION,54,49,54049,Codeine,1,456,9062,39.51667,-80.25,0.05032001765614655
10958,2013,WV,MARSHALL,54,51,54051,Methadone,1,145,9062,39.86667,-80.65,0.0160008828073273
10964,2013,WV,MCDOWELL,54,47,54047,Buprenorphine,2,83,9062,37.36667,-81.65,0.009159126020745973
10965,2013,WV,MCDOWELL,54,47,54047,Hydrocodone,6,83,9062,37.36667,-81.65,0.009159126020745973
10970,2013,WV,MERCER,54,55,54055,Hydrocodone,59,529,9062,37.4,-81.11667,0.0583756345177665
10976,2013,WV,MINGO,54,59,54059,Buprenorphine,5,162,9062,37.7,-82.15,0.017876848377841537
10986,2013,WV,NICHOLAS,54,67,54067,Oxymorphone,2,424,9062,38.3,-80.83333,0.04678878834694328
10989,2013,WV,OHIO,54,69,54069,Hydromorphone,1,345,9062,40.1,-80.61667,0.03807106598984772
11009,2013,WV,POCAHONTAS,54,75,54075,Morphine,2,68,9062,38.31667,-80.03333,0.007503862282056941
11022,2013,WV,PUTNAM,54,79,54079,Hydrocodone,4,177,9062,38.51667,-81.88333,0.019532112116530567
11025,2013,WV,RALEIGH,54,81,54081,Hydrocodone,22,584,9062,37.75,-81.25,0.06444493489295962
11026,2013,WV,RANDOLPH,54,83,54083,Buprenorphine,21,138,9062,38.76667,-79.83333,0.015228426395939087
11065,2013,WV,WAYNE,54,99,54099,Heroin,17,75,9062,38.15,-82.45,0.008276318693445155
11066,2013,WV,WAYNE,54,99,54099,Methadone,1,75,9062,38.15,-82.45,0.008276318693445155
11082,2013,WV,WOOD,54,107,54107,Heroin,127,411,9062,39.2,-81.50139,0.04535422644007945
11119,2014,WV,BERKELEY,54,3,54003,Methorphan,3,250,6926,39.45,-78.03333,0.036095870632399656
11133,2014,WV,BRAXTON,54,7,54007,Morphine,5,62,6926,38.71667,-80.7,0.008951775916835113
11141,2014,WV,CABELL,54,11,54011,Codeine,3,350,6926,38.43333,-82.25,0.050534218885359514
11158,2013,WV,TAYLOR,54,91,54091,Oxycodone,2,8,9062,39.35,-80.05,0.0008828073273008167
11167,2013,WV,UPSHUR,54,97,54097,Hydrocodone,16,153,9062,38.88333,-80.25056,0.016883690134628117
11192,2013,WV,WOOD,54,107,54107,Methadone,1,411,9062,39.2,-81.50139,0.04535422644007945
11221,2014,WV,BARBOUR,54,1,54001,Hydrocodone,3,13,6926,39.13333,-80.03333,0.001876985272884782
11230,2014,WV,BERKELEY,54,3,54003,Buprenorphine,5,250,6926,39.45,-78.03333,0.036095870632399656
11257,2013,WV,WYOMING,54,109,54109,Buprenorphine,1,38,9062,37.61667,-81.55,0.004193334804678879
11289,2014,WV,BERKELEY,54,3,54003,Heroin,76,250,6926,39.45,-78.03333,0.036095870632399656
11294,2014,WV,BOONE,54,5,54005,Oxycodone,4,21,6926,38.01667,-81.7,0.003032053133121571
11297,2014,WV,BRAXTON,54,7,54007,Heroin,2,62,6926,38.71667,-80.7,0.008951775916835113
11311,2014,WV,CABELL,54,11,54011,Fentanyl,8,350,6926,38.43333,-82.25,0.050534218885359514
11312,2014,WV,CABELL,54,11,54011,Oxycodone,20,350,6926,38.43333,-82.25,0.050534218885359514
11313,2014,WV,CABELL,54,11,54011,Oxymorphone,5,350,6926,38.43333,-82.25,0.050534218885359514
11358,2013,WV,WAYNE,54,99,54099,Hydrocodone,4,75,9062,38.15,-82.45,0.008276318693445155
11367,2013,WV,WOOD,54,107,54107,Hydrocodone,21,411,9062,39.2,-81.50139,0.04535422644007945
11368,2013,WV,WOOD,54,107,54107,Hydromorphone,1,411,9062,39.2,-81.50139,0.04535422644007945
11405,2014,WV,BRAXTON,54,7,54007,Buprenorphine,3,62,6926,38.71667,-80.7,0.008951775916835113
11442,2014,WV,CLAY,54,15,54015,Buprenorphine,2,38,6926,38.48333,-81.06667,0.005486572336124747
11459,2013,WV,SUMMERS,54,89,54089,Hydromorphone,53,126,9062,37.65,-80.86667,0.013904215404987862
11468,2013,WV,UPSHUR,54,97,54097,Heroin,17,153,9062,38.88333,-80.25056,0.016883690134628117
11484,2013,WV,WEBSTER,54,101,54101,Morphine,3,131,9062,38.51667,-80.41667,0.014455969984550872
11493,2013,WV,WOOD,54,107,54107,Morphine,1,411,9062,39.2,-81.50139,0.04535422644007945
11517,2014,WV,BERKELEY,54,3,54003,Fentanyl,6,250,6926,39.45,-78.03333,0.036095870632399656
11526,2014,WV,BRAXTON,54,7,54007,Fentanyl,2,62,6926,38.71667,-80.7,0.008951775916835113
11527,2014,WV,BRAXTON,54,7,54007,Oxycodone,4,62,6926,38.71667,-80.7,0.008951775916835113
11528,2014,WV,BRAXTON,54,7,54007,Oxymorphone,1,62,6926,38.71667,-80.7,0.008951775916835113
11537,2014,WV,CABELL,54,11,54011,Heroin,159,350,6926,38.43333,-82.25,0.050534218885359514
11623,2014,WV,GRANT,54,23,54023,Buprenorphine,4,123,6926,39.11667,-79.2,0.01775916835114063
11642,2014,WV,HARRISON,54,33,54033,Hydrocodone,22,324,6926,39.28333,-80.38333,0.04678024833958995
11643,2014,WV,HARRISON,54,33,54033,Oxycodone,43,324,6926,39.28333,-80.38333,0.04678024833958995
11660,2014,WV,BOONE,54,5,54005,Heroin,1,21,6926,38.01667,-81.7,0.003032053133121571
11666,2014,WV,BRAXTON,54,7,54007,Hydrocodone,4,62,6926,38.71667,-80.7,0.008951775916835113
11681,2014,WV,CABELL,54,11,54011,Hydromorphone,3,350,6926,38.43333,-82.25,0.050534218885359514
11683,2014,WV,CALHOUN,54,13,54013,Hydrocodone,2,16,6926,38.83333,-81.11667,0.002310135720473578
11744,2014,WV,GRANT,54,23,54023,Hydrocodone,8,123,6926,39.11667,-79.2,0.01775916835114063
11745,2014,WV,GRANT,54,23,54023,Oxycodone,13,123,6926,39.11667,-79.2,0.01775916835114063
11755,2014,WV,HANCOCK,54,29,54029,Heroin,36,94,6926,40.50056,-80.56667,0.01357204735778227
11821,2014,WV,GRANT,54,23,54023,Hydromorphone,1,123,6926,39.11667,-79.2,0.01775916835114063
11827,2014,WV,GREENBRIER,54,25,54025,Heroin,36,218,6926,37.95,-80.41667,0.0314755991914525
11838,2014,WV,HANCOCK,54,29,54029,Buprenorphine,2,94,6926,40.50056,-80.56667,0.01357204735778227
11878,2014,WV,BERKELEY,54,3,54003,Methadone,1,250,6926,39.45,-78.03333,0.036095870632399656
11905,2014,WV,CABELL,54,11,54011,Hydrocodone,1,350,6926,38.43333,-82.25,0.050534218885359514
11935,2014,WV,CLAY,54,15,54015,Oxycodone,7,38,6926,38.48333,-81.06667,0.005486572336124747
11979,2014,WV,DODDRIDGE,54,17,54017,Oxycodone,1,28,6926,39.26667,-80.7,0.0040427375108287615
12020,2014,WV,GREENBRIER,54,25,54025,Hydrocodone,8,218,6926,37.95,-80.41667,0.0314755991914525
12021,2014,WV,GREENBRIER,54,25,54025,Hydromorphone,2,218,6926,37.95,-80.41667,0.0314755991914525
12034,2014,WV,HARDY,54,31,54031,Buprenorphine,2,108,6926,39.01667,-78.81667,0.01559341611319665
12035,2014,WV,HARDY,54,31,54031,Morphine,1,108,6926,39.01667,-78.81667,0.01559341611319665
12048,2014,WV,JACKSON,54,35,54035,Heroin,12,100,6926,38.83333,-81.68333,0.014438348252959862
12052,2014,WV,KANAWHA,54,39,54039,Buprenorphine,9,1007,6926,38.33333,-81.56667,0.1453941669073058
12053,2014,WV,KANAWHA,54,39,54039,Fentanyl,3,1007,6926,38.33333,-81.56667,0.1453941669073058
12054,2014,WV,KANAWHA,54,39,54039,Morphine,9,1007,6926,38.33333,-81.56667,0.1453941669073058
12104,2014,WV,GREENBRIER,54,25,54025,Oxycodone,46,218,6926,37.95,-80.41667,0.0314755991914525
12105,2014,WV,GREENBRIER,54,25,54025,Oxymorphone,9,218,6926,37.95,-80.41667,0.0314755991914525
12118,2014,WV,HARRISON,54,33,54033,Buprenorphine,9,324,6926,39.28333,-80.38333,0.04678024833958995
12119,2014,WV,HARRISON,54,33,54033,Morphine,2,324,6926,39.28333,-80.38333,0.04678024833958995
12134,2014,WV,JACKSON,54,35,54035,Hydromorphone,5,100,6926,38.83333,-81.68333,0.014438348252959862
12138,2014,WV,JEFFERSON,54,37,54037,Heroin,22,59,6926,39.3,-77.85,0.008518625469246319
12142,2014,WV,KANAWHA,54,39,54039,Codeine,2,1007,6926,38.33333,-81.56667,0.1453941669073058
12143,2014,WV,KANAWHA,54,39,54039,Oxymorphone,25,1007,6926,38.33333,-81.56667,0.1453941669073058
12198,2014,WV,BOONE,54,5,54005,Buprenorphine,2,21,6926,38.01667,-81.7,0.003032053133121571
12199,2014,WV,BOONE,54,5,54005,Hydrocodone,1,21,6926,38.01667,-81.7,0.003032053133121571
12255,2014,WV,DODDRIDGE,54,17,54017,Buprenorphine,2,28,6926,39.26667,-80.7,0.0040427375108287615
12256,2014,WV,DODDRIDGE,54,17,54017,Hydrocodone,2,28,6926,39.26667,-80.7,0.0040427375108287615
12269,2014,WV,JACKSON,54,35,54035,Oxycodone,8,100,6926,38.83333,-81.68333,0.014438348252959862
12308,2014,WV,LOGAN,54,45,54045,Fentanyl,1,320,6926,37.83333,-81.93333,0.04620271440947156
12309,2014,WV,LOGAN,54,45,54045,Morphine,14,320,6926,37.83333,-81.93333,0.04620271440947156
12325,2014,WV,MARION,54,49,54049,Fentanyl,4,148,6926,39.51667,-80.25,0.021368755414380596
12335,2014,WV,MERCER,54,55,54055,Hydromorphone,79,315,6926,37.4,-81.11667,0.045480796996823565
12341,2014,WV,MINERAL,54,57,54057,Oxycodone,3,44,6926,39.4,-78.95,0.006352873231302339
12342,2014,WV,MONONGALIA,54,61,54061,Oxycodone,39,139,6926,39.65,-80.03333,0.020069304071614207
12352,2014,WV,MORGAN,54,65,54065,Hydromorphone,1,81,6926,39.56667,-78.25028,0.011695062084897487
12362,2014,WV,NICHOLAS,54,67,54067,Hydromorphone,5,365,6926,38.3,-80.83333,0.05269997112330349
12385,2014,WV,JEFFERSON,54,37,54037,Oxycodone,1,59,6926,39.3,-77.85,0.008518625469246319
12389,2014,WV,KANAWHA,54,39,54039,Heroin,280,1007,6926,38.33333,-81.56667,0.1453941669073058
12413,2014,WV,LOGAN,54,45,54045,Oxycodone,55,320,6926,37.83333,-81.93333,0.04620271440947156
12414,2014,WV,LOGAN,54,45,54045,Oxymorphone,19,320,6926,37.83333,-81.93333,0.04620271440947156
12434,2014,WV,MARION,54,49,54049,Morphine,1,148,6926,39.51667,-80.25,0.021368755414380596
12436,2014,WV,MCDOWELL,54,47,54047,Methadone,2,63,6926,37.36667,-81.65,0.009096159399364713
12445,2014,WV,MERCER,54,55,54055,Heroin,34,315,6926,37.4,-81.11667,0.045480796996823565
12449,2014,WV,MINGO,54,59,54059,Heroin,3,26,6926,37.7,-82.15,0.003753970545769564
12450,2014,WV,MONROE,54,63,54063,Oxycodone,11,19,6926,37.56667,-80.55,0.0027432861680623736
12459,2014,WV,MORGAN,54,65,54065,Morphine,3,81,6926,39.56667,-78.25028,0.011695062084897487
12497,2014,WV,GRANT,54,23,54023,Morphine,1,123,6926,39.11667,-79.2,0.01775916835114063
12503,2014,WV,HAMPSHIRE,54,27,54027,Buprenorphine,1,24,6926,39.33333,-78.6,0.0034652035807103665
12504,2014,WV,HAMPSHIRE,54,27,54027,Morphine,1,24,6926,39.33333,-78.6,0.0034652035807103665
12511,2014,WV,HARRISON,54,33,54033,Fentanyl,2,324,6926,39.28333,-80.38333,0.04678024833958995
12512,2014,WV,HARRISON,54,33,54033,Heroin,130,324,6926,39.28333,-80.38333,0.04678024833958995
12534,2014,WV,KANAWHA,54,39,54039,Oxycodone,85,1007,6926,38.33333,-81.56667,0.1453941669073058
12552,2014,WV,LEWIS,54,41,54041,Hydromorphone,4,263,6926,38.96667,-80.51666999999999,0.03797285590528444
12555,2014,WV,LOGAN,54,45,54045,Buprenorphine,20,320,6926,37.83333,-81.93333,0.04620271440947156
12556,2014,WV,LOGAN,54,45,54045,Hydrocodone,19,320,6926,37.83333,-81.93333,0.04620271440947156
12598,2014,WV,FAYETTE,54,19,54019,Oxycodone,23,43,6926,38.05,-81.1,0.00620848974877274
12614,2014,WV,GRANT,54,23,54023,Oxymorphone,1,123,6926,39.11667,-79.2,0.01775916835114063
12618,2014,WV,GREENBRIER,54,25,54025,Buprenorphine,10,218,6926,37.95,-80.41667,0.0314755991914525
12631,2014,WV,HAMPSHIRE,54,27,54027,Oxycodone,5,24,6926,39.33333,-78.6,0.0034652035807103665
12636,2014,WV,HARDY,54,31,54031,Heroin,28,108,6926,39.01667,-78.81667,0.01559341611319665
12661,2014,WV,KANAWHA,54,39,54039,Hydromorphone,1,1007,6926,38.33333,-81.56667,0.1453941669073058
12662,2014,WV,KANAWHA,54,39,54039,Pentazocine,1,1007,6926,38.33333,-81.56667,0.1453941669073058
12673,2014,WV,JACKSON,54,35,54035,Buprenorphine,3,100,6926,38.83333,-81.68333,0.014438348252959862
12674,2014,WV,JACKSON,54,35,54035,Hydrocodone,10,100,6926,38.83333,-81.68333,0.014438348252959862
12675,2014,WV,JACKSON,54,35,54035,Morphine,1,100,6926,38.83333,-81.68333,0.014438348252959862
12678,2014,WV,KANAWHA,54,39,54039,Hydrocodone,36,1007,6926,38.33333,-81.56667,0.1453941669073058
12691,2014,WV,LEWIS,54,41,54041,Morphine,5,263,6926,38.96667,-80.51666999999999,0.03797285590528444
12696,2014,WV,LINCOLN,54,43,54043,Oxycodone,2,17,6926,38.16667,-82.08333,0.0024545192030031764
12716,2014,WV,MARION,54,49,54049,Heroin,48,148,6926,39.51667,-80.25,0.021368755414380596
12717,2014,WV,MARSHALL,54,51,54051,Hydrocodone,13,168,6926,39.86667,-80.65,0.024256425064972567
12734,2014,WV,MERCER,54,55,54055,Methadone,3,315,6926,37.4,-81.11667,0.045480796996823565
12735,2014,WV,MINERAL,54,57,54057,Hydrocodone,2,44,6926,39.4,-78.95,0.006352873231302339
12736,2014,WV,MONONGALIA,54,61,54061,Heroin,31,139,6926,39.65,-80.03333,0.020069304071614207
12750,2014,WV,NICHOLAS,54,67,54067,Buprenorphine,2,365,6926,38.3,-80.83333,0.05269997112330349
12751,2014,WV,NICHOLAS,54,67,54067,Hydrocodone,17,365,6926,38.3,-80.83333,0.05269997112330349
12752,2014,WV,NICHOLAS,54,67,54067,Morphine,15,365,6926,38.3,-80.83333,0.05269997112330349
12818,2014,WV,GRANT,54,23,54023,Heroin,7,123,6926,39.11667,-79.2,0.01775916835114063
12823,2014,WV,GREENBRIER,54,25,54025,Morphine,2,218,6926,37.95,-80.41667,0.0314755991914525
12833,2014,WV,HAMPSHIRE,54,27,54027,Heroin,8,24,6926,39.33333,-78.6,0.0034652035807103665
12835,2014,WV,HANCOCK,54,29,54029,Oxycodone,3,94,6926,40.50056,-80.56667,0.01357204735778227
12836,2014,WV,HARDY,54,31,54031,Oxycodone,6,108,6926,39.01667,-78.81667,0.01559341611319665
12839,2014,WV,HARRISON,54,33,54033,Hydromorphone,1,324,6926,39.28333,-80.38333,0.04678024833958995
12855,2014,WV,JEFFERSON,54,37,54037,Methadone,4,59,6926,39.3,-77.85,0.008518625469246319
12880,2014,WV,LEWIS,54,41,54041,Buprenorphine,8,263,6926,38.96667,-80.51666999999999,0.03797285590528444
12884,2014,WV,LINCOLN,54,43,54043,Hydrocodone,1,17,6926,38.16667,-82.08333,0.0024545192030031764
12888,2014,WV,LOGAN,54,45,54045,Hydromorphone,2,320,6926,37.83333,-81.93333,0.04620271440947156
12905,2014,WV,MARION,54,49,54049,Hydrocodone,3,148,6926,39.51667,-80.25,0.021368755414380596
12908,2014,WV,MARSHALL,54,51,54051,Buprenorphine,17,168,6926,39.86667,-80.65,0.024256425064972567
12909,2014,WV,MARSHALL,54,51,54051,Fentanyl,4,168,6926,39.86667,-80.65,0.024256425064972567
12925,2014,WV,MINERAL,54,57,54057,Heroin,3,44,6926,39.4,-78.95,0.006352873231302339
12934,2014,WV,MORGAN,54,65,54065,Fentanyl,2,81,6926,39.56667,-78.25028,0.011695062084897487
12935,2014,WV,MORGAN,54,65,54065,Heroin,35,81,6926,39.56667,-78.25028,0.011695062084897487
12936,2014,WV,MORGAN,54,65,54065,Hydrocodone,4,81,6926,39.56667,-78.25028,0.011695062084897487
12937,2014,WV,MORGAN,54,65,54065,Methadone,1,81,6926,39.56667,-78.25028,0.011695062084897487
12973,2014,WV,LEWIS,54,41,54041,Hydrocodone,23,263,6926,38.96667,-80.51666999999999,0.03797285590528444
12977,2014,WV,LOGAN,54,45,54045,Heroin,22,320,6926,37.83333,-81.93333,0.04620271440947156
12997,2014,WV,MARION,54,49,54049,Buprenorphine,1,148,6926,39.51667,-80.25,0.021368755414380596
13000,2014,WV,MARSHALL,54,51,54051,Heroin,68,168,6926,39.86667,-80.65,0.024256425064972567
13005,2014,WV,MCDOWELL,54,47,54047,Oxycodone,1,63,6926,37.36667,-81.65,0.009096159399364713
13011,2014,WV,MERCER,54,55,54055,Oxycodone,37,315,6926,37.4,-81.11667,0.045480796996823565
13012,2014,WV,MERCER,54,55,54055,Oxymorphone,7,315,6926,37.4,-81.11667,0.045480796996823565
13023,2014,WV,MORGAN,54,65,54065,Buprenorphine,1,81,6926,39.56667,-78.25028,0.011695062084897487
13033,2014,WV,OHIO,54,69,54069,Hydrocodone,2,233,6926,40.1,-80.61667,0.03364135142939648
13034,2014,WV,OHIO,54,69,54069,Oxycodone,71,233,6926,40.1,-80.61667,0.03364135142939648
13060,2014,WV,RALEIGH,54,81,54081,Buprenorphine,4,739,6926,37.75,-81.25,0.10669939358937337
13061,2014,WV,RANDOLPH,54,83,54083,Morphine,1,99,6926,38.76667,-79.83333,0.014293964770430262
13064,2014,WV,RITCHIE,54,85,54085,Codeine,1,37,6926,39.16667,-81.08333,0.005342188853595149
13073,2014,WV,MARION,54,49,54049,Oxycodone,27,148,6926,39.51667,-80.25,0.021368755414380596
13076,2014,WV,MARSHALL,54,51,54051,Morphine,2,168,6926,39.86667,-80.65,0.024256425064972567
13108,2014,WV,OHIO,54,69,54069,Buprenorphine,8,233,6926,40.1,-80.61667,0.03364135142939648
13139,2014,WV,RALEIGH,54,81,54081,Hydromorphone,9,739,6926,37.75,-81.25,0.10669939358937337
13187,2014,WV,PLEASANTS,54,73,54073,Oxycodone,1,11,6926,39.36667,-81.15,0.0015882183078255846
13188,2014,WV,POCAHONTAS,54,75,54075,Oxycodone,7,29,6926,38.31667,-80.03333,0.00418712099335836
13189,2014,WV,POCAHONTAS,54,75,54075,Oxymorphone,1,29,6926,38.31667,-80.03333,0.00418712099335836
13198,2014,WV,RALEIGH,54,81,54081,Heroin,217,739,6926,37.75,-81.25,0.10669939358937337
13203,2014,WV,ROANE,54,87,54087,Oxycodone,1,48,6926,38.73333,-81.35,0.006930407161420733
13238,2014,WV,SUMMERS,54,89,54089,Oxycodone,1,2,6926,37.65,-80.86667,0.00028876696505919725
13263,2014,WV,WAYNE,54,99,54099,Buprenorphine,6,58,6926,38.15,-82.45,0.00837424198671672
13265,2014,WV,WEBSTER,54,101,54101,Morphine,7,121,6926,38.51667,-80.41667,0.01747040138608143
13267,2014,WV,WETZEL,54,103,54103,Heroin,17,92,6926,39.58333,-80.66667,0.013283280392723073
13285,2014,WV,LEWIS,54,41,54041,Heroin,19,263,6926,38.96667,-80.51666999999999,0.03797285590528444
13309,2014,WV,MARSHALL,54,51,54051,Oxycodone,11,168,6926,39.86667,-80.65,0.024256425064972567
13314,2014,WV,MASON,54,53,54053,Heroin,1,38,6926,38.8,-82.00028,0.005486572336124747
13318,2014,WV,MCDOWELL,54,47,54047,Buprenorphine,5,63,6926,37.36667,-81.65,0.009096159399364713
13324,2014,WV,MERCER,54,55,54055,Buprenorphine,2,315,6926,37.4,-81.11667,0.045480796996823565
13331,2014,WV,MONONGALIA,54,61,54061,Morphine,1,139,6926,39.65,-80.03333,0.020069304071614207
13334,2014,WV,MONROE,54,63,54063,Hydrocodone,4,19,6926,37.56667,-80.55,0.0027432861680623736
13339,2014,WV,MORGAN,54,65,54065,Oxycodone,2,81,6926,39.56667,-78.25028,0.011695062084897487
13343,2014,WV,NICHOLAS,54,67,54067,Heroin,34,365,6926,38.3,-80.83333,0.05269997112330349
13344,2014,WV,NICHOLAS,54,67,54067,Methadone,1,365,6926,38.3,-80.83333,0.05269997112330349
13365,2014,WV,POCAHONTAS,54,75,54075,Buprenorphine,1,29,6926,38.31667,-80.03333,0.00418712099335836
13366,2014,WV,POCAHONTAS,54,75,54075,Hydrocodone,2,29,6926,38.31667,-80.03333,0.00418712099335836
13375,2014,WV,NICHOLAS,54,67,54067,Oxycodone,143,365,6926,38.3,-80.83333,0.05269997112330349
13376,2014,WV,NICHOLAS,54,67,54067,Oxymorphone,3,365,6926,38.3,-80.83333,0.05269997112330349
13381,2014,WV,OHIO,54,69,54069,Heroin,35,233,6926,40.1,-80.61667,0.03364135142939648
13382,2014,WV,OHIO,54,69,54069,Methadone,2,233,6926,40.1,-80.61667,0.03364135142939648
13401,2014,WV,RALEIGH,54,81,54081,Fentanyl,5,739,6926,37.75,-81.25,0.10669939358937337
13402,2014,WV,RANDOLPH,54,83,54083,Buprenorphine,12,99,6926,38.76667,-79.83333,0.014293964770430262
13405,2014,WV,ROANE,54,87,54087,Hydrocodone,1,48,6926,38.73333,-81.35,0.006930407161420733
13440,2014,WV,TUCKER,54,93,54093,Morphine,2,6,6926,39.1,-79.56667,0.0008663008951775916
13464,2014,WV,WAYNE,54,99,54099,Hydrocodone,2,58,6926,38.15,-82.45,0.00837424198671672
13470,2014,WV,WOOD,54,107,54107,Fentanyl,12,291,6926,39.2,-81.50139,0.042015593416113196
13471,2014,WV,WOOD,54,107,54107,Methadone,2,291,6926,39.2,-81.50139,0.042015593416113196
13478,2014,WV,PLEASANTS,54,73,54073,Hydrocodone,1,11,6926,39.36667,-81.15,0.0015882183078255846
13489,2014,WV,PUTNAM,54,79,54079,Oxycodone,6,106,6926,38.51667,-81.88333,0.015304649148137454
13491,2014,WV,RANDOLPH,54,83,54083,Oxycodone,3,99,6926,38.76667,-79.83333,0.014293964770430262
13494,2014,WV,ROANE,54,87,54087,Codeine,1,48,6926,38.73333,-81.35,0.006930407161420733
13495,2014,WV,ROANE,54,87,54087,Morphine,1,48,6926,38.73333,-81.35,0.006930407161420733
13546,2014,WV,WAYNE,54,99,54099,Oxycodone,28,58,6926,38.15,-82.45,0.00837424198671672
13549,2014,WV,WEBSTER,54,101,54101,Oxycodone,2,121,6926,38.51667,-80.41667,0.01747040138608143
13583,2014,WV,PUTNAM,54,79,54079,Heroin,34,106,6926,38.51667,-81.88333,0.015304649148137454
13584,2014,WV,RALEIGH,54,81,54081,Oxymorphone,3,739,6926,37.75,-81.25,0.10669939358937337
13629,2014,WV,WEBSTER,54,101,54101,Hydromorphone,3,121,6926,38.51667,-80.41667,0.01747040138608143
13631,2014,WV,WETZEL,54,103,54103,Oxycodone,8,92,6926,39.58333,-80.66667,0.013283280392723073
13636,2014,WV,WOOD,54,107,54107,Oxycodone,7,291,6926,39.2,-81.50139,0.042015593416113196
13684,2014,WV,PUTNAM,54,79,54079,Buprenorphine,1,106,6926,38.51667,-81.88333,0.015304649148137454
13685,2014,WV,PUTNAM,54,79,54079,Hydrocodone,2,106,6926,38.51667,-81.88333,0.015304649148137454
13686,2014,WV,PUTNAM,54,79,54079,Morphine,4,106,6926,38.51667,-81.88333,0.015304649148137454
13687,2014,WV,RALEIGH,54,81,54081,Hydrocodone,17,739,6926,37.75,-81.25,0.10669939358937337
13688,2014,WV,RALEIGH,54,81,54081,Oxycodone,196,739,6926,37.75,-81.25,0.10669939358937337
13714,2014,WV,SUMMERS,54,89,54089,Hydromorphone,1,2,6926,37.65,-80.86667,0.00028876696505919725
13725,2014,WV,TUCKER,54,93,54093,Buprenorphine,1,6,6926,39.1,-79.56667,0.0008663008951775916
13728,2014,WV,TYLER,54,95,54095,Buprenorphine,1,25,6926,39.45,-80.86667,0.0036095870632399654
13732,2014,WV,UPSHUR,54,97,54097,Heroin,8,60,6926,38.88333,-80.25056,0.008663008951775917
13744,2014,WV,WEBSTER,54,101,54101,Hydrocodone,12,121,6926,38.51667,-80.41667,0.01747040138608143
13756,2014,WV,WYOMING,54,109,54109,Hydrocodone,1,9,6926,37.61667,-81.55,0.0012994513427663876
13792,2014,WV,TAYLOR,54,91,54091,Buprenorphine,1,5,6926,39.35,-80.05,0.0007219174126479931
13801,2014,WV,TYLER,54,95,54095,Heroin,12,25,6926,39.45,-80.86667,0.0036095870632399654
13820,2014,WV,WAYNE,54,99,54099,Heroin,7,58,6926,38.15,-82.45,0.00837424198671672
13829,2014,WV,WOOD,54,107,54107,Heroin,90,291,6926,39.2,-81.50139,0.042015593416113196
13874,2015,WV,BRAXTON,54,7,54007,Buprenorphine,1,68,5345,38.71667,-80.7,0.012722170252572497
13910,2014,WV,UPSHUR,54,97,54097,Hydrocodone,2,60,6926,38.88333,-80.25056,0.008663008951775917
13921,2014,WV,WETZEL,54,103,54103,Morphine,1,92,6926,39.58333,-80.66667,0.013283280392723073
13925,2014,WV,WOOD,54,107,54107,Hydrocodone,29,291,6926,39.2,-81.50139,0.042015593416113196
13986,2014,WV,LEWIS,54,41,54041,Oxycodone,22,263,6926,38.96667,-80.51666999999999,0.03797285590528444
14014,2014,WV,MCDOWELL,54,47,54047,Hydrocodone,2,63,6926,37.36667,-81.65,0.009096159399364713
14026,2014,WV,MERCER,54,55,54055,Hydrocodone,14,315,6926,37.4,-81.11667,0.045480796996823565
14030,2014,WV,MINGO,54,59,54059,Hydrocodone,3,26,6926,37.7,-82.15,0.003753970545769564
14031,2014,WV,MINGO,54,59,54059,Morphine,1,26,6926,37.7,-82.15,0.003753970545769564
14122,2015,WV,BOONE,54,5,54005,Buprenorphine,2,46,5345,38.01667,-81.7,0.008606173994387277
14181,2015,WV,DODDRIDGE,54,17,54017,Heroin,3,18,5345,39.26667,-80.7,0.0033676333021515435
14188,2014,WV,RANDOLPH,54,83,54083,Hydrocodone,4,99,6926,38.76667,-79.83333,0.014293964770430262
14192,2014,WV,ROANE,54,87,54087,Heroin,1,48,6926,38.73333,-81.35,0.006930407161420733
14221,2014,WV,UPSHUR,54,97,54097,Fentanyl,1,60,6926,38.88333,-80.25056,0.008663008951775917
14222,2014,WV,UPSHUR,54,97,54097,Oxycodone,16,60,6926,38.88333,-80.25056,0.008663008951775917
14242,2014,WV,WETZEL,54,103,54103,Buprenorphine,2,92,6926,39.58333,-80.66667,0.013283280392723073
14243,2014,WV,WETZEL,54,103,54103,Hydrocodone,2,92,6926,39.58333,-80.66667,0.013283280392723073
14279,2015,WV,BERKELEY,54,3,54003,Oxymorphone,1,284,5345,39.45,-78.03333,0.05313376987839102
14292,2015,WV,BERKELEY,54,3,54003,Fentanyl,10,284,5345,39.45,-78.03333,0.05313376987839102
14293,2015,WV,BERKELEY,54,3,54003,Heroin,102,284,5345,39.45,-78.03333,0.05313376987839102
14325,2015,WV,CLAY,54,15,54015,Oxymorphone,1,8,5345,38.48333,-81.06667,0.0014967259120673526
14381,2015,WV,GRANT,54,23,54023,Heroin,18,36,5345,39.11667,-79.2,0.006735266604303087
14382,2015,WV,GRANT,54,23,54023,Oxycodone,2,36,5345,39.11667,-79.2,0.006735266604303087
14391,2014,WV,WYOMING,54,109,54109,Oxycodone,5,9,6926,37.61667,-81.55,0.0012994513427663876
14423,2015,WV,BERKELEY,54,3,54003,Oxycodone,7,284,5345,39.45,-78.03333,0.05313376987839102
14431,2015,WV,BRAXTON,54,7,54007,Hydrocodone,1,68,5345,38.71667,-80.7,0.012722170252572497
14444,2015,WV,CABELL,54,11,54011,Fentanyl,5,163,5345,38.43333,-82.25,0.03049579045837231
14490,2015,WV,BERKELEY,54,3,54003,Methadone,2,284,5345,39.45,-78.03333,0.05313376987839102
14497,2015,WV,BOONE,54,5,54005,Heroin,5,46,5345,38.01667,-81.7,0.008606173994387277
14498,2015,WV,BOONE,54,5,54005,Oxycodone,1,46,5345,38.01667,-81.7,0.008606173994387277
14528,2015,WV,CLAY,54,15,54015,Oxycodone,3,8,5345,38.48333,-81.06667,0.0014967259120673526
14543,2015,WV,DODDRIDGE,54,17,54017,Fentanyl,1,18,5345,39.26667,-80.7,0.0033676333021515435
14579,2015,WV,GILMER,54,21,54021,Heroin,17,72,5345,38.93333,-80.85,0.013470533208606174
14585,2015,WV,GREENBRIER,54,25,54025,Oxycodone,51,237,5345,37.95,-80.41667,0.044340505144995324
14592,2015,WV,CABELL,54,11,54011,Buprenorphine,1,163,5345,38.43333,-82.25,0.03049579045837231
14677,2015,WV,HANCOCK,54,29,54029,Hydrocodone,2,42,5345,40.50056,-80.56667,0.0078578110383536
14705,2015,WV,BERKELEY,54,3,54003,Buprenorphine,4,284,5345,39.45,-78.03333,0.05313376987839102
14706,2015,WV,BERKELEY,54,3,54003,Morphine,1,284,5345,39.45,-78.03333,0.05313376987839102
14713,2015,WV,BOONE,54,5,54005,Hydrocodone,3,46,5345,38.01667,-81.7,0.008606173994387277
14773,2015,WV,DODDRIDGE,54,17,54017,Buprenorphine,2,18,5345,39.26667,-80.7,0.0033676333021515435
14788,2015,WV,CABELL,54,11,54011,Oxycodone,53,163,5345,38.43333,-82.25,0.03049579045837231
14789,2015,WV,CABELL,54,11,54011,Oxymorphone,1,163,5345,38.43333,-82.25,0.03049579045837231
14878,2015,WV,GREENBRIER,54,25,54025,Hydromorphone,4,237,5345,37.95,-80.41667,0.044340505144995324
14885,2015,WV,HANCOCK,54,29,54029,Fentanyl,1,42,5345,40.50056,-80.56667,0.0078578110383536
14894,2015,WV,BROOKE,54,9,54009,Heroin,2,3,5345,40.28333,-80.56667,0.0005612722170252573
14906,2015,WV,CABELL,54,11,54011,Heroin,52,163,5345,38.43333,-82.25,0.03049579045837231
15026,2015,WV,GILMER,54,21,54021,Hydromorphone,1,72,5345,38.93333,-80.85,0.013470533208606174
15044,2015,WV,HAMPSHIRE,54,27,54027,Oxycodone,8,95,5345,39.33333,-78.6,0.01777362020579981
15056,2015,WV,HARRISON,54,33,54033,Hydrocodone,4,302,5345,39.28333,-80.38333,0.056501403180542566
15076,2015,WV,KANAWHA,54,39,54039,Buprenorphine,3,639,5345,38.33333,-81.56667,0.11955098222637979
15109,2015,WV,FAYETTE,54,19,54019,Buprenorphine,3,45,5345,38.05,-81.1,0.00841908325537886
15126,2015,WV,GREENBRIER,54,25,54025,Heroin,30,237,5345,37.95,-80.41667,0.044340505144995324
15139,2015,WV,HANCOCK,54,29,54029,Heroin,7,42,5345,40.50056,-80.56667,0.0078578110383536
15140,2015,WV,HANCOCK,54,29,54029,Oxycodone,1,42,5345,40.50056,-80.56667,0.0078578110383536
15145,2015,WV,HARDY,54,31,54031,Hydrocodone,1,80,5345,39.01667,-78.81667,0.014967259120673527
15150,2015,WV,HARRISON,54,33,54033,Morphine,1,302,5345,39.28333,-80.38333,0.056501403180542566
15168,2015,WV,JACKSON,54,35,54035,Fentanyl,21,69,5345,38.83333,-81.68333,0.012909260991580917
15172,2015,WV,JEFFERSON,54,37,54037,Heroin,9,29,5345,39.3,-77.85,0.0054256314312441534
15176,2015,WV,KANAWHA,54,39,54039,Heroin,152,639,5345,38.33333,-81.56667,0.11955098222637979
15177,2015,WV,KANAWHA,54,39,54039,Hydrocodone,6,639,5345,38.33333,-81.56667,0.11955098222637979
15192,2015,WV,GREENBRIER,54,25,54025,Oxymorphone,50,237,5345,37.95,-80.41667,0.044340505144995324
15224,2015,WV,JEFFERSON,54,37,54037,Oxycodone,2,29,5345,39.3,-77.85,0.0054256314312441534
15259,2015,WV,LOGAN,54,45,54045,Heroin,22,223,5345,37.83333,-81.93333,0.04172123479887745
15288,2015,WV,MCDOWELL,54,47,54047,Oxycodone,10,98,5345,37.36667,-81.65,0.01833489242282507
15289,2015,WV,MCDOWELL,54,47,54047,Oxymorphone,2,98,5345,37.36667,-81.65,0.01833489242282507
15324,2015,WV,GRANT,54,23,54023,Buprenorphine,3,36,5345,39.11667,-79.2,0.006735266604303087
15331,2015,WV,HAMPSHIRE,54,27,54027,Buprenorphine,2,95,5345,39.33333,-78.6,0.01777362020579981
15332,2015,WV,HAMPSHIRE,54,27,54027,Morphine,3,95,5345,39.33333,-78.6,0.01777362020579981
15335,2015,WV,HARDY,54,31,54031,Hydromorphone,1,80,5345,39.01667,-78.81667,0.014967259120673527
15337,2015,WV,HARRISON,54,33,54033,Heroin,138,302,5345,39.28333,-80.38333,0.056501403180542566
15338,2015,WV,HARRISON,54,33,54033,Oxycodone,14,302,5345,39.28333,-80.38333,0.056501403180542566
15361,2015,WV,KANAWHA,54,39,54039,Oxycodone,18,639,5345,38.33333,-81.56667,0.11955098222637979
15362,2015,WV,KANAWHA,54,39,54039,Oxymorphone,15,639,5345,38.33333,-81.56667,0.11955098222637979
15386,2015,WV,LOGAN,54,45,54045,Hydrocodone,5,223,5345,37.83333,-81.93333,0.04172123479887745
15405,2015,WV,GREENBRIER,54,25,54025,Buprenorphine,11,237,5345,37.95,-80.41667,0.044340505144995324
15406,2015,WV,GREENBRIER,54,25,54025,Hydrocodone,16,237,5345,37.95,-80.41667,0.044340505144995324
15419,2015,WV,HARDY,54,31,54031,Fentanyl,3,80,5345,39.01667,-78.81667,0.014967259120673527
15420,2015,WV,HARDY,54,31,54031,Heroin,41,80,5345,39.01667,-78.81667,0.014967259120673527
15425,2015,WV,HARRISON,54,33,54033,Buprenorphine,12,302,5345,39.28333,-80.38333,0.056501403180542566
15470,2015,WV,LEWIS,54,41,54041,Fentanyl,6,100,5345,38.96667,-80.51666999999999,0.018709073900841908
15471,2015,WV,LEWIS,54,41,54041,Heroin,8,100,5345,38.96667,-80.51666999999999,0.018709073900841908
15476,2015,WV,LOGAN,54,45,54045,Hydromorphone,1,223,5345,37.83333,-81.93333,0.04172123479887745
15494,2015,WV,MARSHALL,54,51,54051,Hydromorphone,1,54,5345,39.86667,-80.65,0.01010289990645463
15495,2015,WV,HARDY,54,31,54031,Buprenorphine,2,80,5345,39.01667,-78.81667,0.014967259120673527
15497,2015,WV,HARRISON,54,33,54033,Hydromorphone,3,302,5345,39.28333,-80.38333,0.056501403180542566
15514,2015,WV,JACKSON,54,35,54035,Heroin,32,69,5345,38.83333,-81.68333,0.012909260991580917
15520,2015,WV,KANAWHA,54,39,54039,Morphine,2,639,5345,38.33333,-81.56667,0.11955098222637979
15546,2015,WV,LEWIS,54,41,54041,Oxycodone,9,100,5345,38.96667,-80.51666999999999,0.018709073900841908
15551,2015,WV,LOGAN,54,45,54045,Buprenorphine,14,223,5345,37.83333,-81.93333,0.04172123479887745
15566,2015,WV,MARSHALL,54,51,54051,Buprenorphine,25,54,5345,39.86667,-80.65,0.01010289990645463
15570,2015,WV,MCDOWELL,54,47,54047,Morphine,2,98,5345,37.36667,-81.65,0.01833489242282507
15574,2015,WV,MERCER,54,55,54055,Fentanyl,1,396,5345,37.4,-81.11667,0.07408793264733396
15575,2015,WV,MERCER,54,55,54055,Hydromorphone,108,396,5345,37.4,-81.11667,0.07408793264733396
15576,2015,WV,MERCER,54,55,54055,Morphine,4,396,5345,37.4,-81.11667,0.07408793264733396
15580,2015,WV,MINERAL,54,57,54057,Heroin,6,19,5345,39.4,-78.95,0.0035547240411599626
15610,2015,WV,JACKSON,54,35,54035,Buprenorphine,3,69,5345,38.83333,-81.68333,0.012909260991580917
15611,2015,WV,JACKSON,54,35,54035,Hydrocodone,1,69,5345,38.83333,-81.68333,0.012909260991580917
15614,2015,WV,KANAWHA,54,39,54039,Fentanyl,30,639,5345,38.33333,-81.56667,0.11955098222637979
15625,2015,WV,LEWIS,54,41,54041,Buprenorphine,22,100,5345,38.96667,-80.51666999999999,0.018709073900841908
15626,2015,WV,LEWIS,54,41,54041,Codeine,1,100,5345,38.96667,-80.51666999999999,0.018709073900841908
15631,2015,WV,LOGAN,54,45,54045,Oxycodone,28,223,5345,37.83333,-81.93333,0.04172123479887745
15632,2015,WV,LOGAN,54,45,54045,Oxymorphone,2,223,5345,37.83333,-81.93333,0.04172123479887745
15646,2015,WV,MARION,54,49,54049,Heroin,64,233,5345,39.51667,-80.25,0.043592142188961645
15648,2015,WV,MARSHALL,54,51,54051,Hydrocodone,3,54,5345,39.86667,-80.65,0.01010289990645463
15665,2015,WV,MERCER,54,55,54055,Methadone,1,396,5345,37.4,-81.11667,0.07408793264733396
15666,2015,WV,MINERAL,54,57,54057,Hydrocodone,1,19,5345,39.4,-78.95,0.0035547240411599626
15678,2015,WV,NICHOLAS,54,67,54067,Buprenorphine,17,280,5345,38.3,-80.83333,0.052385406922357346
15679,2015,WV,NICHOLAS,54,67,54067,Hydrocodone,15,280,5345,38.3,-80.83333,0.052385406922357346
15680,2015,WV,NICHOLAS,54,67,54067,Morphine,7,280,5345,38.3,-80.83333,0.052385406922357346
15693,2015,WV,OHIO,54,69,54069,Fentanyl,3,124,5345,40.1,-80.61667,0.023199251637043967
15694,2015,WV,OHIO,54,69,54069,Oxycodone,11,124,5345,40.1,-80.61667,0.023199251637043967
15705,2015,WV,LOGAN,54,45,54045,Morphine,16,223,5345,37.83333,-81.93333,0.04172123479887745
15724,2015,WV,MARION,54,49,54049,Fentanyl,3,233,5345,39.51667,-80.25,0.043592142188961645
15725,2015,WV,MARION,54,49,54049,Hydrocodone,2,233,5345,39.51667,-80.25,0.043592142188961645
15745,2015,WV,MINERAL,54,57,54057,Oxycodone,3,19,5345,39.4,-78.95,0.0035547240411599626
15746,2015,WV,MONONGALIA,54,61,54061,Oxycodone,10,10,5345,39.65,-80.03333,0.0018709073900841909
15765,2015,WV,NICHOLAS,54,67,54067,Fentanyl,3,280,5345,38.3,-80.83333,0.052385406922357346
15766,2015,WV,NICHOLAS,54,67,54067,Hydromorphone,1,280,5345,38.3,-80.83333,0.052385406922357346
15771,2015,WV,OHIO,54,69,54069,Buprenorphine,8,124,5345,40.1,-80.61667,0.023199251637043967
15789,2015,WV,PRESTON,54,77,54077,Methadone,3,39,5345,39.46667,-79.66667,0.007296538821328344
15795,2015,WV,PUTNAM,54,79,54079,Heroin,1,50,5345,38.51667,-81.88333,0.009354536950420954
15796,2015,WV,PUTNAM,54,79,54079,Oxycodone,2,50,5345,38.51667,-81.88333,0.009354536950420954
15800,2015,WV,LEWIS,54,41,54041,Hydrocodone,5,100,5345,38.96667,-80.51666999999999,0.018709073900841908
15824,2015,WV,MARSHALL,54,51,54051,Heroin,4,54,5345,39.86667,-80.65,0.01010289990645463
15825,2015,WV,MARSHALL,54,51,54051,Oxycodone,1,54,5345,39.86667,-80.65,0.01010289990645463
15829,2015,WV,MASON,54,53,54053,Buprenorphine,1,90,5345,38.8,-82.00028,0.01683816651075772
15839,2015,WV,MERCER,54,55,54055,Oxycodone,77,396,5345,37.4,-81.11667,0.07408793264733396
15840,2015,WV,MERCER,54,55,54055,Oxymorphone,17,396,5345,37.4,-81.11667,0.07408793264733396
15844,2015,WV,MINGO,54,59,54059,Heroin,1,30,5345,37.7,-82.15,0.005612722170252572
15862,2015,WV,NICHOLAS,54,67,54067,Heroin,44,280,5345,38.3,-80.83333,0.052385406922357346
15870,2015,WV,OHIO,54,69,54069,Hydrocodone,1,124,5345,40.1,-80.61667,0.023199251637043967
15871,2015,WV,OHIO,54,69,54069,Hydromorphone,1,124,5345,40.1,-80.61667,0.023199251637043967
15872,2015,WV,OHIO,54,69,54069,Methorphan,1,124,5345,40.1,-80.61667,0.023199251637043967
15890,2015,WV,RALEIGH,54,81,54081,Buprenorphine,7,439,5345,37.75,-81.25,0.08213283442469597
15891,2015,WV,RALEIGH,54,81,54081,Morphine,4,439,5345,37.75,-81.25,0.08213283442469597
15909,2015,WV,HAMPSHIRE,54,27,54027,Heroin,32,95,5345,39.33333,-78.6,0.01777362020579981
15913,2015,WV,HARDY,54,31,54031,Oxymorphone,1,80,5345,39.01667,-78.81667,0.014967259120673527
15936,2015,WV,KANAWHA,54,39,54039,Hydromorphone,5,639,5345,38.33333,-81.56667,0.11955098222637979
15986,2015,WV,MASON,54,53,54053,Heroin,36,90,5345,38.8,-82.00028,0.01683816651075772
16006,2015,WV,MARION,54,49,54049,Oxycodone,58,233,5345,39.51667,-80.25,0.043592142188961645
16103,2015,WV,MERCER,54,55,54055,Heroin,38,396,5345,37.4,-81.11667,0.07408793264733396
16106,2015,WV,MINGO,54,59,54059,Oxycodone,1,30,5345,37.7,-82.15,0.005612722170252572
16125,2015,WV,NICHOLAS,54,67,54067,Oxycodone,69,280,5345,38.3,-80.83333,0.052385406922357346
16126,2015,WV,NICHOLAS,54,67,54067,Oxymorphone,1,280,5345,38.3,-80.83333,0.052385406922357346
16132,2015,WV,OHIO,54,69,54069,Heroin,24,124,5345,40.1,-80.61667,0.023199251637043967
16227,2015,WV,POCAHONTAS,54,75,54075,Oxycodone,4,59,5345,38.31667,-80.03333,0.011038353601496726
16231,2015,WV,PRESTON,54,77,54077,Hydrocodone,1,39,5345,39.46667,-79.66667,0.007296538821328344
16265,2015,WV,SUMMERS,54,89,54089,Oxycodone,1,9,5345,37.65,-80.86667,0.0016838166510757717
16286,2015,WV,WEBSTER,54,101,54101,Buprenorphine,3,42,5345,38.51667,-80.41667,0.0078578110383536
16291,2015,WV,WETZEL,54,103,54103,Heroin,18,70,5345,39.58333,-80.66667,0.013096351730589336
16298,2015,WV,WOOD,54,107,54107,Oxycodone,11,430,5345,39.2,-81.50139,0.08044901777362021
16338,2015,WV,POCAHONTAS,54,75,54075,Buprenorphine,12,59,5345,38.31667,-80.03333,0.011038353601496726
16344,2015,WV,PRESTON,54,77,54077,Buprenorphine,8,39,5345,39.46667,-79.66667,0.007296538821328344
16349,2015,WV,RALEIGH,54,81,54081,Fentanyl,17,439,5345,37.75,-81.25,0.08213283442469597
16350,2015,WV,RALEIGH,54,81,54081,Oxycodone,103,439,5345,37.75,-81.25,0.08213283442469597
16351,2015,WV,RALEIGH,54,81,54081,Oxymorphone,7,439,5345,37.75,-81.25,0.08213283442469597
16390,2015,WV,TYLER,54,95,54095,Buprenorphine,1,12,5345,39.45,-80.86667,0.002245088868101029
16394,2015,WV,UPSHUR,54,97,54097,Oxycodone,8,67,5345,38.88333,-80.25056,0.012535079513564078
16409,2015,WV,PLEASANTS,54,73,54073,Buprenorphine,1,26,5345,39.36667,-81.15,0.0048643592142188965
16410,2015,WV,PLEASANTS,54,73,54073,Hydrocodone,3,26,5345,39.36667,-81.15,0.0048643592142188965
16424,2015,WV,ROANE,54,87,54087,Buprenorphine,1,42,5345,38.73333,-81.35,0.0078578110383536
16425,2015,WV,ROANE,54,87,54087,Hydrocodone,1,42,5345,38.73333,-81.35,0.0078578110383536
16470,2015,WV,WAYNE,54,99,54099,Oxycodone,10,50,5345,38.15,-82.45,0.009354536950420954
16482,2015,WV,WOOD,54,107,54107,Methadone,1,430,5345,39.2,-81.50139,0.08044901777362021
16500,2015,WV,RALEIGH,54,81,54081,Hydrocodone,11,439,5345,37.75,-81.25,0.08213283442469597
16502,2015,WV,ROANE,54,87,54087,Oxycodone,1,42,5345,38.73333,-81.35,0.0078578110383536
16565,2015,WV,WEBSTER,54,101,54101,Morphine,1,42,5345,38.51667,-80.41667,0.0078578110383536
16573,2015,WV,WOOD,54,107,54107,Heroin,125,430,5345,39.2,-81.50139,0.08044901777362021
16633,2015,WV,WAYNE,54,99,54099,Heroin,16,50,5345,38.15,-82.45,0.009354536950420954
16692,2016,WV,BRAXTON,54,7,54007,Buprenorphine,4,104,5405,38.71667,-80.7,0.019241443108233117
16693,2016,WV,BRAXTON,54,7,54007,Hydrocodone,2,104,5405,38.71667,-80.7,0.019241443108233117
16694,2016,WV,BRAXTON,54,7,54007,Morphine,2,104,5405,38.71667,-80.7,0.019241443108233117
16740,2015,WV,WEBSTER,54,101,54101,Oxycodone,2,42,5345,38.51667,-80.41667,0.0078578110383536
16742,2015,WV,WETZEL,54,103,54103,Buprenorphine,1,70,5345,39.58333,-80.66667,0.013096351730589336
16791,2016,WV,BOONE,54,5,54005,Buprenorphine,1,20,5405,38.01667,-81.7,0.0037002775208140612
16798,2016,WV,BRAXTON,54,7,54007,Oxycodone,8,104,5405,38.71667,-80.7,0.019241443108233117
16814,2015,WV,WEBSTER,54,101,54101,Hydrocodone,3,42,5345,38.51667,-80.41667,0.0078578110383536
16817,2015,WV,WETZEL,54,103,54103,Hydrocodone,3,70,5345,39.58333,-80.66667,0.013096351730589336
16820,2015,WV,WOOD,54,107,54107,Buprenorphine,8,430,5345,39.2,-81.50139,0.08044901777362021
16862,2016,WV,BERKELEY,54,3,54003,Heroin,141,301,5405,39.45,-78.03333,0.05568917668825162
16863,2016,WV,BERKELEY,54,3,54003,Oxycodone,7,301,5405,39.45,-78.03333,0.05568917668825162
16903,2015,WV,MCDOWELL,54,47,54047,Buprenorphine,6,98,5345,37.36667,-81.65,0.01833489242282507
16904,2015,WV,MCDOWELL,54,47,54047,Hydrocodone,12,98,5345,37.36667,-81.65,0.01833489242282507
16913,2015,WV,MERCER,54,55,54055,Buprenorphine,74,396,5345,37.4,-81.11667,0.07408793264733396
16914,2015,WV,MERCER,54,55,54055,Hydrocodone,13,396,5345,37.4,-81.11667,0.07408793264733396
16920,2015,WV,MINGO,54,59,54059,Buprenorphine,2,30,5345,37.7,-82.15,0.005612722170252572
16933,2015,WV,MORGAN,54,65,54065,Heroin,14,40,5345,39.56667,-78.25028,0.007483629560336763
16963,2015,WV,POCAHONTAS,54,75,54075,Hydrocodone,2,59,5345,38.31667,-80.03333,0.011038353601496726
16982,2015,WV,PUTNAM,54,79,54079,Hydrocodone,1,50,5345,38.51667,-81.88333,0.009354536950420954
16983,2015,WV,RALEIGH,54,81,54081,Heroin,74,439,5345,37.75,-81.25,0.08213283442469597
17020,2015,WV,WOOD,54,107,54107,Fentanyl,2,430,5345,39.2,-81.50139,0.08044901777362021
17052,2016,WV,BARBOUR,54,1,54001,Methadone,2,4,5405,39.13333,-80.03333,0.0007400555041628122
17068,2016,WV,BRAXTON,54,7,54007,Heroin,10,104,5405,38.71667,-80.7,0.019241443108233117
17080,2016,WV,CABELL,54,11,54011,Heroin,135,226,5405,38.43333,-82.25,0.04181313598519889
17081,2016,WV,CALHOUN,54,13,54013,Buprenorphine,2,18,5405,38.83333,-81.11667,0.0033302497687326548
17124,2016,WV,BERKELEY,54,3,54003,Buprenorphine,7,301,5405,39.45,-78.03333,0.05568917668825162
17217,2016,WV,BERKELEY,54,3,54003,Fentanyl,19,301,5405,39.45,-78.03333,0.05568917668825162
17219,2016,WV,BERKELEY,54,3,54003,Hydromorphone,1,301,5405,39.45,-78.03333,0.05568917668825162
17289,2016,WV,DODDRIDGE,54,17,54017,Buprenorphine,4,31,5405,39.26667,-80.7,0.005735430157261794
17313,2015,WV,SUMMERS,54,89,54089,Hydromorphone,7,9,5345,37.65,-80.86667,0.0016838166510757717
17336,2015,WV,WAYNE,54,99,54099,Buprenorphine,3,50,5345,38.15,-82.45,0.009354536950420954
17342,2015,WV,WETZEL,54,103,54103,Oxycodone,6,70,5345,39.58333,-80.66667,0.013096351730589336
17346,2015,WV,WOOD,54,107,54107,Hydrocodone,21,430,5345,39.2,-81.50139,0.08044901777362021
17442,2016,WV,BERKELEY,54,3,54003,Methorphan,3,301,5405,39.45,-78.03333,0.05568917668825162
17449,2016,WV,BOONE,54,5,54005,Heroin,1,20,5405,38.01667,-81.7,0.0037002775208140612
17468,2016,WV,CABELL,54,11,54011,Fentanyl,12,226,5405,38.43333,-82.25,0.04181313598519889
17662,2016,WV,GRANT,54,23,54023,Buprenorphine,5,16,5405,39.11667,-79.2,0.0029602220166512487
17685,2016,WV,HARRISON,54,33,54033,Heroin,265,478,5405,39.28333,-80.38333,0.08843663274745606
17686,2016,WV,HARRISON,54,33,54033,Oxycodone,6,478,5405,39.28333,-80.38333,0.08843663274745606
17715,2016,WV,CABELL,54,11,54011,Oxycodone,2,226,5405,38.43333,-82.25,0.04181313598519889
17716,2016,WV,CABELL,54,11,54011,Oxymorphone,5,226,5405,38.43333,-82.25,0.04181313598519889
17796,2016,WV,GREENBRIER,54,25,54025,Morphine,2,137,5405,37.95,-80.41667,0.025346901017576317
17892,2016,WV,GREENBRIER,54,25,54025,Buprenorphine,1,137,5405,37.95,-80.41667,0.025346901017576317
17960,2016,WV,GREENBRIER,54,25,54025,Heroin,6,137,5405,37.95,-80.41667,0.025346901017576317
17961,2016,WV,GREENBRIER,54,25,54025,Methadone,2,137,5405,37.95,-80.41667,0.025346901017576317
17973,2016,WV,HANCOCK,54,29,54029,Oxycodone,1,94,5405,40.50056,-80.56667,0.017391304347826087
17974,2016,WV,HANCOCK,54,29,54029,Oxymorphone,2,94,5405,40.50056,-80.56667,0.017391304347826087
17994,2016,WV,JACKSON,54,35,54035,Buprenorphine,3,76,5405,38.83333,-81.68333,0.014061054579093433
18004,2016,WV,CABELL,54,11,54011,Hydrocodone,10,226,5405,38.43333,-82.25,0.04181313598519889
18074,2016,WV,FAYETTE,54,19,54019,Codeine,3,23,5405,38.05,-81.1,0.00425531914893617
18075,2016,WV,FAYETTE,54,19,54019,Morphine,1,23,5405,38.05,-81.1,0.00425531914893617
18127,2016,WV,GILMER,54,21,54021,Heroin,12,45,5405,38.93333,-80.85,0.008325624421831638
18133,2016,WV,GRANT,54,23,54023,Fentanyl,2,16,5405,39.11667,-79.2,0.0029602220166512487
18139,2016,WV,GREENBRIER,54,25,54025,Oxycodone,16,137,5405,37.95,-80.41667,0.025346901017576317
18140,2016,WV,GREENBRIER,54,25,54025,Oxymorphone,23,137,5405,37.95,-80.41667,0.025346901017576317
18152,2016,WV,HAMPSHIRE,54,27,54027,Fentanyl,1,22,5405,39.33333,-78.6,0.004070305272895467
18153,2016,WV,HAMPSHIRE,54,27,54027,Hydromorphone,1,22,5405,39.33333,-78.6,0.004070305272895467
18183,2016,WV,JEFFERSON,54,37,54037,Heroin,24,91,5405,39.3,-77.85,0.016836262719703978
18185,2016,WV,KANAWHA,54,39,54039,Codeine,1,695,5405,38.33333,-81.56667,0.12858464384828863
18202,2016,WV,GREENBRIER,54,25,54025,Hydromorphone,1,137,5405,37.95,-80.41667,0.025346901017576317
18218,2016,WV,HANCOCK,54,29,54029,Buprenorphine,8,94,5405,40.50056,-80.56667,0.017391304347826087
18234,2016,WV,JACKSON,54,35,54035,Heroin,4,76,5405,38.83333,-81.68333,0.014061054579093433
18240,2016,WV,JEFFERSON,54,37,54037,Morphine,1,91,5405,39.3,-77.85,0.016836262719703978
18245,2016,WV,KANAWHA,54,39,54039,Buprenorphine,2,695,5405,38.33333,-81.56667,0.12858464384828863
18296,2016,WV,MARSHALL,54,51,54051,Buprenorphine,28,112,5405,39.86667,-80.65,0.02072155411655874
18316,2016,WV,HANCOCK,54,29,54029,Fentanyl,6,94,5405,40.50056,-80.56667,0.017391304347826087
18317,2016,WV,HANCOCK,54,29,54029,Heroin,29,94,5405,40.50056,-80.56667,0.017391304347826087
18325,2016,WV,HARDY,54,31,54031,Buprenorphine,1,26,5405,39.01667,-78.81667,0.004810360777058279
18346,2016,WV,JACKSON,54,35,54035,Hydrocodone,2,76,5405,38.83333,-81.68333,0.014061054579093433
18347,2016,WV,JEFFERSON,54,37,54037,Fentanyl,5,91,5405,39.3,-77.85,0.016836262719703978
18349,2016,WV,KANAWHA,54,39,54039,Fentanyl,56,695,5405,38.33333,-81.56667,0.12858464384828863
18350,2016,WV,KANAWHA,54,39,54039,Heroin,168,695,5405,38.33333,-81.56667,0.12858464384828863
18351,2016,WV,KANAWHA,54,39,54039,Methadone,5,695,5405,38.33333,-81.56667,0.12858464384828863
18366,2016,WV,LEWIS,54,41,54041,Buprenorphine,1,38,5405,38.96667,-80.51666999999999,0.007030527289546716
18367,2016,WV,LEWIS,54,41,54041,Hydrocodone,2,38,5405,38.96667,-80.51666999999999,0.007030527289546716
18373,2016,WV,LOGAN,54,45,54045,Oxycodone,43,312,5405,37.83333,-81.93333,0.057724329324699356
18374,2016,WV,LOGAN,54,45,54045,Oxymorphone,22,312,5405,37.83333,-81.93333,0.057724329324699356
18398,2016,WV,MARION,54,49,54049,Heroin,32,205,5405,39.51667,-80.25,0.037927844588344126
18449,2016,WV,FAYETTE,54,19,54019,Fentanyl,1,23,5405,38.05,-81.1,0.00425531914893617
18450,2016,WV,FAYETTE,54,19,54019,Heroin,1,23,5405,38.05,-81.1,0.00425531914893617
18467,2016,WV,GREENBRIER,54,25,54025,Hydrocodone,1,137,5405,37.95,-80.41667,0.025346901017576317
18479,2016,WV,HARDY,54,31,54031,Oxycodone,2,26,5405,39.01667,-78.81667,0.004810360777058279
18483,2016,WV,HARRISON,54,33,54033,Hydrocodone,4,478,5405,39.28333,-80.38333,0.08843663274745606
18502,2016,WV,HAMPSHIRE,54,27,54027,Heroin,6,22,5405,39.33333,-78.6,0.004070305272895467
18509,2016,WV,HARRISON,54,33,54033,Fentanyl,17,478,5405,39.28333,-80.38333,0.08843663274745606
18525,2016,WV,JACKSON,54,35,54035,Oxycodone,6,76,5405,38.83333,-81.68333,0.014061054579093433
18526,2016,WV,JACKSON,54,35,54035,Oxymorphone,1,76,5405,38.83333,-81.68333,0.014061054579093433
18555,2016,WV,LEWIS,54,41,54041,Oxycodone,1,38,5405,38.96667,-80.51666999999999,0.007030527289546716
18558,2016,WV,LOGAN,54,45,54045,Buprenorphine,37,312,5405,37.83333,-81.93333,0.057724329324699356
18559,2016,WV,LOGAN,54,45,54045,Morphine,7,312,5405,37.83333,-81.93333,0.057724329324699356
18580,2016,WV,MARION,54,49,54049,Fentanyl,4,205,5405,39.51667,-80.25,0.037927844588344126
18589,2016,WV,MCDOWELL,54,47,54047,Buprenorphine,5,71,5405,37.36667,-81.65,0.013135985198889916
18594,2016,WV,MERCER,54,55,54055,Fentanyl,4,404,5405,37.4,-81.11667,0.07474560592044403
18599,2016,WV,MONONGALIA,54,61,54061,Oxycodone,13,20,5405,39.65,-80.03333,0.0037002775208140612
18601,2016,WV,KANAWHA,54,39,54039,Hydrocodone,12,695,5405,38.33333,-81.56667,0.12858464384828863
18646,2016,WV,MCDOWELL,54,47,54047,Heroin,1,71,5405,37.36667,-81.65,0.013135985198889916
18657,2016,WV,MERCER,54,55,54055,Heroin,17,404,5405,37.4,-81.11667,0.07474560592044403
18666,2016,WV,MONROE,54,63,54063,Oxycodone,8,20,5405,37.56667,-80.55,0.0037002775208140612
18680,2016,WV,NICHOLAS,54,67,54067,Oxycodone,46,294,5405,38.3,-80.83333,0.054394079555966694
18681,2016,WV,NICHOLAS,54,67,54067,Oxymorphone,1,294,5405,38.3,-80.83333,0.054394079555966694
18689,2016,WV,OHIO,54,69,54069,Fentanyl,7,88,5405,40.1,-80.61667,0.01628122109158187
18704,2016,WV,HARDY,54,31,54031,Heroin,5,26,5405,39.01667,-78.81667,0.004810360777058279
18710,2016,WV,HARRISON,54,33,54033,Buprenorphine,11,478,5405,39.28333,-80.38333,0.08843663274745606
18732,2016,WV,JACKSON,54,35,54035,Hydromorphone,1,76,5405,38.83333,-81.68333,0.014061054579093433
18737,2016,WV,KANAWHA,54,39,54039,Dextropropoxyphene,3,695,5405,38.33333,-81.56667,0.12858464384828863
18777,2016,WV,MASON,54,53,54053,Fentanyl,2,24,5405,38.8,-82.00028,0.004440333024976873
18778,2016,WV,MASON,54,53,54053,Heroin,3,24,5405,38.8,-82.00028,0.004440333024976873
18800,2016,WV,MORGAN,54,65,54065,Oxymorphone,1,38,5405,39.56667,-78.25028,0.007030527289546716
18813,2016,WV,JEFFERSON,54,37,54037,Oxycodone,6,91,5405,39.3,-77.85,0.016836262719703978
18817,2016,WV,KANAWHA,54,39,54039,Oxycodone,42,695,5405,38.33333,-81.56667,0.12858464384828863
18818,2016,WV,KANAWHA,54,39,54039,Oxymorphone,12,695,5405,38.33333,-81.56667,0.12858464384828863
18854,2016,WV,LOGAN,54,45,54045,Fentanyl,5,312,5405,37.83333,-81.93333,0.057724329324699356
18855,2016,WV,LOGAN,54,45,54045,Heroin,25,312,5405,37.83333,-81.93333,0.057724329324699356
18881,2016,WV,MARION,54,49,54049,Oxycodone,35,205,5405,39.51667,-80.25,0.037927844588344126
18894,2016,WV,MERCER,54,55,54055,Hydromorphone,126,404,5405,37.4,-81.11667,0.07474560592044403
18916,2016,WV,LOGAN,54,45,54045,Hydrocodone,11,312,5405,37.83333,-81.93333,0.057724329324699356
18941,2016,WV,MARION,54,49,54049,Buprenorphine,4,205,5405,39.51667,-80.25,0.037927844588344126
18943,2016,WV,MARSHALL,54,51,54051,Hydrocodone,2,112,5405,39.86667,-80.65,0.02072155411655874
18944,2016,WV,MARSHALL,54,51,54051,Oxycodone,11,112,5405,39.86667,-80.65,0.02072155411655874
18950,2016,WV,MCDOWELL,54,47,54047,Oxycodone,3,71,5405,37.36667,-81.65,0.013135985198889916
18951,2016,WV,MCDOWELL,54,47,54047,Oxymorphone,2,71,5405,37.36667,-81.65,0.013135985198889916
18962,2016,WV,MERCER,54,55,54055,Oxycodone,32,404,5405,37.4,-81.11667,0.07474560592044403
18963,2016,WV,MERCER,54,55,54055,Oxymorphone,27,404,5405,37.4,-81.11667,0.07474560592044403
18967,2016,WV,MINERAL,54,57,54057,Fentanyl,2,26,5405,39.4,-78.95,0.004810360777058279
18979,2016,WV,MORGAN,54,65,54065,Buprenorphine,1,38,5405,39.56667,-78.25028,0.007030527289546716
18987,2016,WV,NICHOLAS,54,67,54067,Heroin,38,294,5405,38.3,-80.83333,0.054394079555966694
19023,2016,WV,OHIO,54,69,54069,Heroin,7,88,5405,40.1,-80.61667,0.01628122109158187
19055,2016,WV,RALEIGH,54,81,54081,Hydromorphone,7,420,5405,37.75,-81.25,0.07770582793709528
19100,2016,WV,MARSHALL,54,51,54051,Heroin,1,112,5405,39.86667,-80.65,0.02072155411655874
19125,2016,WV,MONROE,54,63,54063,Methadone,1,20,5405,37.56667,-80.55,0.0037002775208140612
19140,2016,WV,NICHOLAS,54,67,54067,Buprenorphine,39,294,5405,38.3,-80.83333,0.054394079555966694
19141,2016,WV,NICHOLAS,54,67,54067,Hydrocodone,11,294,5405,38.3,-80.83333,0.054394079555966694
19153,2016,WV,OHIO,54,69,54069,Oxycodone,37,88,5405,40.1,-80.61667,0.01628122109158187
19191,2016,WV,RITCHIE,54,85,54085,Buprenorphine,3,8,5405,39.16667,-81.08333,0.0014801110083256244
19192,2016,WV,ROANE,54,87,54087,Buprenorphine,3,10,5405,38.73333,-81.35,0.0018501387604070306
19193,2016,WV,ROANE,54,87,54087,Hydrocodone,1,10,5405,38.73333,-81.35,0.0018501387604070306
19219,2016,WV,OHIO,54,69,54069,Buprenorphine,4,88,5405,40.1,-80.61667,0.01628122109158187
19239,2016,WV,POCAHONTAS,54,75,54075,Oxycodone,1,35,5405,38.31667,-80.03333,0.0064754856614246065
19255,2016,WV,PUTNAM,54,79,54079,Hydrocodone,1,25,5405,38.51667,-81.88333,0.004625346901017576
19256,2016,WV,RANDOLPH,54,83,54083,Codeine,1,117,5405,38.76667,-79.83333,0.021646623496762257
19257,2016,WV,RANDOLPH,54,83,54083,Hydrocodone,6,117,5405,38.76667,-79.83333,0.021646623496762257
19294,2016,WV,SUMMERS,54,89,54089,Hydromorphone,2,4,5405,37.65,-80.86667,0.0007400555041628122
19309,2016,WV,OHIO,54,69,54069,Hydrocodone,1,88,5405,40.1,-80.61667,0.01628122109158187
19324,2016,WV,POCAHONTAS,54,75,54075,Buprenorphine,7,35,5405,38.31667,-80.03333,0.0064754856614246065
19325,2016,WV,POCAHONTAS,54,75,54075,Hydrocodone,2,35,5405,38.31667,-80.03333,0.0064754856614246065
19341,2016,WV,RALEIGH,54,81,54081,Oxycodone,123,420,5405,37.75,-81.25,0.07770582793709528
19342,2016,WV,RALEIGH,54,81,54081,Oxymorphone,6,420,5405,37.75,-81.25,0.07770582793709528
19343,2016,WV,RANDOLPH,54,83,54083,Fentanyl,1,117,5405,38.76667,-79.83333,0.021646623496762257
19344,2016,WV,RANDOLPH,54,83,54083,Heroin,18,117,5405,38.76667,-79.83333,0.021646623496762257
19396,2016,WV,MCDOWELL,54,47,54047,Fentanyl,1,71,5405,37.36667,-81.65,0.013135985198889916
19406,2016,WV,MERCER,54,55,54055,Buprenorphine,12,404,5405,37.4,-81.11667,0.07474560592044403
19407,2016,WV,MERCER,54,55,54055,Morphine,3,404,5405,37.4,-81.11667,0.07474560592044403
19413,2016,WV,MINERAL,54,57,54057,Heroin,13,26,5405,39.4,-78.95,0.004810360777058279
19425,2016,WV,MORGAN,54,65,54065,Fentanyl,1,38,5405,39.56667,-78.25028,0.007030527289546716
19434,2016,WV,NICHOLAS,54,67,54067,Fentanyl,13,294,5405,38.3,-80.83333,0.054394079555966694
19435,2016,WV,NICHOLAS,54,67,54067,Morphine,1,294,5405,38.3,-80.83333,0.054394079555966694
19473,2016,WV,PUTNAM,54,79,54079,Heroin,2,25,5405,38.51667,-81.88333,0.004625346901017576
19474,2016,WV,RALEIGH,54,81,54081,Codeine,2,420,5405,37.75,-81.25,0.07770582793709528
19475,2016,WV,RALEIGH,54,81,54081,Hydrocodone,18,420,5405,37.75,-81.25,0.07770582793709528
19476,2016,WV,RANDOLPH,54,83,54083,Oxycodone,6,117,5405,38.76667,-79.83333,0.021646623496762257
19521,2016,WV,RALEIGH,54,81,54081,Buprenorphine,7,420,5405,37.75,-81.25,0.07770582793709528
19566,2016,WV,UPSHUR,54,97,54097,Hydrocodone,1,61,5405,38.88333,-80.25056,0.011285846438482886
19583,2016,WV,WEBSTER,54,101,54101,Hydrocodone,4,59,5405,38.51667,-80.41667,0.01091581868640148
19584,2016,WV,WEBSTER,54,101,54101,Oxycodone,1,59,5405,38.51667,-80.41667,0.01091581868640148
19608,2016,WV,JEFFERSON,54,37,54037,Methadone,5,91,5405,39.3,-77.85,0.016836262719703978
19670,2016,WV,MCDOWELL,54,47,54047,Hydrocodone,1,71,5405,37.36667,-81.65,0.013135985198889916
19680,2016,WV,MERCER,54,55,54055,Hydrocodone,5,404,5405,37.4,-81.11667,0.07474560592044403
19683,2016,WV,MINGO,54,59,54059,Hydrocodone,1,13,5405,37.7,-82.15,0.0024051803885291397
19732,2016,WV,WAYNE,54,99,54099,Heroin,6,49,5405,38.15,-82.45,0.00906567992599445
19785,2017,WV,BRAXTON,54,7,54007,Buprenorphine,2,79,3672,38.71667,-80.7,0.021514161220043574
19786,2017,WV,BRAXTON,54,7,54007,Hydrocodone,1,79,3672,38.71667,-80.7,0.021514161220043574
19811,2016,WV,UPSHUR,54,97,54097,Oxycodone,8,61,5405,38.88333,-80.25056,0.011285846438482886
19822,2016,WV,WEBSTER,54,101,54101,Buprenorphine,14,59,5405,38.51667,-80.41667,0.01091581868640148
19831,2016,WV,WOOD,54,107,54107,Heroin,137,483,5405,39.2,-81.50139,0.08936170212765958
19896,2016,WV,MORGAN,54,65,54065,Heroin,17,38,5405,39.56667,-78.25028,0.007030527289546716
19897,2016,WV,MORGAN,54,65,54065,Methadone,1,38,5405,39.56667,-78.25028,0.007030527289546716
19941,2016,WV,PUTNAM,54,79,54079,Fentanyl,1,25,5405,38.51667,-81.88333,0.004625346901017576
19943,2016,WV,RALEIGH,54,81,54081,Fentanyl,13,420,5405,37.75,-81.25,0.07770582793709528
19944,2016,WV,RALEIGH,54,81,54081,Heroin,43,420,5405,37.75,-81.25,0.07770582793709528
19945,2016,WV,RALEIGH,54,81,54081,Methadone,1,420,5405,37.75,-81.25,0.07770582793709528
20012,2016,WV,WETZEL,54,103,54103,Heroin,1,7,5405,39.58333,-80.66667,0.0012950971322849213
20016,2016,WV,WOOD,54,107,54107,Buprenorphine,7,483,5405,39.2,-81.50139,0.08936170212765958
20017,2016,WV,WOOD,54,107,54107,Hydrocodone,11,483,5405,39.2,-81.50139,0.08936170212765958
20020,2016,WV,WYOMING,54,109,54109,Hydrocodone,1,2,5405,37.61667,-81.55,0.0003700277520814061
20045,2017,WV,BARBOUR,54,1,54001,Hydrocodone,2,17,3672,39.13333,-80.03333,0.004629629629629629
20059,2017,WV,BERKELEY,54,3,54003,Oxycodone,7,205,3672,39.45,-78.03333,0.05582788671023965
20140,2016,WV,UPSHUR,54,97,54097,Buprenorphine,3,61,5405,38.88333,-80.25056,0.011285846438482886
20157,2016,WV,WOOD,54,107,54107,Methadone,1,483,5405,39.2,-81.50139,0.08936170212765958
20208,2016,WV,RALEIGH,54,81,54081,Morphine,2,420,5405,37.75,-81.25,0.07770582793709528
20209,2016,WV,RANDOLPH,54,83,54083,Buprenorphine,10,117,5405,38.76667,-79.83333,0.021646623496762257
20286,2016,WV,WETZEL,54,103,54103,Buprenorphine,1,7,5405,39.58333,-80.66667,0.0012950971322849213
20291,2016,WV,WIRT,54,105,54105,Oxycodone,1,4,5405,39.03333,-81.35,0.0007400555041628122
20293,2016,WV,WOOD,54,107,54107,Fentanyl,18,483,5405,39.2,-81.50139,0.08936170212765958
20338,2017,WV,BERKELEY,54,3,54003,Heroin,73,205,3672,39.45,-78.03333,0.05582788671023965
20365,2017,WV,CABELL,54,11,54011,Oxycodone,20,159,3672,38.43333,-82.25,0.04330065359477124
20412,2016,WV,WAYNE,54,99,54099,Buprenorphine,15,49,5405,38.15,-82.45,0.00906567992599445
20413,2016,WV,WAYNE,54,99,54099,Fentanyl,3,49,5405,38.15,-82.45,0.00906567992599445
20421,2016,WV,WOOD,54,107,54107,Codeine,1,483,5405,39.2,-81.50139,0.08936170212765958
20470,2017,WV,BERKELEY,54,3,54003,Methadone,2,205,3672,39.45,-78.03333,0.05582788671023965
20493,2016,WV,WOOD,54,107,54107,Morphine,4,483,5405,39.2,-81.50139,0.08936170212765958
20543,2017,WV,BOONE,54,5,54005,Buprenorphine,2,22,3672,38.01667,-81.7,0.005991285403050109
20552,2017,WV,BRAXTON,54,7,54007,Oxycodone,2,79,3672,38.71667,-80.7,0.021514161220043574
20569,2017,WV,CABELL,54,11,54011,Heroin,52,159,3672,38.43333,-82.25,0.04330065359477124
20601,2017,WV,CABELL,54,11,54011,Fentanyl,22,159,3672,38.43333,-82.25,0.04330065359477124
20603,2017,WV,CALHOUN,54,13,54013,Hydrocodone,2,5,3672,38.83333,-81.11667,0.0013616557734204794
20716,2016,WV,TYLER,54,95,54095,Oxycodone,1,22,5405,39.45,-80.86667,0.004070305272895467
20737,2016,WV,WAYNE,54,99,54099,Oxycodone,4,49,5405,38.15,-82.45,0.00906567992599445
20747,2016,WV,WOOD,54,107,54107,Oxycodone,7,483,5405,39.2,-81.50139,0.08936170212765958
20799,2017,WV,BERKELEY,54,3,54003,Buprenorphine,4,205,3672,39.45,-78.03333,0.05582788671023965
20808,2017,WV,BOONE,54,5,54005,Heroin,4,22,3672,38.01667,-81.7,0.005991285403050109
20883,2017,WV,DODDRIDGE,54,17,54017,Heroin,5,19,3672,39.26667,-80.7,0.0051742919389978215
20997,2017,WV,BERKELEY,54,3,54003,Fentanyl,27,205,3672,39.45,-78.03333,0.05582788671023965
21179,2017,WV,GREENBRIER,54,25,54025,Fentanyl,1,41,3672,37.95,-80.41667,0.011165577342047931
21187,2017,WV,CALHOUN,54,13,54013,Buprenorphine,1,5,3672,38.83333,-81.11667,0.0013616557734204794
21267,2017,WV,FAYETTE,54,19,54019,Heroin,1,5,3672,38.05,-81.1,0.0013616557734204794
21377,2017,WV,GREENBRIER,54,25,54025,Buprenorphine,3,41,3672,37.95,-80.41667,0.011165577342047931
21444,2017,WV,HAMPSHIRE,54,27,54027,Buprenorphine,1,33,3672,39.33333,-78.6,0.008986928104575163
21448,2017,WV,HANCOCK,54,29,54029,Morphine,1,104,3672,40.50056,-80.56667,0.02832244008714597
21455,2017,WV,HARRISON,54,33,54033,Oxycodone,7,201,3672,39.28333,-80.38333,0.05473856209150327
21476,2017,WV,JACKSON,54,35,54035,Oxycodone,6,51,3672,38.83333,-81.68333,0.013888888888888888
21487,2017,WV,CABELL,54,11,54011,Buprenorphine,1,159,3672,38.43333,-82.25,0.04330065359477124
21602,2017,WV,GREENBRIER,54,25,54025,Heroin,17,41,3672,37.95,-80.41667,0.011165577342047931
21631,2017,WV,HARRISON,54,33,54033,Morphine,1,201,3672,39.28333,-80.38333,0.05473856209150327
21652,2017,WV,JACKSON,54,35,54035,Buprenorphine,4,51,3672,38.83333,-81.68333,0.013888888888888888
21659,2017,WV,KANAWHA,54,39,54039,Codeine,2,1033,3672,38.33333,-81.56667,0.28131808278867104
21660,2017,WV,KANAWHA,54,39,54039,Hydrocodone,22,1033,3672,38.33333,-81.56667,0.28131808278867104
21688,2017,WV,HAMPSHIRE,54,27,54027,Oxycodone,1,33,3672,39.33333,-78.6,0.008986928104575163
21693,2017,WV,HANCOCK,54,29,54029,Buprenorphine,6,104,3672,40.50056,-80.56667,0.02832244008714597
21714,2017,WV,JACKSON,54,35,54035,Codeine,1,51,3672,38.83333,-81.68333,0.013888888888888888
21725,2017,WV,KANAWHA,54,39,54039,Buprenorphine,11,1033,3672,38.33333,-81.56667,0.28131808278867104
21762,2017,WV,LOGAN,54,45,54045,Morphine,1,146,3672,37.83333,-81.93333,0.039760348583877995
21778,2017,WV,GILMER,54,21,54021,Hydromorphone,3,20,3672,38.93333,-80.85,0.0054466230936819175
21782,2017,WV,GREENBRIER,54,25,54025,Hydrocodone,1,41,3672,37.95,-80.41667,0.011165577342047931
21798,2017,WV,HARRISON,54,33,54033,Buprenorphine,10,201,3672,39.28333,-80.38333,0.05473856209150327
21799,2017,WV,HARRISON,54,33,54033,Hydrocodone,8,201,3672,39.28333,-80.38333,0.05473856209150327
21916,2017,WV,KANAWHA,54,39,54039,Hydromorphone,4,1033,3672,38.33333,-81.56667,0.28131808278867104
21917,2017,WV,KANAWHA,54,39,54039,Morphine,3,1033,3672,38.33333,-81.56667,0.28131808278867104
21974,2017,WV,DODDRIDGE,54,17,54017,Buprenorphine,3,19,3672,39.26667,-80.7,0.0051742919389978215
22026,2017,WV,GILMER,54,21,54021,Hydrocodone,2,20,3672,38.93333,-80.85,0.0054466230936819175
22035,2017,WV,GREENBRIER,54,25,54025,Oxycodone,5,41,3672,37.95,-80.41667,0.011165577342047931
22036,2017,WV,GREENBRIER,54,25,54025,Oxymorphone,4,41,3672,37.95,-80.41667,0.011165577342047931
22042,2017,WV,HAMPSHIRE,54,27,54027,Fentanyl,2,33,3672,39.33333,-78.6,0.008986928104575163
22052,2017,WV,HARRISON,54,33,54033,Heroin,44,201,3672,39.28333,-80.38333,0.05473856209150327
22080,2017,WV,HAMPSHIRE,54,27,54027,Heroin,4,33,3672,39.33333,-78.6,0.008986928104575163
22092,2017,WV,HARRISON,54,33,54033,Fentanyl,9,201,3672,39.28333,-80.38333,0.05473856209150327
22113,2017,WV,JACKSON,54,35,54035,Heroin,6,51,3672,38.83333,-81.68333,0.013888888888888888
22121,2017,WV,JEFFERSON,54,37,54037,Buprenorphine,1,26,3672,39.3,-77.85,0.007080610021786492
22159,2017,WV,LEWIS,54,41,54041,Oxycodone,3,31,3672,38.96667,-80.51666999999999,0.008442265795206972
22162,2017,WV,LOGAN,54,45,54045,Buprenorphine,13,146,3672,37.83333,-81.93333,0.039760348583877995
22184,2017,WV,KANAWHA,54,39,54039,Oxycodone,56,1033,3672,38.33333,-81.56667,0.28131808278867104
22185,2017,WV,KANAWHA,54,39,54039,Oxymorphone,10,1033,3672,38.33333,-81.56667,0.28131808278867104
22226,2017,WV,LOGAN,54,45,54045,Fentanyl,5,146,3672,37.83333,-81.93333,0.039760348583877995
22227,2017,WV,LOGAN,54,45,54045,Heroin,24,146,3672,37.83333,-81.93333,0.039760348583877995
22260,2017,WV,MERCER,54,55,54055,Hydromorphone,26,108,3672,37.4,-81.11667,0.029411764705882353
22267,2017,WV,MINERAL,54,57,54057,Oxycodone,1,66,3672,39.4,-78.95,0.017973856209150325
22280,2017,WV,FAYETTE,54,19,54019,Buprenorphine,1,5,3672,38.05,-81.1,0.0013616557734204794
22332,2017,WV,HANCOCK,54,29,54029,Fentanyl,6,104,3672,40.50056,-80.56667,0.02832244008714597
22333,2017,WV,HANCOCK,54,29,54029,Heroin,27,104,3672,40.50056,-80.56667,0.02832244008714597
22360,2017,WV,JACKSON,54,35,54035,Fentanyl,1,51,3672,38.83333,-81.68333,0.013888888888888888
22363,2017,WV,JEFFERSON,54,37,54037,Fentanyl,6,26,3672,39.3,-77.85,0.007080610021786492
22364,2017,WV,JEFFERSON,54,37,54037,Heroin,12,26,3672,39.3,-77.85,0.007080610021786492
22366,2017,WV,KANAWHA,54,39,54039,Fentanyl,63,1033,3672,38.33333,-81.56667,0.28131808278867104
22367,2017,WV,KANAWHA,54,39,54039,Heroin,202,1033,3672,38.33333,-81.56667,0.28131808278867104
22368,2017,WV,KANAWHA,54,39,54039,Methadone,1,1033,3672,38.33333,-81.56667,0.28131808278867104
22397,2017,WV,MARION,54,49,54049,Fentanyl,2,49,3672,39.51667,-80.25,0.013344226579520698
22415,2017,WV,MERCER,54,55,54055,Hydrocodone,7,108,3672,37.4,-81.11667,0.029411764705882353
22416,2017,WV,MERCER,54,55,54055,Oxycodone,6,108,3672,37.4,-81.11667,0.029411764705882353
22417,2017,WV,MERCER,54,55,54055,Oxymorphone,12,108,3672,37.4,-81.11667,0.029411764705882353
22421,2017,WV,MINGO,54,59,54059,Oxycodone,3,8,3672,37.7,-82.15,0.002178649237472767
22437,2017,WV,MORGAN,54,65,54065,Heroin,18,28,3672,39.56667,-78.25028,0.007625272331154684
22438,2017,WV,MORGAN,54,65,54065,Methadone,2,28,3672,39.56667,-78.25028,0.007625272331154684
22443,2017,WV,NICHOLAS,54,67,54067,Hydromorphone,2,234,3672,38.3,-80.83333,0.06372549019607843
22488,2017,WV,OHIO,54,69,54069,Heroin,13,49,3672,40.1,-80.61667,0.013344226579520698
22529,2017,WV,RALEIGH,54,81,54081,Hydromorphone,2,120,3672,37.75,-81.25,0.032679738562091505
22589,2017,WV,LEWIS,54,41,54041,Buprenorphine,3,31,3672,38.96667,-80.51666999999999,0.008442265795206972
22590,2017,WV,LEWIS,54,41,54041,Hydrocodone,1,31,3672,38.96667,-80.51666999999999,0.008442265795206972
22599,2017,WV,LOGAN,54,45,54045,Oxycodone,21,146,3672,37.83333,-81.93333,0.039760348583877995
22600,2017,WV,LOGAN,54,45,54045,Oxymorphone,17,146,3672,37.83333,-81.93333,0.039760348583877995
22625,2017,WV,MARION,54,49,54049,Heroin,3,49,3672,39.51667,-80.25,0.013344226579520698
22627,2017,WV,MARSHALL,54,51,54051,Fentanyl,1,28,3672,39.86667,-80.65,0.007625272331154684
22628,2017,WV,MARSHALL,54,51,54051,Heroin,1,28,3672,39.86667,-80.65,0.007625272331154684
22651,2017,WV,MINERAL,54,57,54057,Fentanyl,4,66,3672,39.4,-78.95,0.017973856209150325
22689,2017,WV,MERCER,54,55,54055,Fentanyl,2,108,3672,37.4,-81.11667,0.029411764705882353
22695,2017,WV,MONROE,54,63,54063,Oxycodone,1,11,3672,37.56667,-80.55,0.0029956427015250544
22719,2017,WV,POCAHONTAS,54,75,54075,Oxycodone,1,30,3672,38.31667,-80.03333,0.008169934640522876
22731,2017,WV,PUTNAM,54,79,54079,Fentanyl,1,15,3672,38.51667,-81.88333,0.004084967320261438
22732,2017,WV,RALEIGH,54,81,54081,Fentanyl,7,120,3672,37.75,-81.25,0.032679738562091505
22733,2017,WV,RALEIGH,54,81,54081,Oxycodone,20,120,3672,37.75,-81.25,0.032679738562091505
22734,2017,WV,RANDOLPH,54,83,54083,Heroin,4,65,3672,38.76667,-79.83333,0.01770152505446623
22774,2017,WV,MARION,54,49,54049,Hydrocodone,9,49,3672,39.51667,-80.25,0.013344226579520698
22792,2017,WV,MERCER,54,55,54055,Buprenorphine,8,108,3672,37.4,-81.11667,0.029411764705882353
22822,2017,WV,NICHOLAS,54,67,54067,Fentanyl,8,234,3672,38.3,-80.83333,0.06372549019607843
22828,2017,WV,OHIO,54,69,54069,Buprenorphine,1,49,3672,40.1,-80.61667,0.013344226579520698
22860,2017,WV,RALEIGH,54,81,54081,Hydrocodone,7,120,3672,37.75,-81.25,0.032679738562091505
22912,2017,WV,LOGAN,54,45,54045,Codeine,1,146,3672,37.83333,-81.93333,0.039760348583877995
22913,2017,WV,LOGAN,54,45,54045,Hydrocodone,5,146,3672,37.83333,-81.93333,0.039760348583877995
22939,2017,WV,MARION,54,49,54049,Oxycodone,4,49,3672,39.51667,-80.25,0.013344226579520698
22955,2017,WV,MERCER,54,55,54055,Heroin,2,108,3672,37.4,-81.11667,0.029411764705882353
22965,2017,WV,POCAHONTAS,54,75,54075,Hydrocodone,2,30,3672,38.31667,-80.03333,0.008169934640522876
22980,2017,WV,RALEIGH,54,81,54081,Heroin,10,120,3672,37.75,-81.25,0.032679738562091505
23052,2017,WV,WAYNE,54,99,54099,Buprenorphine,4,63,3672,38.15,-82.45,0.01715686274509804
23061,2017,WV,MORGAN,54,65,54065,Hydrocodone,3,28,3672,39.56667,-78.25028,0.007625272331154684
23078,2017,WV,NICHOLAS,54,67,54067,Hydrocodone,5,234,3672,38.3,-80.83333,0.06372549019607843
23085,2017,WV,OHIO,54,69,54069,Oxycodone,1,49,3672,40.1,-80.61667,0.013344226579520698
23165,2017,WV,WOOD,54,107,54107,Hydrocodone,8,435,3672,39.2,-81.50139,0.1184640522875817
23233,2017,WV,WAYNE,54,99,54099,Fentanyl,2,63,3672,38.15,-82.45,0.01715686274509804
23234,2017,WV,WAYNE,54,99,54099,Hydrocodone,2,63,3672,38.15,-82.45,0.01715686274509804
23237,2017,WV,WETZEL,54,103,54103,Heroin,3,12,3672,39.58333,-80.66667,0.0032679738562091504
23344,2017,WV,MORGAN,54,65,54065,Buprenorphine,1,28,3672,39.56667,-78.25028,0.007625272331154684
23349,2017,WV,NICHOLAS,54,67,54067,Oxycodone,4,234,3672,38.3,-80.83333,0.06372549019607843
23350,2017,WV,NICHOLAS,54,67,54067,Oxymorphone,1,234,3672,38.3,-80.83333,0.06372549019607843
23371,2017,WV,POCAHONTAS,54,75,54075,Buprenorphine,10,30,3672,38.31667,-80.03333,0.008169934640522876
23391,2017,WV,RANDOLPH,54,83,54083,Buprenorphine,1,65,3672,38.76667,-79.83333,0.01770152505446623
23456,2017,WV,UPSHUR,54,97,54097,Buprenorphine,1,22,3672,38.88333,-80.25056,0.005991285403050109
23488,2017,WV,ROANE,54,87,54087,Oxycodone,1,2,3672,38.73333,-81.35,0.0005446623093681918
23539,2017,WV,TUCKER,54,93,54093,Hydrocodone,1,4,3672,39.1,-79.56667,0.0010893246187363835
23565,2017,WV,WAYNE,54,99,54099,Oxycodone,8,63,3672,38.15,-82.45,0.01715686274509804
23578,2017,WV,WOOD,54,107,54107,Heroin,144,435,3672,39.2,-81.50139,0.1184640522875817
23601,2017,WV,MARSHALL,54,51,54051,Buprenorphine,13,28,3672,39.86667,-80.65,0.007625272331154684
23615,2017,WV,MERCER,54,55,54055,Morphine,3,108,3672,37.4,-81.11667,0.029411764705882353
23621,2017,WV,MINERAL,54,57,54057,Heroin,15,66,3672,39.4,-78.95,0.017973856209150325
23646,2017,WV,NICHOLAS,54,67,54067,Buprenorphine,27,234,3672,38.3,-80.83333,0.06372549019607843
23726,2017,WV,MARSHALL,54,51,54051,Hydrocodone,1,28,3672,39.86667,-80.65,0.007625272331154684
23741,2017,WV,MERCER,54,55,54055,Codeine,1,108,3672,37.4,-81.11667,0.029411764705882353
23765,2017,WV,NICHOLAS,54,67,54067,Heroin,57,234,3672,38.3,-80.83333,0.06372549019607843
23770,2017,WV,OHIO,54,69,54069,Fentanyl,6,49,3672,40.1,-80.61667,0.013344226579520698
23827,2017,WV,WEBSTER,54,101,54101,Hydrocodone,7,46,3672,38.51667,-80.41667,0.01252723311546841
23840,2017,WV,WOOD,54,107,54107,Fentanyl,63,435,3672,39.2,-81.50139,0.1184640522875817
23842,2017,WV,WYOMING,54,109,54109,Buprenorphine,1,5,3672,37.61667,-81.55,0.0013616557734204794
23860,2017,WV,RANDOLPH,54,83,54083,Hydrocodone,2,65,3672,38.76667,-79.83333,0.01770152505446623
23861,2017,WV,RANDOLPH,54,83,54083,Oxycodone,2,65,3672,38.76667,-79.83333,0.01770152505446623
23910,2017,WV,UPSHUR,54,97,54097,Oxycodone,3,22,3672,38.88333,-80.25056,0.005991285403050109
23927,2017,WV,WAYNE,54,99,54099,Heroin,10,63,3672,38.15,-82.45,0.01715686274509804
23930,2017,WV,WEBSTER,54,101,54101,Buprenorphine,2,46,3672,38.51667,-80.41667,0.01252723311546841
23941,2017,WV,WOOD,54,107,54107,Oxycodone,1,435,3672,39.2,-81.50139,0.1184640522875817
23966,2017,WV,RALEIGH,54,81,54081,Buprenorphine,1,120,3672,37.75,-81.25,0.032679738562091505
24020,2017,WV,TUCKER,54,93,54093,Buprenorphine,1,4,3672,39.1,-79.56667,0.0010893246187363835
24040,2017,WV,WEBSTER,54,101,54101,Oxycodone,3,46,3672,38.51667,-80.41667,0.01252723311546841
24051,2017,WV,WOOD,54,107,54107,Buprenorphine,4,435,3672,39.2,-81.50139,0.1184640522875817
