type,latitude,longitude,name,city,county,state,country,fips_combined,fips_county,fips_state
W,40.62528,-80.12528,"Allegheny County, PA",Allegheny County,ALLEGHENY,PA,us,42003,3,42
W,37.00222,-79.86667,"Franklin County, VA",Franklin County,FRANKLIN,VA,us,51067,67,51
W,40.81667,-82.26667,"Ashland County, OH",Ashland County,ASHLAND,OH,us,39005,5,39
W,40.76667,-84.08333,"Allen County, OH",Allen County,ALLEN,OH,us,39003,3,39
W,40.00028,-80.96667,"Belmont County, OH",Belmont County,BELMONT,OH,us,39013,13,39
W,40.55,-84.25028,"Auglaize County, OH",Auglaize County,AUGLAIZE,OH,us,39011,11,39
W,39.75028,-82.6,"Fairfield County, OH",Fairfield County,FAIRFIELD,OH,us,39045,45,39
W,40.75028,-80.75028,"Columbiana County, OH",Columbiana County,COLUMBIANA,OH,us,39029,29,39
W,40.26667,-83.00028,"Delaware County, OH",Delaware County,DELAWARE,OH,us,39041,41,39
W,41.43333,-81.66667,"Cuyahoga County, OH",Cuyahoga County,CUYAHOGA,OH,us,39035,35,39
W,39.18333,-84.53333,"Hamilton County, OH",Hamilton County,HAMILTON,OH,us,39061,61,39
W,41.35,-82.6,"Erie County, OH",Erie County,ERIE,OH,us,39043,43,39
W,41.01667,-83.66667,"Hancock County, OH",Hancock County,HANCOCK,OH,us,39063,63,39
W,41.33333,-82.15,"Lorain County, OH",Lorain County,LORAIN,OH,us,39093,93,39
W,39.51667,-82.46667,"Hocking County, OH",Hocking County,HOCKING,OH,us,39073,73,39
W,41.15,-82.55,"Huron County, OH",Huron County,HURON,OH,us,39077,77,39
W,41.65,-83.66667,"Lucas County, OH",Lucas County,LUCAS,OH,us,39095,95,39
W,40.4,-82.37222,"Knox County, OH",Knox County,KNOX,OH,us,39083,83,39
W,41.63333,-81.38333,"Lake County, OH",Lake County,LAKE,OH,us,39085,85,39
W,41.1,-81.88333,"Medina County, OH",Medina County,MEDINA,OH,us,39103,103,39
W,39.96667,-83.01667,"Franklin County, OH",Franklin County,FRANKLIN,OH,us,39049,49,39
W,40.65,-83.66667,"Hardin County, OH",Hardin County,HARDIN,OH,us,39065,65,39
W,40.55,-84.63333,"Mercer County, OH",Mercer County,MERCER,OH,us,39107,107,39
W,40.08333,-82.50028,"Licking County, OH",Licking County,LICKING,OH,us,39089,89,39
W,40.58333,-83.16667,"Marion County, OH",Marion County,MARION,OH,us,39101,101,39
W,41.35,-83.13333,"Sandusky County, OH",Sandusky County,SANDUSKY,OH,us,39143,143,39
W,41.11667,-81.53333,"Summit County, OH",Summit County,SUMMIT,OH,us,39153,153,39
W,40.53333,-82.78333,"Morrow County, OH",Morrow County,MORROW,OH,us,39117,117,39
W,41.16667,-81.2,"Portage County, OH",Portage County,PORTAGE,OH,us,39133,133,39
W,40.85,-83.28333,"Wyandot County, OH",Wyandot County,WYANDOT,OH,us,39175,175,39
W,40.83333,-81.88333,"Wayne County, OH",Wayne County,WAYNE,OH,us,39169,169,39
W,40.3,-83.38333,"Union County, OH",Union County,UNION,OH,us,39159,159,39
W,41.53333,-83.1,"Ottawa County, OH",Ottawa County,OTTAWA,OH,us,39123,123,39
W,41.03333,-80.76667,"Mahoning County, OH",Mahoning County,MAHONING,OH,us,39099,99,39
W,40.86667,-84.58333,"Van Wert County, OH",Van Wert County,VAN WERT,OH,us,39161,161,39
W,39.35,-83.06667,"Ross County, OH",Ross County,ROSS,OH,us,39141,141,39
W,40.81667,-81.36667,"Stark County, OH",Stark County,STARK,OH,us,39151,151,39
W,41.7,-80.76667,"Ashtabula County, OH",Ashtabula County,ASHTABULA,OH,us,39007,7,39
W,40.78333,-82.55,"Richland County, OH",Richland County,RICHLAND,OH,us,39139,139,39
W,40.75028,-80.50028,"Beaver County, PA",Beaver County,BEAVER,PA,us,42007,7,42
W,40.62528,-78.75028,"Cambria County, PA",Cambria County,CAMBRIA,PA,us,42021,21,42
W,41.12528,-75.675,"Carbon County, PA",Carbon County,CARBON,PA,us,42025,25,42
W,40.12528,-75.87528,"Chester County, PA",Chester County,CHESTER,PA,us,42029,29,42
W,40.00028,-75.37528,"Delaware County, PA",Delaware County,DELAWARE,PA,us,42045,45,42
W,40.62528,-75.87528,"Berks County, PA",Berks County,BERKS,PA,us,42011,11,42
W,41.12528,-80.00028,"Butler County, PA",Butler County,BUTLER,PA,us,42019,19,42
W,40.25028,-77.66667,"Franklin County, PA",Franklin County,FRANKLIN,PA,us,42055,55,42
W,40.62778,-76.75278,"Dauphin County, PA",Dauphin County,DAUPHIN,PA,us,42043,43,42
W,41.37528,-76.25028,"Luzerne County, PA",Luzerne County,LUZERNE,PA,us,42079,79,42
W,41.37528,-77.87528,"Clinton County, PA",Clinton County,CLINTON,PA,us,42035,35,42
W,40.25028,-76.25028,"Lancaster County, PA",Lancaster County,LANCASTER,PA,us,42071,71,42
W,41.50028,-77.50028,"Lycoming County, PA",Lycoming County,LYCOMING,PA,us,42081,81,42
W,40.12528,-75.00028,"Philadelphia County, PA",Philadelphia County,PHILADELPHIA,PA,us,42101,101,42
W,40.87528,-76.25028,"Schuylkill County, PA",Schuylkill County,SCHUYLKILL,PA,us,42107,107,42
W,41.50028,-79.87528,"Venango County, PA",Venango County,VENANGO,PA,us,42121,121,42
W,40.50028,-77.25028,"Perry County, PA",Perry County,PERRY,PA,us,42099,99,42
W,41.12528,-79.68333,"Armstrong County, PA",Armstrong County,ARMSTRONG,PA,us,42005,5,42
W,41.12528,-80.00028,"Erie County, PA",Erie County,ERIE,PA,us,42049,49,42
W,40.50028,-75.37528,"Bucks County, PA",Bucks County,BUCKS,PA,us,42017,17,42
W,41.25028,-77.9,"Centre County, PA",Centre County,CENTRE,PA,us,42027,27,42
W,40.62528,-78.12528,"Huntingdon County, PA",Huntingdon County,HUNTINGDON,PA,us,42061,61,42
W,40.87528,-79.12528,"Indiana County, PA",Indiana County,INDIANA,PA,us,42063,63,42
W,40.85,-76.66667,"Northumberland County, PA",Northumberland County,NORTHUMBERLAND,PA,us,42097,97,42
W,40.37528,-75.50028,"Montgomery County, PA",Montgomery County,MONTGOMERY,PA,us,42091,91,42
W,40.62528,-79.62528,"Westmoreland County, PA",Westmoreland County,WESTMORELAND,PA,us,42129,129,42
W,38.41667,-77.46667,"Stafford County, VA",Stafford County,STAFFORD,VA,us,51179,179,51
W,38.7,-77.48333,"Prince William County, VA",Prince William County,PRINCE WILLIAM,VA,us,51153,153,51
W,38.73333,-77.81667,"Fauquier County, VA",Fauquier County,FAUQUIER,VA,us,51061,61,51
W,39.21667,-78.25,"Frederick County, VA",Frederick County,FREDERICK,VA,us,51069,69,51
W,38.85,-77.35,"Fairfax County, VA",Fairfax County,FAIRFAX,VA,us,51059,59,51
W,38.25056,-78.03333,"Orange County, VA",Orange County,ORANGE,VA,us,51137,137,51
W,39.45,-78.03333,"Berkeley County, WV",Berkeley County,BERKELEY,WV,us,54003,3,54
W,38.33333,-81.56667,"Kanawha County, WV",Kanawha County,KANAWHA,WV,us,54039,39,54
W,40.1,-80.61667,"Ohio County, WV",Ohio County,OHIO,WV,us,54069,69,54
W,40.13333,-83.76667,"Champaign County, OH",Champaign County,CHAMPAIGN,OH,us,39021,21,39
W,39.91667,-83.76667,"Clark County, OH",Clark County,CLARK,OH,us,39023,23,39
W,39.4,-83.81667,"Clinton County, OH",Clinton County,CLINTON,OH,us,39027,27,39
W,39.45,-84.56667,"Butler County, OH",Butler County,BUTLER,OH,us,39017,17,39
W,39.68333,-83.9,"Greene County, OH",Greene County,GREENE,OH,us,39057,57,39
W,40.36667,-80.75028,"Jefferson County, OH",Jefferson County,JEFFERSON,OH,us,39081,81,39
W,40.05,-84.23333,"Miami County, OH",Miami County,MIAMI,OH,us,39109,109,39
W,38.81667,-82.33333,"Gallia County, OH",Gallia County,GALLIA,OH,us,39053,53,39
W,39.18333,-83.61667,"Highland County, OH",Highland County,HIGHLAND,OH,us,39071,71,39
W,38.8,-82.98333,"Scioto County, OH",Scioto County,SCIOTO,OH,us,39145,145,39
W,40.36667,-83.76667,"Logan County, OH",Logan County,LOGAN,OH,us,39091,91,39
W,40.45,-81.46667,"Tuscarawas County, OH",Tuscarawas County,TUSCARAWAS,OH,us,39157,157,39
W,39.43333,-84.16667,"Warren County, OH",Warren County,WARREN,OH,us,39165,165,39
W,39.75028,-84.3,"Montgomery County, OH",Montgomery County,MONTGOMERY,OH,us,39113,113,39
W,39.73333,-81.06667,"Monroe County, OH",Monroe County,MONROE,OH,us,39111,111,39
W,41.31667,-80.76667,"Trumbull County, OH",Trumbull County,TRUMBULL,OH,us,39155,155,39
W,40.625,-78.37528,"Blair County, PA",Blair County,BLAIR,PA,us,42013,13,42
W,41.87528,-76.87528,"Bradford County, PA",Bradford County,BRADFORD,PA,us,42015,15,42
W,40.12528,-79.75028,"Fayette County, PA",Fayette County,FAYETTE,PA,us,42051,51,42
W,40.25028,-77.37528,"Cumberland County, PA",Cumberland County,CUMBERLAND,PA,us,42041,41,42
W,40.75028,-75.62528,"Lehigh County, PA",Lehigh County,LEHIGH,PA,us,42077,77,42
W,40.50028,-76.62528,"Lebanon County, PA",Lebanon County,LEBANON,PA,us,42075,75,42
W,41.62528,-76.12528,"Wyoming County, PA",Wyoming County,WYOMING,PA,us,42131,131,42
W,40.12528,-77.00028,"York County, PA",York County,YORK,PA,us,42133,133,42
W,40.77083,-77.08472,"Snyder County, PA",Snyder County,SNYDER,PA,us,42109,109,42
W,39.75028,-77.37528,"Adams County, PA",Adams County,ADAMS,PA,us,42001,1,42
W,41.75028,-80.50028,"Crawford County, PA",Crawford County,CRAWFORD,PA,us,42039,39,42
W,41.62528,-75.62528,"Lackawanna County, PA",Lackawanna County,LACKAWANNA,PA,us,42069,69,42
W,41.25028,-75.15,"Monroe County, PA",Monroe County,MONROE,PA,us,42089,89,42
W,41.25028,-79.12528,"Jefferson County, PA",Jefferson County,JEFFERSON,PA,us,42065,65,42
W,40.37528,-80.50028,"Washington County, PA",Washington County,WASHINGTON,PA,us,42125,125,42
W,38.86667,-77.1,"Arlington County, VA",Arlington County,ARLINGTON,VA,us,51013,13,51
W,38.03333,-78.55,"Albemarle County, VA",Albemarle County,ALBEMARLE,VA,us,51003,3,51
W,37.61667,-79.25056,"Amherst County, VA",Amherst County,AMHERST,VA,us,51009,9,51
W,37.38333,-77.6,"Chesterfield County, VA",Chesterfield County,CHESTERFIELD,VA,us,51041,41,51
W,38.3,-78.46667,"Greene County, VA",Greene County,GREENE,VA,us,51079,79,51
W,37.55,-78.56667,"Buckingham County, VA",Buckingham County,BUCKINGHAM,VA,us,51029,29,51
W,38.03333,-77.35,"Caroline County, VA",Caroline County,CAROLINE,VA,us,51033,33,51
W,37.48333,-80.18333,"Craig County, VA",Craig County,CRAIG,VA,us,51045,45,51
W,37.50028,-78.25028,"Cumberland County, VA",Cumberland County,CUMBERLAND,VA,us,51049,49,51
W,38.50028,-77.96667,"Culpeper County, VA",Culpeper County,CULPEPER,VA,us,51047,47,51
W,37.4315734,-78.6568942,,,COLONIAL HEIGHTS CITY,VA,us,51570,570,51
W,37.75,-77.48333,"Hanover County, VA",Hanover County,HANOVER,VA,us,51085,85,51
W,36.88333,-76.7,"Isle of Wight County, VA",Isle of Wight County,ISLE OF WIGHT,VA,us,51093,93,51
W,37.73333,-76.9,"King and Queen County, VA",King and Queen County,KING AND QUEEN,VA,us,51097,97,51
W,39.08333,-77.65,"Loudoun County, VA",Loudoun County,LOUDOUN,VA,us,51107,107,51
W,37.98333,-77.96667,"Louisa County, VA",Louisa County,LOUISA,VA,us,51109,109,51
W,38.41667,-78.26667,"Madison County, VA",Madison County,MADISON,VA,us,51113,113,51
W,37.55,-77.36667,"Henrico County, VA",Henrico County,HENRICO,VA,us,51087,87,51
W,37.56667,-77.91667,"Powhatan County, VA",Powhatan County,POWHATAN,VA,us,51145,145,51
W,37.48333,-77,"New Kent County, VA",New Kent County,NEW KENT,VA,us,51127,127,51
W,37.2,-77.23333,"Prince George County, VA",Prince George County,PRINCE GEORGE,VA,us,51149,149,51
W,36.73333,-77.1,"Southampton County, VA",Southampton County,SOUTHAMPTON,VA,us,51175,175,51
W,37.23333,-76.55,"York County, VA",York County,YORK,VA,us,51199,199,51
W,38.86667,-78.6,"Shenandoah County, VA",Shenandoah County,SHENANDOAH,VA,us,51171,171,51
W,37.2,-78.45,"Prince Edward County, VA",Prince Edward County,PRINCE EDWARD,VA,us,51147,147,51
W,38.51667,-78.88333,"Rockingham County, VA",Rockingham County,ROCKINGHAM,VA,us,51165,165,51
W,36.91667,-81.05,"Wythe County, VA",Wythe County,WYTHE,VA,us,51197,197,51
W,38.18333,-77.65,"Spotsylvania County, VA",Spotsylvania County,SPOTSYLVANIA,VA,us,51177,177,51
W,36.7,-78.35,"Mecklenburg County, VA",Mecklenburg County,MECKLENBURG,VA,us,51117,117,51
W,38.93333,-78.18333,"Warren County, VA",Warren County,WARREN,VA,us,51187,187,51
W,37.28333,-80.05,"Roanoke County, VA",Roanoke County,ROANOKE,VA,us,51770,770,51
W,37.11667,-85.3,"Adair County, KY",Adair County,ADAIR,KY,us,21001,1,21
W,36.75056,-86.2,"Allen County, KY",Allen County,ALLEN,KY,us,21003,3,21
W,39.4,-78.95,"Mineral County, WV",Mineral County,MINERAL,WV,us,54057,57,54
W,39.05,-84.15,"Clermont County, OH",Clermont County,CLERMONT,OH,us,39025,25,39
W,40.13333,-84.61667,"Darke County, OH",Darke County,DARKE,OH,us,39037,37,39
W,41.33333,-84.45,"Defiance County, OH",Defiance County,DEFIANCE,OH,us,39039,39,39
W,40.05,-81.51667,"Guernsey County, OH",Guernsey County,GUERNSEY,OH,us,39059,59,39
W,38.58333,-82.55,"Lawrence County, OH",Lawrence County,LAWRENCE,OH,us,39087,87,39
W,39.03333,-82.61667,"Jackson County, OH",Jackson County,JACKSON,OH,us,39079,79,39
W,39.73333,-82.23333,"Perry County, OH",Perry County,PERRY,OH,us,39127,127,39
W,39.95,-81.95,"Muskingum County, OH",Muskingum County,MUSKINGUM,OH,us,39119,119,39
W,41.36667,-83.61667,"Wood County, OH",Wood County,WOOD,OH,us,39173,173,39
W,41.11667,-83.11667,"Seneca County, OH",Seneca County,SENECA,OH,us,39147,147,39
W,41.6,-84.13333,"Fulton County, OH",Fulton County,FULTON,OH,us,39051,51,39
W,39.55,-83.45,"Fayette County, OH",Fayette County,FAYETTE,OH,us,39047,47,39
W,39.75028,-84.63333,"Preble County, OH",Preble County,PREBLE,OH,us,39135,135,39
W,40.31667,-84.18333,"Shelby County, OH",Shelby County,SHELBY,OH,us,39149,149,39
W,40.85,-82.91667,"Crawford County, OH",Crawford County,CRAWFORD,OH,us,39033,33,39
W,41.50056,-81.16667,"Geauga County, OH",Geauga County,GEAUGA,OH,us,39055,55,39
W,41.62639,-78.64167,"Elk County, PA",Elk County,ELK,PA,us,42047,47,42
W,40.00028,-80.25028,"Greene County, PA",Greene County,GREENE,PA,us,42059,59,42
W,40.25028,-78.62528,"Bedford County, PA",Bedford County,BEDFORD,PA,us,42009,9,42
W,41.12528,-78.75028,"Clearfield County, PA",Clearfield County,CLEARFIELD,PA,us,42033,33,42
W,41.00028,-80.50028,"Lawrence County, PA",Lawrence County,LAWRENCE,PA,us,42073,73,42
W,40.75028,-77.50028,"Mifflin County, PA",Mifflin County,MIFFLIN,PA,us,42087,87,42
W,41.37528,-80.50028,"Mercer County, PA",Mercer County,MERCER,PA,us,42085,85,42
W,40.87528,-75.25028,"Northampton County, PA",Northampton County,NORTHAMPTON,PA,us,42095,95,42
W,41.87528,-77.50028,"Tioga County, PA",Tioga County,TIOGA,PA,us,42117,117,42
W,41.87528,-75.37528,"Wayne County, PA",Wayne County,WAYNE,PA,us,42127,127,42
W,41.37528,-79.37528,"Clarion County, PA",Clarion County,CLARION,PA,us,42031,31,42
W,40.62528,-77.37528,"Juniata County, PA",Juniata County,JUNIATA,PA,us,42067,67,42
W,41.50028,-75.12528,"Pike County, PA",Pike County,PIKE,PA,us,42103,103,42
W,37.13333,-82.35,"Dickenson County, VA",Dickenson County,DICKENSON,VA,us,51051,51,51
W,38.00056,-84.96667,"Anderson County, KY",Anderson County,ANDERSON,KY,us,21005,5,21
W,37.05,-89.00056,"Ballard County, KY",Ballard County,BALLARD,KY,us,21007,7,21
W,36.73333,-80.7,"Carroll County, VA",Carroll County,CARROLL,VA,us,51035,35,51
W,36.95,-85.95,"Barren County, KY",Barren County,BARREN,KY,us,21009,9,21
W,38.15,-83.75056,"Bath County, KY",Bath County,BATH,KY,us,21011,11,21
W,36.75056,-83.68333,"Bell County, KY",Bell County,BELL,KY,us,21013,13,21
W,38.86667,-84.63333,"Boone County, KY",Boone County,BOONE,KY,us,21015,15,21
W,38.2,-84.21667,"Bourbon County, KY",Bourbon County,BOURBON,KY,us,21017,17,21
W,38.36667,-82.68333,"Boyd County, KY",Boyd County,BOYD,KY,us,21019,19,21
W,37.63333,-84.86667,"Boyle County, KY",Boyle County,BOYLE,KY,us,21021,21,21
W,37.75,-81.25,"Raleigh County, WV",Raleigh County,RALEIGH,WV,us,54081,81,54
W,39.28333,-80.38333,"Harrison County, WV",Harrison County,HARRISON,WV,us,54033,33,54
W,39.51667,-80.25,"Marion County, WV",Marion County,MARION,WV,us,54049,49,54
W,39.2,-81.50139,"Wood County, WV",Wood County,WOOD,WV,us,54107,107,54
W,38.43333,-82.25,"Cabell County, WV",Cabell County,CABELL,WV,us,54011,11,54
W,38.93333,-83.86667,"Brown County, OH",Brown County,BROWN,OH,us,39015,15,39
W,39.35,-82.05,"Athens County, OH",Athens County,ATHENS,OH,us,39009,9,39
W,39.06667,-83.06667,"Pike County, OH",Pike County,PIKE,OH,us,39131,131,39
W,39.65,-83.03333,"Pickaway County, OH",Pickaway County,PICKAWAY,OH,us,39129,129,39
W,39.50139,-81.41667,"Washington County, OH",Washington County,WASHINGTON,OH,us,39167,167,39
W,39.86667,-83.43333,"Madison County, OH",Madison County,MADISON,OH,us,39097,97,39
W,40.25028,-79.00028,"Somerset County, PA",Somerset County,SOMERSET,PA,us,42111,111,42
W,36.81667,-79.4,"Pittsylvania County, VA",Pittsylvania County,PITTSYLVANIA,VA,us,51143,143,51
W,38.68333,-84.08333,"Bracken County, KY",Bracken County,BRACKEN,KY,us,21023,23,21
W,37.53333,-83.31667,"Breathitt County, KY",Breathitt County,BREATHITT,KY,us,21025,25,21
W,37.78333,-86.26667,"Breckinridge County, KY",Breckinridge County,BRECKINRIDGE,KY,us,21027,27,21
W,37.96667,-85.71667,"Bullitt County, KY",Bullitt County,BULLITT,KY,us,21029,29,21
W,37.23333,-86.68333,"Butler County, KY",Butler County,BUTLER,KY,us,21031,31,21
W,37.15,-87.85,"Caldwell County, KY",Caldwell County,CALDWELL,KY,us,21033,33,21
W,36.63333,-88.26667,"Calloway County, KY",Calloway County,CALLOWAY,KY,us,21035,35,21
W,38.95,-84.38333,"Campbell County, KY",Campbell County,CAMPBELL,KY,us,21037,37,21
W,36.85,-88.95,"Carlisle County, KY",Carlisle County,CARLISLE,KY,us,21039,39,21
W,38.65,-85.11667,"Carroll County, KY",Carroll County,CARROLL,KY,us,21041,41,21
W,38.31667,-83.03333,"Carter County, KY",Carter County,CARTER,KY,us,21043,43,21
W,37.33333,-84.95,"Casey County, KY",Casey County,CASEY,KY,us,21045,45,21
W,39.33333,-78.6,"Hampshire County, WV",Hampshire County,HAMPSHIRE,WV,us,54027,27,54
W,39.56667,-78.25028,"Morgan County, WV",Morgan County,MORGAN,WV,us,54065,65,54
W,36.88333,-87.48333,"Christian County, KY",Christian County,CHRISTIAN,KY,us,21047,47,21
W,38.85,-83.46667,"Adams County, OH",Adams County,ADAMS,OH,us,39001,1,39
W,40.56667,-81.08333,"Carroll County, OH",Carroll County,CARROLL,OH,us,39019,19,39
W,40.3,-81.91667,"Coshocton County, OH",Coshocton County,COSHOCTON,OH,us,39031,31,39
W,40.55,-81.9,"Holmes County, OH",Holmes County,HOLMES,OH,us,39075,75,39
W,41.03333,-84.13333,"Putnam County, OH",Putnam County,PUTNAM,OH,us,39137,137,39
W,39.1,-82.01667,"Meigs County, OH",Meigs County,MEIGS,OH,us,39105,105,39
W,40.28333,-81.06667,"Harrison County, OH",Harrison County,HARRISON,OH,us,39067,67,39
W,39.25056,-82.46667,"Vinton County, OH",Vinton County,VINTON,OH,us,39163,163,39
W,39.83333,-81.46667,"Noble County, OH",Noble County,NOBLE,OH,us,39121,121,39
W,39.61667,-81.83333,"Morgan County, OH",Morgan County,MORGAN,OH,us,39115,115,39
W,41.11667,-84.58333,"Paulding County, OH",Paulding County,PAULDING,OH,us,39125,125,39
W,41.55,-84.58333,"Williams County, OH",Williams County,WILLIAMS,OH,us,39171,171,39
W,41.87528,-79.50028,"Warren County, PA",Warren County,WARREN,PA,us,42123,123,42
W,41.50028,-76.75028,"Sullivan County, PA",Sullivan County,SULLIVAN,PA,us,42113,113,42
W,41.87528,-76.12528,"Susquehanna County, PA",Susquehanna County,SUSQUEHANNA,PA,us,42115,115,42
W,37.23333,-79.1,"Campbell County, VA",Campbell County,CAMPBELL,VA,us,51031,31,51
W,37.36667,-78.81667,"Appomattox County, VA",Appomattox County,APPOMATTOX,VA,us,51011,11,51
W,37.6,-76.56667,"Middlesex County, VA",Middlesex County,MIDDLESEX,VA,us,51119,119,51
W,37.35,-75.93333,"Northampton County, VA",Northampton County,NORTHAMPTON,VA,us,51131,131,51
W,37.8,-79.43333,"Rockbridge County, VA",Rockbridge County,ROCKBRIDGE,VA,us,51163,163,51
W,38.11667,-76.78333,"Westmoreland County, VA",Westmoreland County,WESTMORELAND,VA,us,51193,193,51
W,37.98333,-84.26667,"Clark County, KY",Clark County,CLARK,KY,us,21049,49,21
W,37.16667,-83.75056,"Clay County, KY",Clay County,CLAY,KY,us,21051,51,21
W,36.75056,-85.15,"Clinton County, KY",Clinton County,CLINTON,KY,us,21053,53,21
W,37.33333,-88.08333,"Crittenden County, KY",Crittenden County,CRITTENDEN,KY,us,21055,55,21
W,36.8,-85.4,"Cumberland County, KY",Cumberland County,CUMBERLAND,KY,us,21057,57,21
W,38.71667,-80.7,"Braxton County, WV",Braxton County,BRAXTON,WV,us,54007,7,54
W,38.01667,-81.7,"Boone County, WV",Boone County,BOONE,WV,us,54005,5,54
W,39.01667,-78.81667,"Hardy County, WV",Hardy County,HARDY,WV,us,54031,31,54
W,40.50056,-80.56667,"Hancock County, WV",Hancock County,HANCOCK,WV,us,54029,29,54
W,38.93333,-80.85,"Gilmer County, WV",Gilmer County,GILMER,WV,us,54021,21,54
W,38.8,-82.00028,"Mason County, WV",Mason County,MASON,WV,us,54053,53,54
W,39.46667,-79.66667,"Preston County, WV",Preston County,PRESTON,WV,us,54077,77,54
W,37.65,-80.86667,"Summers County, WV",Summers County,SUMMERS,WV,us,54089,89,54
W,39.16667,-81.08333,"Ritchie County, WV",Ritchie County,RITCHIE,WV,us,54085,85,54
W,38.15,-82.45,"Wayne County, WV",Wayne County,WAYNE,WV,us,54099,99,54
W,38.88333,-80.25056,"Upshur County, WV",Upshur County,UPSHUR,WV,us,54097,97,54
W,37.61667,-81.55,"Wyoming County, WV",Wyoming County,WYOMING,WV,us,54109,109,54
W,36.91667,-80.4,"Floyd County, VA",Floyd County,FLOYD,VA,us,51063,63,51
W,36.95,-78.25056,"Lunenburg County, VA",Lunenburg County,LUNENBURG,VA,us,51111,111,51
W,41.50028,-78.37528,"Cameron County, PA",Cameron County,CAMERON,PA,us,42023,23,42
W,41.87528,-78.87528,"McKean County, PA",McKean County,MCKEAN,PA,us,42083,83,42
W,40.12528,-78.12528,"Fulton County, PA",Fulton County,FULTON,PA,us,42057,57,42
W,42.00028,-78.12528,"Potter County, PA",Potter County,POTTER,PA,us,42105,105,42
W,41.12528,-76.91667,"Union County, PA",Union County,UNION,PA,us,42119,119,42
W,41.25028,-76.37528,"Columbia County, PA",Columbia County,COLUMBIA,PA,us,42037,37,42
W,41.12528,-76.64167,"Montour County, PA",Montour County,MONTOUR,PA,us,42093,93,42
W,41.50028,-79.50028,"Forest County, PA",Forest County,FOREST,PA,us,42053,53,42
W,37.7,-87.11667,"Daviess County, KY",Daviess County,DAVIESS,KY,us,21059,59,21
W,39.11667,-79.2,"Grant County, WV",Grant County,GRANT,WV,us,54023,23,54
W,37.83333,-81.93333,"Logan County, WV",Logan County,LOGAN,WV,us,54045,45,54
W,39.36667,-81.15,"Pleasants County, WV",Pleasants County,PLEASANTS,WV,us,54073,73,54
W,37.36667,-81.65,"McDowell County, WV",McDowell County,MCDOWELL,WV,us,54047,47,54
W,36.75083,-77.85,"Brunswick County, VA",Brunswick County,BRUNSWICK,VA,us,51025,25,51
W,37.2,-86.25056,"Edmonson County, KY",Edmonson County,EDMONSON,KY,us,21061,61,21
W,38.3,-80.83333,"Nicholas County, WV",Nicholas County,NICHOLAS,WV,us,54067,67,54
W,37.15,-81.13333,"Bland County, VA",Bland County,BLAND,VA,us,51021,21,51
W,38.51667,-80.41667,"Webster County, WV",Webster County,WEBSTER,WV,us,54101,101,54
W,37.7,-82.15,"Mingo County, WV",Mingo County,MINGO,WV,us,54059,59,54
W,39.86667,-80.65,"Marshall County, WV",Marshall County,MARSHALL,WV,us,54051,51,54
W,38.96667,-80.51667,"Lewis County, WV",Lewis County,LEWIS,WV,us,54041,41,54
W,38.31667,-80.03333,"Pocahontas County, WV",Pocahontas County,POCAHONTAS,WV,us,54075,75,54
W,37.31667,-80.68333,"Giles County, VA",Giles County,GILES,VA,us,51071,71,51
W,38.36667,-79.36667,"Highland County, VA",Highland County,HIGHLAND,VA,us,51091,91,51
W,37.11667,-76.9,"Surry County, VA",Surry County,SURRY,VA,us,51181,181,51
W,37.73333,-76.43333,"Lancaster County, VA",Lancaster County,LANCASTER,VA,us,51103,103,51
W,37.88333,-76.41667,"Northumberland County, VA",Northumberland County,NORTHUMBERLAND,VA,us,51133,133,51
W,39.11667,-77.96667,"Clarke County, VA",Clarke County,CLARKE,VA,us,51043,43,51
W,38.06667,-79.73333,"Bath County, VA",Bath County,BATH,VA,us,51017,17,51
W,37.43333,-76.36667,"Mathews County, VA",Mathews County,MATHEWS,VA,us,51115,115,51
W,37.68333,-77.08333,"King William County, VA",King William County,KING WILLIAM,VA,us,51101,101,51
W,37.73333,-77.91667,"Goochland County, VA",Goochland County,GOOCHLAND,VA,us,51075,75,51
W,37.85,-78.26667,"Fluvanna County, VA",Fluvanna County,FLUVANNA,VA,us,51065,65,51
W,38.66667,-78.15,"Rappahannock County, VA",Rappahannock County,RAPPAHANNOCK,VA,us,51157,157,51
W,37.25056,-82.03333,"Buchanan County, VA",Buchanan County,BUCHANAN,VA,us,51027,27,51
W,37.56667,-79.78333,"Botetourt County, VA",Botetourt County,BOTETOURT,VA,us,51023,23,51
W,37.75,-75.66667,"Accomack County, VA",Accomack County,ACCOMACK,VA,us,51001,1,51
W,38.16667,-79.11667,"Augusta County, VA",Augusta County,AUGUSTA,VA,us,51015,15,51
W,37.3,-79.56667,"Bedford County, VA",Bedford County,BEDFORD,VA,us,51019,19,51
W,37.06667,-77.63333,"Dinwiddie County, VA",Dinwiddie County,DINWIDDIE,VA,us,51053,53,51
W,37.78333,-80.00056,"Alleghany County, VA",Alleghany County,ALLEGHANY,VA,us,51005,5,51
W,37,-78.68333,"Charlotte County, VA",Charlotte County,CHARLOTTE,VA,us,51037,37,51
W,36.65,-81.21667,"Grayson County, VA",Grayson County,GRAYSON,VA,us,51077,77,51
W,37.3,-76.76667,"James City County, VA",James City County,JAMES CITY,VA,us,51095,95,51
W,38.26667,-77.15,"King George County, VA",King George County,KING GEORGE,VA,us,51099,99,51
W,36.68333,-83.13333,"Lee County, VA",Lee County,LEE,VA,us,51105,105,51
W,36.66667,-79.88333,"Henry County, VA",Henry County,HENRY,VA,us,51089,89,51
W,37.41667,-76.55,"Gloucester County, VA",Gloucester County,GLOUCESTER,VA,us,51073,73,51
W,36.75028,-78.93333,"Halifax County, VA",Halifax County,HALIFAX,VA,us,51083,83,51
W,37.13333,-78.06667,"Nottoway County, VA",Nottoway County,NOTTOWAY,VA,us,51135,135,51
W,38.63333,-78.46667,"Page County, VA",Page County,PAGE,VA,us,51139,139,51
W,36.85,-81.51667,"Smyth County, VA",Smyth County,SMYTH,VA,us,51173,173,51
W,37.95,-76.73333,"Richmond County, VA",Richmond County,RICHMOND,VA,us,51760,760,51
W,36.93333,-82.08333,"Russell County, VA",Russell County,RUSSELL,VA,us,51167,167,51
W,37.06667,-80.71667,"Pulaski County, VA",Pulaski County,PULASKI,VA,us,51155,155,51
W,36.96667,-82.6,"Wise County, VA",Wise County,WISE,VA,us,51195,195,51
W,36.71667,-81.96667,"Washington County, VA",Washington County,WASHINGTON,VA,us,51191,191,51
W,36.66667,-80.28333,"Patrick County, VA",Patrick County,PATRICK,VA,us,51141,141,51
W,36.7,-82.58333,"Scott County, VA",Scott County,SCOTT,VA,us,51169,169,51
W,37.1,-81.56667,"Tazewell County, VA",Tazewell County,TAZEWELL,VA,us,51185,185,51
W,37.16667,-80.38333,"Montgomery County, VA",Montgomery County,MONTGOMERY,VA,us,51121,121,51
W,36.93333,-77.25,"Sussex County, VA",Sussex County,SUSSEX,VA,us,51183,183,51
W,36.68333,-77.56667,"Greensville County, VA",Greensville County,GREENSVILLE,VA,us,51081,81,51
W,37.78333,-78.78333,"Nelson County, VA",Nelson County,NELSON,VA,us,51125,125,51
W,38.11667,-83.11667,"Elliott County, KY",Elliott County,ELLIOTT,KY,us,21063,63,21
W,37.7,-83.95,"Estill County, KY",Estill County,ESTILL,KY,us,21065,65,21
W,38.05,-84.45,"Fayette County, KY",Fayette County,FAYETTE,KY,us,21067,67,21
W,38.35,-83.68333,"Fleming County, KY",Fleming County,FLEMING,KY,us,21069,69,21
W,37.55,-82.75056,"Floyd County, KY",Floyd County,FLOYD,KY,us,21071,71,21
W,38.23333,-84.86667,"Franklin County, KY",Franklin County,FRANKLIN,KY,us,21073,73,21
W,36.55,-89.13333,"Fulton County, KY",Fulton County,FULTON,KY,us,21075,75,21
W,38.75056,-84.85,"Gallatin County, KY",Gallatin County,GALLATIN,KY,us,21077,77,21
W,37.61667,-84.55,"Garrard County, KY",Garrard County,GARRARD,KY,us,21079,79,21
W,38.65,-84.65,"Grant County, KY",Grant County,GRANT,KY,us,21081,81,21
W,36.73333,-88.65,"Graves County, KY",Graves County,GRAVES,KY,us,21083,83,21
W,37.46667,-86.35,"Grayson County, KY",Grayson County,GRAYSON,KY,us,21085,85,21
W,37.26667,-85.53333,"Green County, KY",Green County,GREEN,KY,us,21087,87,21
W,38.51667,-82.95,"Greenup County, KY",Greenup County,GREENUP,KY,us,21089,89,21
W,37.85,-86.76667,"Hancock County, KY",Hancock County,HANCOCK,KY,us,21091,91,21
W,37.7,-85.96667,"Hardin County, KY",Hardin County,HARDIN,KY,us,21093,93,21
W,36.85,-83.18333,"Harlan County, KY",Harlan County,HARLAN,KY,us,21095,95,21
W,38.45,-84.35,"Harrison County, KY",Harrison County,HARRISON,KY,us,21097,97,21
W,37.3,-85.88333,"Hart County, KY",Hart County,HART,KY,us,21099,99,21
W,37.78333,-87.56667,"Henderson County, KY",Henderson County,HENDERSON,KY,us,21101,101,21
W,38.45,-85.15,"Henry County, KY",Henry County,HENRY,KY,us,21103,103,21
W,36.66667,-88.98333,"Hickman County, KY",Hickman County,HICKMAN,KY,us,21105,105,21
W,37.33333,-87.55,"Hopkins County, KY",Hopkins County,HOPKINS,KY,us,21107,107,21
W,37.41667,-84.00056,"Jackson County, KY",Jackson County,JACKSON,KY,us,21109,109,21
W,38.18333,-85.65,"Jefferson County, KY",Jefferson County,JEFFERSON,KY,us,21111,111,21
W,37.86667,-84.56667,"Jessamine County, KY",Jessamine County,JESSAMINE,KY,us,21113,113,21
W,37.85,-82.85,"Johnson County, KY",Johnson County,JOHNSON,KY,us,21115,115,21
W,38.95,-84.53333,"Kenton County, KY",Kenton County,KENTON,KY,us,21117,117,21
W,37.35,-82.95,"Knott County, KY",Knott County,KNOTT,KY,us,21119,119,21
W,36.88333,-83.85,"Knox County, KY",Knox County,KNOX,KY,us,21121,121,21
W,37.55,-85.7,"Larue County, KY",Larue County,LARUE,KY,us,21123,123,21
W,37.13333,-84.13333,"Laurel County, KY",Laurel County,LAUREL,KY,us,21125,125,21
W,38.06667,-82.76667,"Lawrence County, KY",Lawrence County,LAWRENCE,KY,us,21127,127,21
W,37.6,-83.7,"Lee County, KY",Lee County,LEE,KY,us,21129,129,21
W,37.1,-83.36667,"Leslie County, KY",Leslie County,LESLIE,KY,us,21131,131,21
W,37.13333,-82.86667,"Letcher County, KY",Letcher County,LETCHER,KY,us,21133,133,21
W,38.53333,-83.48333,"Lewis County, KY",Lewis County,LEWIS,KY,us,21135,135,21
W,37.45,-84.66667,"Lincoln County, KY",Lincoln County,LINCOLN,KY,us,21137,137,21
W,37.21667,-88.33333,"Livingston County, KY",Livingston County,LIVINGSTON,KY,us,21139,139,21
W,36.86667,-86.86667,"Logan County, KY",Logan County,LOGAN,KY,us,21141,141,21
W,37.03333,-88.06667,"Lyon County, KY",Lyon County,LYON,KY,us,21143,143,21
W,37.73333,-84.3,"Madison County, KY",Madison County,MADISON,KY,us,21151,151,21
W,37.7,-83.08333,"Magoffin County, KY",Magoffin County,MAGOFFIN,KY,us,21153,153,21
W,37.55,-85.26667,"Marion County, KY",Marion County,MARION,KY,us,21155,155,21
W,36.86667,-88.35,"Marshall County, KY",Marshall County,MARSHALL,KY,us,21157,157,21
W,37.81667,-82.51667,"Martin County, KY",Martin County,MARTIN,KY,us,21159,159,21
W,38.58333,-83.8,"Mason County, KY",Mason County,MASON,KY,us,21161,161,21
W,37.05,-88.7,"McCracken County, KY",McCracken County,MCCRACKEN,KY,us,21145,145,21
W,36.73333,-84.46667,"McCreary County, KY",McCreary County,MCCREARY,KY,us,21147,147,21
W,37.53333,-87.25056,"McLean County, KY",McLean County,MCLEAN,KY,us,21149,149,21
W,37.96667,-86.23333,"Meade County, KY",Meade County,MEADE,KY,us,21163,163,21
W,37.93333,-83.6,"Menifee County, KY",Menifee County,MENIFEE,KY,us,21165,165,21
W,37.83333,-84.86667,"Mercer County, KY",Mercer County,MERCER,KY,us,21167,167,21
W,36.98333,-85.61667,"Metcalfe County, KY",Metcalfe County,METCALFE,KY,us,21169,169,21
W,36.71667,-85.73333,"Monroe County, KY",Monroe County,MONROE,KY,us,21171,171,21
W,38.05,-83.91667,"Montgomery County, KY",Montgomery County,MONTGOMERY,KY,us,21173,173,21
W,37.91667,-83.26667,"Morgan County, KY",Morgan County,MORGAN,KY,us,21175,175,21
W,37.21667,-87.15,"Muhlenberg County, KY",Muhlenberg County,MUHLENBERG,KY,us,21177,177,21
W,37.8,-85.46667,"Nelson County, KY",Nelson County,NELSON,KY,us,21179,179,21
W,38.31667,-84.00056,"Nicholas County, KY",Nicholas County,NICHOLAS,KY,us,21181,181,21
W,37.46667,-86.86667,"Ohio County, KY",Ohio County,OHIO,KY,us,21183,183,21
W,38.41667,-85.45,"Oldham County, KY",Oldham County,OLDHAM,KY,us,21185,185,21
W,38.51667,-84.83333,"Owen County, KY",Owen County,OWEN,KY,us,21187,187,21
W,37.43333,-83.66667,"Owsley County, KY",Owsley County,OWSLEY,KY,us,21189,189,21
W,38.7,-84.36667,"Pendleton County, KY",Pendleton County,PENDLETON,KY,us,21191,191,21
W,37.25056,-83.2,"Perry County, KY",Perry County,PERRY,KY,us,21193,193,21
W,37.46667,-82.35,"Pike County, KY",Pike County,PIKE,KY,us,21195,195,21
W,37.83333,-83.81667,"Powell County, KY",Powell County,POWELL,KY,us,21197,197,21
W,37.35,-78.01667,"Amelia County, VA",Amelia County,AMELIA,VA,us,51007,7,51
W,37.95,-76.95,"Essex County, VA",Essex County,ESSEX,VA,us,51057,57,51
W,37.11667,-84.6,"Pulaski County, KY",Pulaski County,PULASKI,KY,us,21199,199,21
W,38.53333,-84.05,"Robertson County, KY",Robertson County,ROBERTSON,KY,us,21201,201,21
W,37.36667,-84.31667,"Rockcastle County, KY",Rockcastle County,ROCKCASTLE,KY,us,21203,203,21
W,38.18333,-83.43333,"Rowan County, KY",Rowan County,ROWAN,KY,us,21205,205,21
W,36.98333,-85.03333,"Russell County, KY",Russell County,RUSSELL,KY,us,21207,207,21
W,38.76667,-79.83333,"Randolph County, WV",Randolph County,RANDOLPH,WV,us,54083,83,54
W,38.3,-84.56667,"Scott County, KY",Scott County,SCOTT,KY,us,21209,209,21
W,38.2,-85.18333,"Shelby County, KY",Shelby County,SHELBY,KY,us,21211,211,21
W,36.75056,-86.58333,"Simpson County, KY",Simpson County,SIMPSON,KY,us,21213,213,21
W,38.03333,-85.35,"Spencer County, KY",Spencer County,SPENCER,KY,us,21215,215,21
W,37.35,-85.35,"Taylor County, KY",Taylor County,TAYLOR,KY,us,21217,217,21
W,36.76667,-87.13333,"Todd County, KY",Todd County,TODD,KY,us,21219,219,21
W,36.8,-87.86667,"Trigg County, KY",Trigg County,TRIGG,KY,us,21221,221,21
W,38.61667,-85.33333,"Trimble County, KY",Trimble County,TRIMBLE,KY,us,21223,223,21
W,37.65,-87.95,"Union County, KY",Union County,UNION,KY,us,21225,225,21
W,39.26667,-80.7,"Doddridge County, WV",Doddridge County,DODDRIDGE,WV,us,54017,17,54
W,39.3,-77.85,"Jefferson County, WV",Jefferson County,JEFFERSON,WV,us,54037,37,54
W,37.4,-81.11667,"Mercer County, WV",Mercer County,MERCER,WV,us,54055,55,54
W,38.51667,-81.88333,"Putnam County, WV",Putnam County,PUTNAM,WV,us,54079,79,54
W,39.58333,-80.66667,"Wetzel County, WV",Wetzel County,WETZEL,WV,us,54103,103,54
W,39.13333,-80.03333,"Barbour County, WV",Barbour County,BARBOUR,WV,us,54001,1,54
W,37.95,-80.41667,"Greenbrier County, WV",Greenbrier County,GREENBRIER,WV,us,54025,25,54
W,38.83333,-81.68333,"Jackson County, WV",Jackson County,JACKSON,WV,us,54035,35,54
W,37.56667,-80.55,"Monroe County, WV",Monroe County,MONROE,WV,us,54063,63,54
W,38.48333,-81.06667,"Clay County, WV",Clay County,CLAY,WV,us,54015,15,54
W,39.1,-79.56667,"Tucker County, WV",Tucker County,TUCKER,WV,us,54093,93,54
W,39.45,-80.86667,"Tyler County, WV",Tyler County,TYLER,WV,us,54095,95,54
W,39.35,-80.05,"Taylor County, WV",Taylor County,TAYLOR,WV,us,54091,91,54
W,38.83333,-81.11667,"Calhoun County, WV",Calhoun County,CALHOUN,WV,us,54013,13,54
W,38.73333,-81.35,"Roane County, WV",Roane County,ROANE,WV,us,54087,87,54
W,38.05,-81.1,"Fayette County, WV",Fayette County,FAYETTE,WV,us,54019,19,54
W,41.35,-84.1,"Henry County, OH",Henry County,HENRY,OH,us,39069,69,39
W,36.98333,-86.4,"Warren County, KY",Warren County,WARREN,KY,us,21227,227,21
W,37.76667,-85.18333,"Washington County, KY",Washington County,WASHINGTON,KY,us,21229,229,21
W,36.8,-84.81667,"Wayne County, KY",Wayne County,WAYNE,KY,us,21231,231,21
W,37.51667,-87.68333,"Webster County, KY",Webster County,WEBSTER,KY,us,21233,233,21
W,36.76667,-84.15,"Whitley County, KY",Whitley County,WHITLEY,KY,us,21235,235,21
W,37.36667,-77.06667,"Charles City County, VA",Charles City County,CHARLES CITY,VA,us,51036,36,51
W,37.73333,-83.48333,"Wolfe County, KY",Wolfe County,WOLFE,KY,us,21237,237,21
W,38.03333,-84.73333,"Woodford County, KY",Woodford County,WOODFORD,KY,us,21239,239,21
W,40.28333,-80.56667,"Brooke County, WV",Brooke County,BROOKE,WV,us,54009,9,54
W,39.65,-80.03333,"Monongalia County, WV",Monongalia County,MONONGALIA,WV,us,54061,61,54
W,39.03333,-81.35,"Wirt County, WV",Wirt County,WIRT,WV,us,54105,105,54
W,38.16667,-82.08333,"Lincoln County, WV",Lincoln County,LINCOLN,WV,us,54043,43,54
W,38.68333,-79.35,"Pendleton County, WV",Pendleton County,PENDLETON,WV,us,54071,71,54
